loyalty #,first,last,phone,address,city,state,zip,
398250,Jaycee,Fischer,8403919792,3521 Stargate Circle,Burnsville, MN,55337,
607110,Ashlyn,Faulkner,3279400152,5611 Kendall Court,Alabaster, AL,35007,
132359,Kierra,Blanchard,7851082094,7941 Alpine View Circle,Simpsonville, SC,29680,
954288,Armani,Mann,9491601005,120 Depot Street,Grand Island, NE,68801,
272604,Caroline,Boyle,4731375852,1432 Bell Trace Drive,Sandusky, OH,44870,
889758,Jazlyn,Mccormick,6826754096,106 Camelot Drive,Westland, MI,48185,
778818,Lea,Romero,1656454305,1211 Castine Court,Kearny, NJ,07032,
512845,Marina,Gray,4212593339,31 Ashworth Street,Hyattsville, MD,20782,
290003,Brittany,Fowler,3682033971,219 Shana Road,Kalispell, MT,59901,
785573,Kylie,Boyer,3854982986,971 Zenith Loop,Avon, IN,46123,
158331,America,Todd,6122312441,8505 Waters Avenue,Fullerton, CA,92831,
745551,Cadence,Oliver,5912668480,75 Wilfred Road,Opa Locka, FL,33054,
116712,Rhianna,West,4130601748,66 Bradford Road,Atlantic City, NJ,08401,
626837,Aryanna,Robertson,2217716450,8513 Pipit Court,Ponte Vedra Beach, FL,32082,
485168,Jimena,Graves,7926854224,6713 Holt Road,Oakland, CA,94603,
703076,Kaley,Garrison,2851116436,1428 Flatwood Court,Sarasota, FL,34231,
427233,Nylah,Diaz,4471140932,1254 Muldoon Road,Menomonee Falls, WI,53051,
277391,Jaida,Conrad,4058005877,2306 Edinburgh Drive,Gwynn Oak, MD,21207,
100394,Kathleen,Lara,3398014462,77 Gerald Drive,Amityville, NY,11701,
760932,Rosa,Morse,3789412120,535 Saddlewood Lane,Massillon, OH,44646,
470353,Cloe,Sharp,6915583762,140 West Cooper Avenue,Canonsburg, PA,15317,
439634,Rose,Reese,1477618598,2355 Pearl Point,Staten Island, NY,10301,
380378,Sloane,Mathis,4478595187,9331 Edison Road,New Albany, IN,47150,
388609,Cailyn,Cordova,1261510245,1701 18th Avenue South,Huntsville, AL,35803,
920669,Lilian,Huynh,5037677024,1500 South Division Street,Waynesboro, PA,17268,
949494,Alayna,Norris,6041756638,1559 Alabama Avenue Southeast,Santa Cruz, CA,95060,
845528,Precious,Santiago,1796026009,1460 Berger Street,Flint, MI,48504,
451686,Krista,Mclean,2262370483,108 Chalmers Avenue,Daphne, AL,36526,
442050,Jocelyn,Moss,6815850531,13213 Spanish Moss Road,Danvers, MA,01923,
217771,Clarissa,Buckley,9821161317,1256 Talbert Street Southeast,Hermitage, TN,37076,
592572,Carleigh,Avery,1320804686,109 Summit Street,Groton, CT,06340,
350125,Nicole,Chung,3582700020,6029 Wright Street,Frederick, MD,21701,
770038,Hanna,Delacruz,1183931970,7321 East Chester Heights Circle,Westford, MA,01886,
657580,Giselle,Castillo,5298760757,89 Barrensdale Drive,Arlington Heights, IL,60004,
752575,Elena,Brown,8902536799,814 East 10th Court,Tampa, FL,33604,
627059,Paige,Roy,4730031253,5811 Crossings Boulevard,Canal Winchester, OH,43110,
257845,Jasmine,Ortiz,2057776475,449 Saratoga Lane,Fort Lauderdale, FL,33308,
149066,Adrienne,Blackburn,1391245949,12002 Vanherr Drive,Traverse City, MI,49684,
380971,Allie,Swanson,5662103221,2613 Cottonwood Street,Circle Pines, MN,55014,
943737,Kyla,Kent,7505769493,1025 Rose Anne Road,Port Charlotte, FL,33952,
715236,Ava,Meadows,3986893740,2716 30th Street Southeast,Woodbridge, VA,22191,
886041,Michelle,Waters,3184508967,1030 Lake Claire Drive,Spring Hill, FL,34608,
421497,Gisselle,Hill,7020580883,829 Dunbarton Road,Akron, OH,44312,
414310,Summer,Shah,3757912175,4821 Milner Drive,Bridgewater, NJ,08807,
475741,Maria,Black,6971575821,970 Old Oak Road,Central Islip, NY,11722,
939628,Tiara,Branch,3385577952,5161 Jefferson Boulevard,Faribault, MN,55021,
333510,Jaqueline,Barber,2927367421,2732 Rosedale Place,Hallandale, FL,33009,
923063,Brianna,Silva,2138173618,401 Fairhill Court,Warminster, PA,18974,
110678,Payten,Mcbride,3860835195,4221 East Mission Boulevard,Thornton, CO,80241,
938707,Kaila,Mccoy,8369964253,72 Bentley Avenue,Cordova, TN,38016,
794770,Jadyn,Wilson,9933365689,30544 Whitmore Road,Lynn, MA,01902,
418160,Alia,Garza,4377503230,589 East Main Street,Garland, TX,75043,
709966,Kirsten,Castaneda,5327372572,3469 North Par Court,Shepherdsville, KY,40165,
758920,Kiera,Austin,6104484518,314 South 17th Street,Glen Burnie, MD,21060,
613169,Alisha,Ross,4912396531,3219 Lakeshore Drive,Lindenhurst, NY,11757,
993890,Eliza,Marshall,7037833117,222 Rockcrest Way,Middleton, WI,53562,
372037,Alivia,Rose,7795684955,2 Thompson Road,Framingham, MA,01701,
368960,Leila,Hart,3787807604,164 Tensaw Road,Dallas, GA,30132,
836748,Amya,Lowe,2151368593,112 Mallard Drive,Staunton, VA,24401,
490800,Arianna,Huffman,7197352840,813 Holt Grove Court,Clinton, MD,20735,
623618,Shannon,Watson,5238106083,6005 Tamarack Drive,Canton, GA,30114,
454079,Helen,Chang,6794133512,46 Sugarloaf Hill Road,Saint Charles, IL,60174,
221774,Briana,Holloway,3662363191,138 Bolton Street,Hummelstown, PA,17036,
809696,Deanna,Jennings,4742249042,2905 Stonebridge Court,Piscataway, NJ,08854,
512357,India,Charles,7538969973,3060 Zelda Road,Lorton, VA,22079,
194967,Belinda,Harper,5183860459,1364 Capri Drive,Memphis, TN,38106,
710724,Alisson,Gentry,7953111537,716 Waller Road,New Milford, CT,06776,
162793,Libby,Sanders,1640460029,11 Alden Court,Colonial Heights, VA,23834,
366334,Tianna,Maxwell,3130606110,2845 Zelda Road,Ambler, PA,19002,
915241,Charity,Ewing,1585148498,629 Cutter Court,Gurnee, IL,60031,
487403,Zaniyah,Green,5023548561,1136 Northwest 31st Street,Naples, FL,34116,
973319,Yuliana,Sims,7741651794,4712 Cherokee Heights Road,Holly Springs, NC,27540,
602695,Corinne,Baker,6167635692,939 West Beach Drive,Independence, KY,41051,
724274,Chanel,Robbins,5830144079,106 Varnum Street Northwest,Bethesda, MD,20814,
357110,Anabella,Martinez,1420291849,11843 North 60th Avenue,Raleigh, NC,27603,
829100,Casey,Glass,9527125573,645 Malaga Place,Miami, FL,33125,
721738,Delaney,Stephenson,1806381022,3526 Sutton Loop,West Springfield, MA,01089,
561464,Aileen,Fletcher,3648802376,5619 Clay Place Northeast,Chattanooga, TN,37421,
458459,Campbell,Joseph,7671932442,18318 Pioneer Drive,Williamsport, PA,17701,
731967,Lillie,Clements,9671504954,194 Buckland Hills Drive,Trussville, AL,35173,
890766,Allisson,Adams,1784442156,4035 East 8th Street,Sidney, OH,45365,
830128,Alissa,Gross,6203026640,386 Daniels Road,Billerica, MA,01821,
674253,Yadira,Mcintosh,7394062329,2318 Camryns Crossing,Bridgeport, CT,06606,
389742,Avery,Williams,6862598715,1515 Excelsior Avenue,Macon, GA,31204,
133854,Celia,Chandler,7313790318,804 Dry Creek Road,Springboro, OH,45066,
275769,Alma,Hood,6994486320,150 Carter Street,East Northport, NY,11731,
729688,Kenya,Hayes,6782298150,10301 La Plaza Drive,Nicholasville, KY,40356,
220288,Elise,Zuniga,2011405246,6800 West Bell Road,Palmetto, FL,34221,
108305,Annabella,Snow,6053024333,65 Jones Lane,Lumberton, NC,28358,
626313,Rihanna,Harrison,3471120733,3823 Shannon Run Trail,Chambersburg, PA,17201,
870607,Jazmin,Grimes,3301042894,1101 West 48th Street,Monroeville, PA,15146,
553779,Eleanor,Ritter,3144982202,341 West Tudor Road,Boynton Beach, FL,33435,
619516,Macey,Logan,3686646374,8121 Copper Creek Drive,Middle River, MD,21220,
403531,Tatiana,Edwards,9833875111,1528 Stafford Avenue,Prattville, AL,36067,
835470,Alina,Mcdaniel,7457950586,184 Oak Street,Greer, SC,29650,
645498,Sophia,Jordan,4853624938,205 Homestead Street,Owosso, MI,48867,
990206,Mayra,Byrd,6169337152,1383 Purdue Street,Buffalo, NY,14215,
409287,Sandra,Mckay,5325303676,6802 North 67th Avenue,Piqua, OH,45356,
818559,Aisha,Powell,7121129313,26466 Mockingbird Lane,Meadville, PA,16335,
730405,Kira,Cardenas,8645871099,44 Downey Drive,Yuma, AZ,85365,
380779,Ashley,Jarvis,4330085168,1318 4th Street Southwest,East Elmhurst, NY,11369,
553484,Addyson,Guzman,3560055941,628 Ayrlie Water Road,Lebanon, PA,17042,
743970,Paris,Clark,8135886658,8671 West 78th Circle,Ogden, UT,84404,
697683,Angelina,Gillespie,5722697316,262 Mitchell Street,Elizabethton, TN,37643,
141486,Harley,Stephens,6907566118,61 Cubles Drive,Bethlehem, PA,18015,
843037,Lucy,Perkins,8531556692,403 Turkey Creek Road,Auburn, NY,13021,
483560,Abigail,Skinner,1362921195,11 Pine Point Road,Logansport, IN,46947,
541090,Kallie,Hunt,4585040721,449 15th Street Northeast,Hopkins, MN,55343,
994655,Eliza,Carney,7142632632,172 Chestnut Street,Adrian, MI,49221,
973665,Kaia,Murray,2648545650,1405 Mercedes Avenue,Roanoke Rapids, NC,27870,
446378,Lilianna,Thompson,4586980695,16205 Wind Crest Way,Waterloo, IA,50701,
116835,Ruth,Camacho,1942233481,1456 North Coghill Drive,Waxhaw, NC,28173,
693712,Kelly,Jones,5373813838,302 East Granada Street,Muncie, IN,47302,
987319,Ryan,Pearson,5049091352,46 Deslauriers Street,Schenectady, NY,12302,
553596,Evie,Prince,6836530252,6221 Allison Street,State College, PA,16801,
489645,Regina,Woodard,6778997446,600 West 19th Avenue,Eugene, OR,97402,
859692,Teresa,Nielsen,3072465090,6100 Bullard Drive,Fairmont, WV,26554,
508006,Amiyah,Haas,2860941451,12039 West 85th Drive,Munster, IN,46321,
244108,Isabella,Garcia,4925782613,3537 West Chevaux Drive,Schaumburg, IL,60193,
459168,Milagros,Mclaughlin,5277186391,4800 Huffman Road,Winter Park, FL,32792,
289978,Josie,Hanson,9665578695,2787 West Blackstone Crossing,Littleton, CO,80123,
657791,Allison,Murillo,2832201173,2809 Briarcliff Road,Aliquippa, PA,15001,
961768,Kiley,Potts,5669135668,5601 West Missouri Avenue,Moses Lake, WA,98837,
146371,Stella,Wilkinson,9797039496,430 Fig Street,New York, NY,10002,
849844,Yesenia,Newman,9856606157,71 Racine Road,Coatesville, PA,19320,
325673,Amari,Campbell,4373709652,10927 West 59th Avenue,Romeoville, IL,60446,
532387,Arely,Mathews,3191891027,5420 Sunset Avenue,Atwater, CA,95301,
334626,Rosa,Espinoza,4476977267,327 Fairway Boulevard,Tucson, AZ,85718,
164044,Carlee,Lloyd,9678331126,1 Logan Circle Northwest,Hernando, MS,38632,
926369,Giovanna,Villa,6642541269,700 Revels Drive,Chesterfield, VA,23832,
560122,Eva,Stokes,9651287735,1653 Brooks Avenue,Iowa City, IA,52240,
480171,Brynn,Bowen,2206866403,6578 Marauder Drive,Cheshire, CT,06410,
878518,Justice,Johnston,3753141954,370 Wallace Road,Mountain View, CA,94043,
258349,Ciara,Hampton,8439653377,6985 Woodstock Road,Wilmette, IL,60091,
301062,Caitlyn,Lozano,1454792148,1710 Monroe Street Northeast,Hattiesburg, MS,39401,
587893,Natalie,Floyd,1981465383,1110 Okie Street Northeast,North Miami Beach, FL,33160,
997971,Paisley,Sosa,3953659253,7513 Lois Street,Indian Trail, NC,28079,
573433,Mckenzie,Solomon,3450585168,6452 El Camino Real,Hackettstown, NJ,07840,
809815,Jada,Taylor,5356683690,8358 WB&A Road,Chelmsford, MA,01824,
727626,Serenity,Bauer,5230866167,2307 East 72nd Avenue,Derby, KS,67037,
572238,Miranda,Kelly,4816133257,4300 Woodley Square,Evans, GA,30809,
163744,Katie,Flowers,8307274329,7431 Candace Way,Wyandotte, MI,48192,
671612,Jacqueline,Roth,9016201297,37 Parlmont Park,Norfolk, VA,23503,
594748,Addisyn,Underwood,3932562215,69 Washington Street,Inman, SC,29349,
773917,Sherlyn,Mcclain,2564220843,210 Depot Street,Mount Pleasant, SC,29464,
952933,Danielle,Johns,6444702856,3811 W Street Southeast,Brighton, MA,02135,
333601,Michelle,Coffey,4742698095,1865 North Higley Road,Reston, VA,20191,
835147,Emely,Gamble,6919631767,217 Northeast 1st Street,Summerville, SC,29483,
806343,Callie,Franco,4494600511,4696 Bull Run Road,Canandaigua, NY,14424,
590200,Lorelei,Allen,8119280080,7645 Marshall Street,West Deptford, NJ,08096,
656807,Kaylen,Conley,9095372835,12403 Deerfield Road,Virginia Beach, VA,23451,
128516,Amara,Abbott,1458583204,2931 Shady Oaks Drive,Clarksville, TN,37040,
582009,Madeline,Aguilar,6334534955,1363 Dean Forest Road,Mount Airy, MD,21771,
399489,Alayna,Trujillo,7717957187,103 Fenwick Village Drive,Levittown, NY,11756,
389001,Jadyn,Foster,7417766966,8474 Chase Drive,Selden, NY,11784,
217755,Jaelyn,Gardner,3552835677,6657 West Rose Garden Lane,Norwood, MA,02062,
401234,Avah,Hall,8818611718,1485 Hampshire Hollow Road,Canyon Country, CA,91387,
939021,Sophia,Jensen,5987093597,900 North Leverett Avenue,Altoona, PA,16601,
613481,Dominique,Thornton,4675605980,5331 Rexford Court,Little Rock, AR,72209,
276193,Allyson,Morrison,7972529226,89 High Ledge Circle,New Hyde Park, NY,11040,
146423,Mina,Lam,3596664556,2170 Benton Boulevard,Fleming Island, FL,32003,
327197,Kierra,Murphy,7284403986,11150 Sun Valley Drive,Fishers, IN,46037,
517060,Elizabeth,Flores,6709190311,5244 West Port Au Prince Lane,Paducah, KY,42001,
955733,Myla,Singleton,1094945035,2 Cockle Shell Road,Wooster, OH,44691,
777927,Azaria,Chaney,5183379606,238 Brookley Avenue Southwest,Fairburn, GA,30213,
503152,Brisa,Sheppard,3531273275,9134 Brook Park Drive,Basking Ridge, NJ,07920,
824947,Noemi,Glover,7079319140,52 Linnmore Drive,Olympia, WA,98512,
141854,Cloe,Glenn,2027905008,8150 North 61st Avenue,Port Washington, NY,11050,
336151,Precious,Holder,4777942192,3207 Art Hall Lane,Manahawkin, NJ,08050,
259274,Kyra,Boyd,5964830434,8401 Pinewood Drive,Tallahassee, FL,32303,
807600,Raegan,Rush,3645070482,1106 Homer Avenue,La Crosse, WI,54601,
445298,London,Santos,4002199094,2515 60th Avenue,Macungie, PA,18062,
827227,Ryleigh,Zimmerman,3560589123,35 Lakewood Circle South,Woonsocket, RI,02895,
463247,Leticia,Rosario,9050792131,1901 North Midwest Boulevard,Brookline, MA,02446,
475489,Miah,Dickerson,6447440418,1318 35th Street Northwest,Bethel Park, PA,15102,
586580,Veronica,Rasmussen,4608521226,56 Daley Lane,Jamaica Plain, MA,02130,
234051,Jaylin,Atkinson,2941912764,89 Plaistow Road,Powell, TN,37849,
714648,Selena,Merritt,5360123498,6013 Cherry Hill Road,Covington, GA,30014,
374279,Maia,Wilkins,2659720332,4511 43rd Place Northwest,Old Bridge, NJ,08857,
890295,Danna,Liu,6442734567,10307 Rock Falls Court,Forney, TX,75126,
751404,Fiona,Burke,4167218798,3516 North Virginia Avenue,Moncks Corner, SC,29461,
574554,Giselle,Arias,6113875596,2237 Northwest 18th Street,Windsor Mill, MD,21244,
404226,Katherine,Hinton,7966318721,1983 Reidsville Street,Springfield, PA,19064,
190556,Annabelle,Best,3799742449,9828 East Pueblo Avenue,Bangor, ME,04401,
893494,Karina,May,8679499242,1822 Dixdale Avenue,Clarksburg, WV,26301,
467287,Elise,Maldonado,8960841161,5136 Gaines Street,Round Lake, IL,60073,
294556,Livia,Rhodes,2457488361,1636 Briarview Court,Hicksville, NY,11801,
176849,Litzy,Everett,2069113378,661 West Corinth Road,Chatsworth, GA,30705,
545909,Crystal,Barron,8183712262,232 Maine Avenue,Hixson, TN,37343,
156705,Kamila,Parker,9154967192,1523 South 9th Street,Graham, NC,27253,
803760,Lena,Rivas,8913349591,12901 Mission Circle,Oxford, MS,38655,
536817,Cassandra,Velazquez,3953980394,2220 Kirk Avenue,Hollis, NY,11423,
126177,Kenna,Mckenzie,7258735276,126 Garth Road,Owings Mills, MD,21117,
970379,Johanna,Morales,7447589805,53 Greenwood Avenue,Granger, IN,46530,
706296,Charlie,Bass,4528783049,815 West Market Street,Pottstown, PA,19464,
882529,Martha,Cantu,8692473267,721 Bay Ridge Avenue,Maryville, TN,37803,
606633,Saniya,Walton,7697197629,7232 West Melinda Lane,Langhorne, PA,19047,
759268,Sienna,Bradshaw,7991736082,923 K Street Northeast,Fairfield, CT,06824,
196362,Jasmine,Noble,4342443286,2195 Cantelou Road,Mokena, IL,60448,
660877,Carissa,Nunez,8932455178,1701 Atlantic Street,Voorhees, NJ,08043,
662414,Meredith,Bean,7761003809,180 Center Street,Taunton, MA,02780,
416041,Nancy,Wiley,1198947565,11140 West 60th Avenue,Wake Forest, NC,27587,
301008,Sidney,Rios,7343573769,9209 Eupora Court,Egg Harbor Township, NJ,08234,
526176,Kristen,Miles,3042263705,3313 East Tecumseh Road,Chillicothe, OH,45601,
623787,Mareli,Hardin,4881743522,8614 Surf Drive,Burbank, IL,60459,
815646,Anabelle,Hicks,6421524414,840 Fontaine Road,Concord, NH,03301,
929090,Yesenia,Cuevas,6055814861,6911 Steven Road,Joliet, IL,60435,
139564,Nora,Larson,6232700948,1010 M Street Northwest,Niceville, FL,32578,
121320,Victoria,Archer,7471650662,1324 Beddington Park,Phoenixville, PA,19460,
205438,Yuliana,Arellano,4819856010,1313 North Road,Carpentersville, IL,60110,
667383,Hadley,Gordon,9763840318,265 Slater Street,Asheboro, NC,27205,
282045,Eliana,Farrell,3756164424,8934 Arrowrock Trail,Winter Springs, FL,32708,
596240,Chanel,Chen,5588826228,3825 West Muhammad Ali Boulevard,Stuart, FL,34997,
220631,Serena,Rangel,8497797543,104 White Street,Philadelphia, PA,19111,
517053,Maeve,Mckee,4718304917,11507 East Neville Avenue,Columbus, GA,31904,
570886,Ruth,Rice,3492626708,243 West Haven Drive,Union City, NJ,07087,
305138,Phoenix,Nelson,1666226302,105 West Wareingwood Drive,Ridgefield, CT,06877,
787290,Liana,Garner,8716771498,11724 Rushmore,Gibsonia, PA,15044,
414064,Princess,Kerr,4535923012,72 Salmon Road,Muskogee, OK,74403,
326203,Aliya,Frank,8588246210,281 MacArthur Boulevard,Bensalem, PA,19020,
413534,Nayeli,Tran,2377940258,7192 West Topeka Drive,Taylors, SC,29687,
450633,Lydia,Carroll,8305326301,3118 Sora Avenue,Fargo, ND,58102,
483393,Tabitha,Cooke,1989504821,416 McIver Street,New Philadelphia, OH,44663,
165906,Essence,Donovan,9674929055,12091 Mierkey Road,Lenoir, NC,28645,
321392,Denisse,Mooney,5410950207,1710 Massachusetts Avenue Southeast,Janesville, WI,53546,
371243,Anabel,Stewart,6950976391,20370 California 116,Dundalk, MD,21222,
955393,Destiney,Burch,9405691226,3031 Casa Drive,Battle Ground, WA,98604,
175439,Miriam,Leonard,3240751539,5743 Teller Street,Suitland, MD,20746,
775281,Jaylyn,Pineda,9503518788,733 East DeRenne Avenue,Cherry Hill, NJ,08003,
637718,Arely,Fitzpatrick,6551188346,6045 Camelot Court,Clayton, NC,27520,
921178,Sherlyn,Bonilla,2729953900,82 Lookout Mountain Drive,Newton, NJ,07860,
350703,Elise,James,3435998995,208 Bonita Circle,East Stroudsburg, PA,18301,
499347,Saniya,Howard,5832221695,1026 Orchard Avenue,Revere, MA,02151,
662797,Meghan,Cruz,4939439965,61 Hills Street,Clifton Park, NY,12065,
903328,Alondra,Ramos,5362126195,2 Misty Marsh Drive,Onalaska, WI,54650,
444429,Ingrid,Bradford,9461243345,152 Teddy Drive,Goldsboro, NC,27530,
663858,Mila,Donaldson,8331360956,22219 Panama City Beach Parkway,Butte, MT,59701,
517358,Harley,Cowan,1924182108,196 Ruth Street,Southampton, PA,18966,
691577,Amya,Kelley,9184612433,12 Winter Street,Plymouth, MA,02360,
144096,Tamara,Ray,9332358932,2640 8th Avenue,Oak Park, MI,48237,
852303,Daniella,Clayton,6531418415,1216 West Hill Street,Campbell, CA,95008,
750484,Layla,Holden,3813803378,4632 Vermont 15,Ypsilanti, MI,48197,
217223,Addyson,Krueger,8167793245,2464 Windham Hill Road,New Port Richey, FL,34653,
884639,Kali,Bell,8922824583,2348 Cantalise Drive,Leominster, MA,01453,
300286,Hallie,Cabrera,8701299717,2703 Woolsey Street,Saint Joseph, MI,49085,
834865,Taliyah,Knapp,5381078871,119 Matthew Lane,Marietta, GA,30008,
266161,Aliza,Douglas,6344935382,1333 Farragut Street Northwest,Fort Dodge, IA,50501,
487117,Addisyn,Terry,1472577589,3820 North Peniel Avenue,Dorchester, MA,02125,
246440,India,Ayers,2047554985,1114 Barley Drive,Sacramento, CA,95820,
231274,Carissa,Harrell,1323048717,416 Waverly Avenue,Torrance, CA,90505,
121950,Laci,Owens,1972825775,105 Courtland Drive,Alliance, OH,44601,
779410,Luciana,Padilla,4463187914,2076 North Crossover Road,North Brunswick, NJ,08902,
278534,Edith,Salinas,8999025158,7854 Webster Way,Allentown, PA,18102,
983247,Guadalupe,Graham,7674628153,83 Oakdale Road,Shelton, CT,06484,
410531,Hillary,Browning,4269129459,404 Dewey Street,Queensbury, NY,12804,
754916,Liberty,Hurst,2892145324,3720 West 86th Avenue,Upper Marlboro, MD,20772,
788134,Kyleigh,Valentine,1071382735,1040 University Avenue,Cockeysville, MD,21030,
583974,Kiera,Bartlett,8124736486,5108 Bass Place Southeast,Tonawanda, NY,14150,
804153,Zoey,Golden,7717199436,2649 Firewood Drive,Kissimmee, FL,34741,
125787,Dayami,Valenzuela,7163222723,1011 Devon Drive,Battle Creek, MI,49015,
574515,Mary,Hutchinson,6087465531,3500 Blanchard Drive Southwest,Merrimack, NH,03054,
584651,Patricia,Orr,1698653178,487 Maury Street,Silver Spring, MD,20901,
212409,Jessie,Hubbard,2003790830,425 Buckhalter Road,Knoxville, TN,37918,
816372,Lauren,Elliott,4944228706,735 West Treadwell Street,Defiance, OH,43512,
623985,Emery,Ellis,7093986040,10202 North 51st Drive,Brookfield, WI,53045,
994382,Lailah,Cunningham,6507998879,6160 Norm Drive,Tiffin, OH,44883,
787484,Kendall,Rich,3342401111,15238 North 65th Avenue,Cary, NC,27511,
587007,Janae,Crosby,8100194416,597 East Miracle Drive,Charlotte, NC,28205,
496186,Kate,Benitez,5396765374,61 Thomas Street,Oceanside, NY,11572,
290767,Dixie,Blair,8289999941,5632 West Acoma Drive,Wethersfield, CT,06109,
598211,Cristal,Peters,2650999561,8432 West 78th Circle,Conyers, GA,30012,
457497,Ada,Norman,9129090654,7309 Live Oak Court,Morton Grove, IL,60053,
107786,Madilyn,Ramsey,1625492903,4300 Soquel Drive,Suwanee, GA,30024,
916325,Xiomara,Travis,4299545869,817 25th Street Northwest,Latrobe, PA,15650,
787135,Kaylie,Lawrence,3721446570,25 Cliffside Drive,Chardon, OH,44024,
414192,Yareli,Simmons,5995796561,4010 Governors Drive,Jenison, MI,49428,
166938,Sariah,Hester,9363280944,1328 Jenks Avenue,Rego Park, NY,11374,
607826,Michaela,Preston,2301482672,4339 Oak Street,Sebastian, FL,32958,
684144,Mia,Munoz,7723926397,20 Hacker Street,Westwood, NJ,07675,
726306,Penelope,Curtis,4384646671,5337 West Wheeler Road,Chandler, AZ,85224,
406103,Carleigh,Vaughn,3985526922,5985 Lamar Street,Wakefield, MA,01880,
117737,Presley,Ware,1586277676,32532 Jean Drive,Marcus Hook, PA,19061,
959185,Chelsea,Montoya,9262759586,3414 Vance Lane,Sun Prairie, WI,53590,
456319,Annie,Medina,6459358847,73 Twin Hills Drive,Winder, GA,30680,
709010,Leticia,Scott,3952958468,6763 Depew Street,Royersford, PA,19468,
288604,Shyla,Horn,8173850562,6500 Park Club Circle,Jamaica, NY,11432,
806236,Lillianna,Holland,5546032734,95 Central Street,Los Banos, CA,93635,
142030,Haleigh,Olson,5401788974,113 Dove Lane,Banning, CA,92220,
912136,Kamora,Simpson,9078754213,7010 Fulton Court,Southgate, MI,48195,
398910,Ariana,Church,8541014963,2747 68th Avenue,Beverly, MA,01915,
242873,Brooklynn,Gibbs,7433477256,8398 West 62nd Place,Carmel, NY,10512,
597409,Aliyah,Porter,8458225479,316 20th Street Northeast,Metairie, LA,70001,
381840,June,Frost,1071906805,802 Virginia Avenue,Edison, NJ,08817,
753082,Jayla,Warren,2409848616,1725 Oxford Street,Spring Valley, NY,10977,
208109,Patience,Heath,4833162635,427 Gulf View Drive,Feasterville Trevose, PA,19053,
106369,Scarlett,Roberts,3747249790,1920 Bladensburg Road Northeast,Londonderry, NH,03053,
770153,Marissa,Powers,1395573938,302 Mcmillin Street,Hilliard, OH,43026,
635674,Alexandria,Rodriguez,5636250195,9346 West 66th Place,Randallstown, MD,21133,
696767,Diamond,Warner,1272000530,22424 Birchwood Loop Road,Moorhead, MN,56560,
241660,Luz,Garrett,6829870233,22 Eden Street,Mechanicsburg, PA,17050,
647109,Journey,Valencia,6093578628,2455 Manchester Drive,Maspeth, NY,11378,
454746,Ava,Meza,8449093562,7027 West Phelps Road,Bettendorf, IA,52722,
269095,Charlie,Lucero,6917035916,4032 Windwood Lane,Westminster, MD,21157,
121230,Cloe,Macdonald,6705915864,804 Old Coach Place,Greensburg, PA,15601,
592438,Livia,Velasquez,8348913419,1505 Sweet Bay Trail,Olive Branch, MS,38654,
434506,Joyce,Molina,9798863028,1226 Blossom Circle,Hampton, VA,23666,
769676,Kathy,Melton,6101147836,8800 Cordell Circle,Missoula, MT,59801,
143062,Asia,Jacobs,8841260871,1903 Bashford Manor Lane,Marlton, NJ,08053,
387401,Monique,Burns,6961266679,54 Gentry Court,Zion, IL,60099,
321544,Savanah,Potter,7789807489,3808 Richland Avenue,Klamath Falls, OR,97603,
812480,Kiara,Hoover,7085724288,2433 Southwest 36th Street,Floral Park, NY,11001,
894995,Vanessa,Moody,7151283220,2034 Fairfax Road,Flowery Branch, GA,30542,
535491,Sofia,Chase,4392113424,1001 6th Street Northwest,Seattle, WA,98144,
984961,Tiara,Pruitt,4021025823,133 White Cap Way,Plattsburgh, NY,12901,
324086,Donna,Zamora,7000715261,12 Knox Street,Addison, IL,60101,
208093,Abbie,Randall,8101745289,7550 Kline Drive,Burke, VA,22015,
715283,Caitlyn,Hensley,6579839186,120 North Hurstbourne Parkway,Dayton, OH,45420,
513215,Kaya,Patterson,6990149531,2305 Ranchland Drive,Hope Mills, NC,28348,
916988,Sabrina,Collins,4430477623,7808 Baltimore Annapolis Boulevard,Glendale, AZ,85302,
827956,Leticia,Sellers,6303826126,56 Concord Road,Westlake, OH,44145,
157744,Catalina,Spence,6290604472,6518 Dolphin Court,Deltona, FL,32725,
749292,Katie,Flynn,9708645932,3194 Bladensburg Road Northeast,Hazleton, PA,18201,
492435,Ayana,White,4379168186,3031 Montgomery Street,Little Falls, NJ,07424,
611556,Lillianna,Wagner,1441109928,7401 North 61st Drive,Kansas City, MO,64151,
265271,Arianna,Mills,8867083334,1711 Lore Road,Lowell, MA,01851,
220940,Aliana,Gallagher,6966191484,721 South Jackson Street,Lanham, MD,20706,
151043,Ivy,Mendez,9687160414,1376 Oakland Avenue,Myrtle Beach, SC,29577,
161800,Lyla,Osborn,9163547483,3578 Galindo Street,Emporia, KS,66801,
294399,Teagan,Wells,7226887469,5378 Allison Street,Forest Hills, NY,11375,
470788,Nancy,Calderon,9346559220,1021 North Center Avenue,Uniontown, PA,15401,
810085,Juliet,Hamilton,5883404806,721 Vermont 5A,Lansing, MI,48910,
477962,Charlize,Ferrell,9364566293,53 Great Woods Road,Ridgecrest, CA,93555,
808198,Casey,Hale,2454137540,228 Wood Street,Lexington, NC,27292,
879139,Giuliana,Bolton,5164957442,509 Sea Breeze Drive,Savage, MN,55378,
572182,Karen,Moyer,3608687826,2115 Longest Avenue,Louisville, KY,40207,
283123,Eve,Gutierrez,5764081698,9306 Norton Commons Boulevard,Belmont, MA,02478,
130652,Erika,Schroeder,1335581162,6041 North 72nd Lane,Deerfield Beach, FL,33442,
484459,Hailey,Blackwell,2382955430,5620 Lilly Street,Augusta, GA,30906,
553833,Lara,Cline,6639351844,5708 Beverly Street,Bowie, MD,20715,
218655,Maci,Colon,7011849557,1522 South 36th Street,Ravenna, OH,44266,
661235,Jaslene,Pugh,2617273831,4418 15th Street Northwest,Elizabethtown, PA,17022,
493402,Clare,Hahn,3462504375,1101 Lotus Avenue,Madison, AL,35758,
590910,Amber,Lynch,8125163850,110 Elmwood Avenue,Longview, TX,75604,
854831,Joselyn,Brady,6440957916,276 Adams Street,Seymour, IN,47274,
481728,Adyson,Daniel,6666248450,2521 Naylor Road Southeast,Waukegan, IL,60085,
625456,Viviana,Norton,5521014776,4907 Roger Drive,Vernon Rockville, CT,06066,
941316,Alyvia,Brennan,1774803204,1897 Poplar Ridge Road,Roseville, MI,48066,
151380,Erin,Mejia,8301397548,8526 Preston Highway,Bloomfield, NJ,07003,
491650,Raelynn,Allison,3063000682,1044 Stokes Road,Northbrook, IL,60062,
310114,Kaitlin,Cameron,9637604202,49548 Road 200,Wheaton, IL,60187,
735128,Emmy,Nixon,4063048200,27 Church Street,Morristown, NJ,07960,
436382,Aleena,Chan,2931584997,31770 Alvarado Boulevard,Lombard, IL,60148,
698320,Grace,Moran,6365942602,606 Lincoln Street,Corona, NY,11368,
967721,Justine,Vazquez,6494159984,525 Middle Turnpike West,Villa Rica, GA,30180,
311063,Savanna,Sawyer,3921364334,720 Southwest 2nd Street,Muskegon, MI,49441,
651469,Imani,Kim,1117176220,4408 Northwest 55th Street,Titusville, FL,32780,
435929,Kristin,Morris,3363462983,8700 Lillington Circle,Asbury Park, NJ,07712,
959709,Carissa,Mcneil,8910518733,2109 Puddingtons Patent Way,Thibodaux, LA,70301,
696208,Alisa,Stanley,9795484868,938 Elkridge Landing Road,The Villages, FL,32162,
753382,Lyric,Huff,1023581388,17433 Teklanika Drive,Vineland, NJ,08360,
594993,Dixie,Page,3890570233,6073 Harlan Street,Worcester, MA,01604,
892000,Maggie,Chambers,7358090899,4840 Reservoir Road Northwest,Gainesville, VA,20155,
470955,Sarai,Case,7008925429,208 Towne Lake Way,Encino, CA,91316,
615473,Mckayla,Weaver,9243618153,334 North Cove Boulevard,Durham, NC,27703,
461886,Madelyn,Morgan,9055301436,34 Belair Drive,Lake Worth, FL,33460,
225699,Judith,Washington,4474487339,457 Mountain Village Boulevard,West Hempstead, NY,11552,
801263,Lesly,Dyer,6390201200,35 Pilot Knob Lane,Jackson Heights, NY,11372,
605946,Destiney,Cooper,3283254190,178 Phillips Road,North Kingstown, RI,02852,
241432,Haley,Briggs,1954664783,510 Leeanne Drive,Riverview, FL,33569,
220853,Celeste,Duncan,9582471004,501 Holly Avenue,Woodhaven, NY,11421,
599828,Evie,Dickson,7452076023,200 Redwood Road,Morrisville, PA,19067,
885394,Camille,Ball,9474188186,529 Barr Hill Road,Bristol, CT,06010,
722937,Abby,Fry,3279670449,7607 Beulah Church Road,Dubuque, IA,52001,
736515,Crystal,Montes,1714256651,14285 Wycliff Way,La Vergne, TN,37086,
749075,Lena,Stout,7039334990,10304 North 179th Drive,Mount Vernon, NY,10550,
159377,Carlie,Pollard,5789211120,63 Summit Street,Baldwinsville, NY,13027,
653518,Ally,King,3078588565,8390 Alkire Street,Peoria, IL,61604,
215102,Elisa,Herring,6379691548,7573 National Drive,Rome, NY,13440,
338401,Molly,Schultz,5635870962,1 Blue Jay Terrace,Millville, NJ,08332,
658106,Anika,Becker,8066723537,116 Jourdan Street,Loxahatchee, FL,33470,
507170,Aubrie,Wong,4989476999,6404 West 82nd Drive,Ft Mitchell, KY,41017,
684880,Jessie,Schneider,9882155246,600 Crosby Boulevard,Troy, NY,12180,
907079,Hayden,Wall,2490238198,314 Cherrywood Drive,Washington, PA,15301,
655445,Miriam,Odom,8007582198,32 Amsden Street,New Brunswick, NJ,08901,
745778,Annabella,Kennedy,6289130505,93 Alpine Avenue,Alpharetta, GA,30004,
797221,Marissa,Compton,7767393247,903 Mallard Creek Road,Elkhart, IN,46514,
640087,Laney,Galloway,1204257579,4401 Virginia Avenue,Manassas, VA,20109,
929830,Kayla,Clarke,7943298482,8496 Isles Court,Port Orange, FL,32127,
139087,Shiloh,Howell,5099121638,833 Williamson Road,Menasha, WI,54952,
296568,Alayna,Khan,5161695500,1780 Poplar Ridge Road,De Pere, WI,54115,
901451,Marin,Ruiz,9988126056,1528 Spruce Street,Glasgow, KY,42141,
892756,Megan,Zhang,3829680584,4 Chamois Court,Jersey City, NJ,07302,
118617,Audrey,Schmitt,5843136495,124 Rod Key Street,San Lorenzo, CA,94580,
990356,Hanna,Evans,2680486664,394 Hilltop Lane,Valley Stream, NY,11580,
640775,Kyra,Singh,6334007153,2 Spencer Street,Mount Laurel, NJ,08054,
977123,Mya,Ward,3961250442,3142 West Finger Road,Lutherville Timonium, MD,21093,
851022,Estrella,Barr,7126508793,10 Tel Road,Sykesville, MD,21784,
820635,Giada,Drake,5892725122,1656 Newton Street Northwest,Bardstown, KY,40004,
874692,Tania,Cross,4741899737,42 Lake Lane,Mchenry, IL,60050,
905246,Faith,Alexander,3958406550,16572 East Wyman Road,Chicago, IL,60621,
436275,Callum,Mayer,3482705416,725 65th Street,Garden City, NY,11530,
669129,Kendall,Mayo,9135116731,5205 West Thunderbird Road,Chevy Chase, MD,20815,
875152,Keagan,Fritz,9530216760,10222 Pine Glen Circle,Greenwood, SC,29646,
533817,Hassan,Brandt,6547969501,5109 39th Street Northwest,Yuba City, CA,95993,
886238,Simeon,Gonzalez,2564578805,312 Westhill Avenue,Long Beach, NY,11561,
872073,Landyn,Hobbs,8530979059,9605 West 62nd Place,Eden Prairie, MN,55347,
586354,Liam,Mcknight,8447320542,3024 24th Street Northeast,Terre Haute, IN,47802,
836957,Quentin,Lane,6582091556,82 Roys Road,Hoffman Estates, IL,60169,
117590,Casey,Cooley,2589810886,3125 Willow Lane Drive,Saint Johns, FL,32259,
850903,Reuben,Wood,1534375139,1908 Newton Street Northeast,Hamilton, OH,45011,
818128,Shaun,Knox,8164456550,7106 Bear Creek Drive,Richmond, VA,23223,
534647,William,Holmes,5489995715,100 Birney Street,Bay Shore, NY,11706,
658889,Tyshawn,Wise,4508460533,1257 John Street,Galloway, OH,43119,
775465,Gerardo,Barton,4609539481,1718 Underwood Road,Smithtown, NY,11787,
160436,Antony,Leblanc,5062672008,3642 Chatsworth Road,Temple Hills, MD,20748,
215886,Uriel,Yates,5202329716,3610 Story Road,Clermont, FL,34711,
718032,Hugo,Francis,2683513546,22352 North 67th Drive,Elgin, IL,60120,
178691,Mason,Mercer,6155321405,707 Pinkston Street,Grayslake, IL,60030,
272368,Jaydon,Bentley,6171596671,618 Ava Circle Northeast,Cedar Falls, IA,50613,
371632,Easton,Calhoun,4458358329,99 Pond Avenue,Windsor, CT,06095,
825185,Antoine,Walters,2969568345,3325 Dix Street Northeast,Belleville, NJ,07109,
932813,Todd,Estrada,7937821949,634 Chautauqua Avenue,Massapequa Park, NY,11762,
173851,Aryan,Pace,4102225555,1217 Southwest 91st Street,Villa Park, IL,60181,
301912,Karson,Ballard,6178137133,5309 Darling Hill Road,Ozone Park, NY,11417,
215275,Lucas,Stafford,9661574167,1713 Apian Way,Ormond Beach, FL,32174,
779829,Rowan,Salazar,3535907386,3600 Pennsylvania Avenue,Reynoldsburg, OH,43068,
913560,Zachariah,Stevenson,1733443930,612 Penn Lane,Greensboro, NC,27405,
957557,Albert,Saunders,7846212301,337 South Drive,Zeeland, MI,49464,
300941,Fisher,Maddox,2486391633,709 Mildred Street,Burlington, MA,01803,
785356,Ezekiel,Bautista,7598648959,6823 Forsythe Drive,Bluffton, SC,29910,
628770,Jaylin,Summers,7363286019,235 Hugh Thomas Drive,Elizabeth, NJ,07202,
686674,Jose,Sanford,3494977277,5624 Oakes Drive,Oswego, NY,13126,
231761,Raphael,Dorsey,6104001992,6718 Keithley Road,Baltimore, MD,21206,
175420,Julio,Reid,1243442486,441 Merritt Avenue,Ellicott City, MD,21042,
606747,James,Figueroa,3102132411,3098 Vermont 122,Ada, OK,74820,
354136,Isaias,Shepherd,9971955746,16133 Hillsborough Boulevard,Winona, MN,55987,
882457,Ben,Barrera,2938949183,1738 Annabellas Drive,Rosemount, MN,55068,
154073,Cason,Cobb,4540387419,1417 Stoneykirk Road,Wenatchee, WA,98801,
276163,Gary,Raymond,5848920425,5912 North 48th Avenue,Chippewa Falls, WI,54729,
380794,Jaylon,Stevens,3418109048,7947 Citadel Drive,Pickerington, OH,43147,
275184,Abel,Phelps,7737201412,2927 Leatherwood Drive,Brick, NJ,08723,
506942,Branson,Rodgers,7896311541,1209 Meehan Road,Pawtucket, RI,02860,
649984,Keshawn,Wilkerson,3063040957,2835 Jed Road,Auburndale, FL,33823,
715793,Darryl,Huber,5508341520,2063 Notchbrook Road,Buckeye, AZ,85326,
827649,Rex,Weber,9452575944,5264 Shafter Avenue,Stafford, VA,22554,
280325,Ayaan,Hayden,3574727665,7090 West 64th Avenue,Crown Point, IN,46307,
702709,Beckham,Walter,2709577833,7132 South Villa Avenue,Youngstown, OH,44512,
314549,Ivan,Daugherty,6178958497,10841 Sutter Circle,New City, NY,10956,
130305,Ahmed,Buchanan,1126537617,125 13th Street Northeast,Willoughby, OH,44094,
389379,Efrain,Downs,5415838134,208 Solitude Circle,Sterling, VA,20164,
272743,Arjun,Hendricks,7132241898,13005 Mills Edge Court,Dearborn, MI,48124,
695193,Deon,Frazier,8893770146,125 Summer Street,Pittsford, NY,14534,
473712,Cordell,Armstrong,2192481389,201 East 9th Avenue,Essex, MD,21221,
530020,Yael,Klein,6082323041,713 Millard Fuller Drive,Mebane, NC,27302,
501745,Ty,Hogan,1006234498,621 Northwest 94th Street,Mcdonough, GA,30252,
826291,Blaine,Pittman,9579412245,9805 Meadow Vale Drive,Everett, MA,02149,
907555,Kadyn,Horton,6476153683,4001 Anderson Road,Marquette, MI,49855,
643481,Leonidas,Spears,3844533601,3179 18th Street Northwest,Union, NJ,07083,
520197,Luke,Andersen,2855439807,4444 Central Avenue,Kings Mountain, NC,28086,
787074,Howard,Proctor,7012136847,4 Cutting Avenue,Lynchburg, VA,24502,
717416,Brandon,Serrano,4067068340,513 Habberton Road,Barrington, IL,60010,
737056,Pierre,Reed,4691414529,3904 Martagon Circle,New Bern, NC,28560,
804413,Nasir,Middleton,7984099260,4 Village Lake Drive,Englewood, NJ,07631,
417579,Jerry,Mack,3525277556,111 Lakeview Terrace,Mahopac, NY,10541,
701579,Skylar,Anthony,6376244353,1890 Orchard View Road,Cumberland, RI,02864,
477795,Coby,Day,8075003651,8001 West 71st Avenue,Lafayette, IN,47905,
229553,Justus,Michael,7772242571,5605 North Terry Avenue,Beachwood, OH,44122,
517998,Atticus,Duran,6590358153,512 North Center Avenue,Jackson, NJ,08527,
718465,Giovani,Marquez,7456981782,220 Avenue B,Mansfield, MA,02048,
652622,Jimmy,Malone,7963614900,1333 Kenyon Street Northwest,Beaver Falls, PA,15010,
353756,Emilio,Larsen,1187592751,1628 Button Bay Road,Glastonbury, CT,06033,
576280,Raiden,Rogers,6903290814,4000 Albemarle Street Northwest,Clementon, NJ,08021,
661328,Isiah,Paul,9648351085,14 School Street,Lakeland, FL,33801,
893525,Malcolm,Sloan,8479781181,45 Brackett Street,Chesterton, IN,46304,
969232,Ralph,Hansen,3215550020,301 Southeast 37th Street,Greenville, NC,27834,
213163,Kolton,Osborne,8159044969,90 Via Verde,Honolulu, HI,96815,
991654,Jovan,Randolph,3960959032,1734 Tamarack Street Northwest,Clifton, NJ,07011,
984753,Braeden,House,8488708230,205 Harrison Avenue,Baton Rouge, LA,70806,
621044,Elliott,Cole,3844034768,134 Butternut Road,Wisconsin Rapids, WI,54494,
990203,Reece,Hebert,9601098446,401 East Northern Lights Boulevard,Stevens Point, WI,54481,
298949,Travis,York,6409581735,2802 US Highway 98,Albany, NY,12203,
675289,Conor,Gonzales,9994004925,848 Vermont 14,Marlborough, MA,01752,
203228,Pablo,Aguirre,8346968938,42 Edison Road,Hopewell Junction, NY,12533,
158544,Bryson,Bowers,5758486418,25721 Berryhill Road,West Des Moines, IA,50265,
388723,Jayce,Leach,6042612409,18713 Shilstone Way,Massapequa, NY,11758,
495485,Cody,Acevedo,2321100922,2443 Sierra Nevada Road,Freeport, NY,11520,
442582,Alfonso,Brewer,6117926296,405 Flint Ridge Court,Panama City, FL,32404,
507092,Christopher,Sweeney,6153715536,42223 Edgewood Street,Elk Grove Village, IL,60007,
713189,Issac,Beasley,7327074640,6231 North 67th Avenue,Duluth, GA,30096,
645837,Jalen,Patel,6830428454,376 North Williams Drive,Monroe, NY,10950,
212923,Jeremiah,Hodges,4189723728,8821 West Myrtle Avenue,Branford, CT,06405,
829450,Aiden,Mcconnell,4591554783,4 Eastview Lane,Rossville, GA,30741,
742761,Jase,Martin,6530469375,307 Meadowood Court,Eastpointe, MI,48021,
562372,Angel,Key,3471671744,5601 West Crocus Drive,Fall River, MA,02720,
755767,Leandro,Bishop,6315833999,234 East Beach Drive,Carol Stream, IL,60188,
218744,Finley,Stanton,3293787193,96 Lakehouse Drive,Catonsville, MD,21228,
826838,Draven,Roach,4185775093,1643 Oxford Street,Brainerd, MN,56401,
673633,Marcelo,Ochoa,6209314617,1695 Archer Street,Peachtree City, GA,30269,
747154,Tony,Hooper,9786033661,9 Montello Street,Northville, MI,48167,
343271,Rafael,Monroe,8964122390,8277 Lamar Place,Montgomery Village, MD,20886,
828883,Edgar,Vidal,7420507003,5514 West Wedington Drive,Martinsville, VA,24112,
181373,Marley,Campos,4906694547,4235 Phelan Court,Vernon Hills, IL,60061,
653760,Dayton,Díez,7478247664,9009 West Nicolet Avenue,Thornton, CO,80241,
397689,Ronan,Gallardo,5286497490,141 Lavigne Road,Stow, OH,44224,
374644,Fabian,Márquez,2399640978,7728 Twin Oaks Road,Lawrence, MA,01841,
324476,Andre,Iglesias,3390875949,25 Morton Street,Leominster, MA,01453,
512257,Raymond,Vega,8795527983,3147 West Old Farmington Road,Saint Charles, IL,60174,
469719,Mario,Torres,3212878771,9436 Briarlea Court,Paducah, KY,42001,
641679,Alec,Flores,5517219210,104 Bennington Street,Pomona, CA,91768,
768568,Gauge,Bravo,6984908790,3030 Breckenridge Lane,Elk Grove Village, IL,60007,
242529,Aaden,Ortiz,4149253508,531 Bobbin Mill Road,Philadelphia, PA,19111,
977302,Maurice,Parra,6134692358,320 Northwest 22nd Street,Brainerd, MN,56401,
873586,Randall,Romero,9712364526,6522 Harlan Street,Little Rock, AR,72209,
454765,Jason,Lozano,2148301575,129 Lark Lane,Zion, IL,60099,
753893,Eugene,Moreno,2927689058,8157 East Beach Drive Northwest,Elizabeth City, NC,27909,
602761,Zaiden,Soto,3167653480,20250 North 67th Avenue,Fairmont, WV,26554,
183999,Osvaldo,Hidalgo,8168672254,4603 Grant Street Northeast,Grand Haven, MI,49417,
352519,Talan,Hernández,4675582156,115 Waddell Road,Port Chester, NY,10573,
777122,Joseph,Velasco,4945020737,562 South Pierremont Drive,Neenah, WI,54956,
814563,Abraham,Cano,4627611894,1803 Hickory Avenue,Hammonton, NJ,08037,
679888,Cole,Castro,5597198736,3300 Gatsby Lane,Norcross, GA,30092,
562299,Arthur,Carmona,7093563363,10 South Main Street,Carpentersville, IL,60110,
490609,Rudy,Giménez,2051033095,3102 Kinvara Lane,Woodbridge, VA,22191,
621342,Cedric,Durán,9167231094,3 Kimball Street,Doylestown, PA,18901,
473236,Lorenzo,Marín,7547846987,604 Northwest 118th Street,Saint Paul, MN,55104,
219597,Santino,Cambil,8850297774,475 Maple Street,Lake Zurich, IL,60047,
215913,Luka,Vázquez,1204672677,63 Dorchester Street,Hamburg, NY,14075,
741356,Colten,Domínguez,4441596786,2917 Miramar Drive,North Wales, PA,19454,
454251,Porter,León,4980311608,3729 East Mission Boulevard,Morgantown, WV,26508,
876947,Irvin,Santana,1410390872,4313 Wisconsin Street,Lititz, PA,17543,
325917,Davian,López,8519334414,6755 Mulberry Drive,Naples, FL,34116,
122563,Rory,Peña,4453126548,68 Princeton Street,Stratford, CT,06614,
980608,Mateo,Cortés,1242620951,1169 East Hopkins Avenue,Salisbury, MD,21801,
951590,Bronson,Martín,1460692368,5397 Wentworth Avenue,Monroe, NY,10950,
232980,Francis,Gallego,5337988372,644 Byam Road,Miami, FL,33125,
949945,Anthony,Suárez,6028199691,6276 Devinney Circle,Banning, CA,92220,
661819,Jorge,Guerrero,5574710525,42 Adams Road,Melrose, MA,02176,
579536,Jasper,Santiago,4466890410,6145 East Castro Valley Boulevard,Grand Rapids, MI,49503,
970489,Jair,Gil,8372109682,3819 Dartmouth Avenue,Odenton, MD,21113,
150358,Layton,Esteban,8054212447,3538 Albemarle Street Northwest,Anderson, SC,29621,
326527,Frank,Castillo,2371478388,632 Belmar Drive,Fargo, ND,58102,
525187,Kyle,Benítez,5066194808,104 Lakeridge Drive,Duluth, GA,30096,
632774,Alonso,Montero,4103965716,235 Brock Bridge Road,Benton Harbor, MI,49022,
400730,Fernando,Cruz,9708839465,3164 West Woodfield Way,Revere, MA,02151,
547923,Dashawn,Molina,6433579432,4503 North Council Road,Honolulu, HI,96815,
453849,Henry,Rey,4170608359,85 Hokum Rock Road,Tucson, AZ,85718,
378086,Zaid,Nieto,6070489343,22062 Cameron Street,Muskogee, OK,74403,
784939,Houston,Pérez,7000463733,29 East Avenue,Grandville, MI,49418,
248800,Jordyn,Calvo,1395237079,57 Bremer Drive,Wausau, WI,54401,
813289,Nico,Blanco,3368469812,376 Whites Road,Quakertown, PA,18951,
845437,Gunnar,Sáez,5240318475,2504 Longest Avenue,New City, NY,10956,
246856,Jessie,Blesa,6596701253,154 Lyness Street,Camas, WA,98607,
938604,Jakob,Reyes,7272820347,7041 Coe Road,Yonkers, NY,10701,
652502,Aden,Mora,1512624802,341 Oakland Street,Sykesville, MD,21784,
327041,Glenn,Medina,9166690278,2036 Gorgas Street,Calhoun, GA,30701,
445811,Caleb,Rubio,7568120340,184 Woodland Street,Greensburg, PA,15601,
604258,Franco,Sanz,9024613783,347 Brewer Drive,Parsippany, NJ,07054,
896757,Anderson,Navarro,5247340095,803 18th Avenue South,Clifton, NJ,07011,
788351,Kaeden,González,7623682863,2807 Huxley Place,Butte, MT,59701,
460321,Jovanny,Alonso,8882815127,7401 West Arrowhead Clubhouse Drive,Lansdale, PA,19446,
418628,Carson,Morales,8462689136,6407 West Monte Cristo Avenue,Charlottesville, VA,22901,
609181,Seth,Serrano,5475615201,3604 West Market Street,Windermere, FL,34786,
371741,Lawson,Herrero,7081251495,10802 Brickside Court,Wantagh, NY,11793,
543240,Greyson,Montoro,1505510707,11 Rosewood Lane,Pearl, MS,39208,
292245,River,Soler,6192550605,6515 West Poinsettia Drive,Coraopolis, PA,15108,
766632,Roland,Herrera,4713501705,19 Heritage,Reston, VA,20191,
903519,Jackson,Ramos,4516948783,178 Connecticut River Road,Cottage Grove, MN,55016,
704406,Lukas,Ibáñez,6572790696,16244 Seville Park Circle,Canton, GA,30114,
127017,Brayan,Delgado,2270008411,91 Rushforde Drive,Southampton, PA,18966,
843028,Nelson,Álvarez,7766205867,2400 Easy Street,Elkhart, IN,46514,
589719,Gilbert,Ramírez,8309836457,124 Crane Street,Toms River, NJ,08753,
564844,Paul,Ortega,5425964120,2686 Avery Park Drive,Adrian, MI,49221,
178766,Brent,Núñez,3635110158,95 Middle Turnpike West,Feasterville Trevose, PA,19053,
188988,Jasiah,Martínez,1184814267,540 East Appleby Road,New Orleans, LA,70115,
690727,Jayvion,Cabrera,6891019410,4108 Kogru Place,Acworth, GA,30101,
374898,Davion,Sánchez,2873312129,117 East Cook Avenue,Stockbridge, GA,30281,
210243,Jonas,Carrasco,2703815393,6123 West Marlette Avenue,Monroeville, PA,15146,
111388,Eddie,Vicente,5811574624,295 Townes Drive,Hamilton, OH,45011,
620994,Cassius,Crespo,2993228353,1650 Garland Avenue,Traverse City, MI,49684,
209436,Riley,Arias,3745957389,6506 North Lagoon Drive,Plainview, NY,11803,
691654,Ignacio,Román,3920408363,5707 Higdon Road,Manitowoc, WI,54220,
123788,Jesse,Ferrer,5652556091,1223 Delaware Avenue,Brookline, MA,02446,
753622,Micheal,Lorenzo,2387092377,3321 Furman Boulevard,Sun Prairie, WI,53590,
430421,Kody,Ruiz,6322324633,275 South 40th Street,Joliet, IL,60435,
366635,Kristopher,García,8215447752,7407 North 75th Drive,Port Orange, FL,32127,
513915,Ismael,Díaz,5104724628,8409 Gullane Court,Glenside, PA,19038,
347746,Sterling,Gutiérrez,2836374030,42 West Louise Street,Sicklerville, NJ,08081,
149521,Kareem,Pastor,6834248732,3752 Roswell Place,Sioux City, IA,51106,
900010,Davin,Muñoz,4508970097,3801 North Ann Arbor Place,Selden, NY,11784,
264848,Terrance,Fernández,9863491066,2036 Hermitage Hills Drive,Carol Stream, IL,60188,
355374,Javon,Vargas,2214494882,195 Kennedy Road,Vicksburg, MS,39180,
121960,Deshawn,Rodríguez,1852461061,4113 Holiday Drive,Harleysville, PA,19438,
612576,Aaron,Moya,5333488303,915 Sacramento Street,Tullahoma, TN,37388,
569106,Jack,Garrido,8554281680,6241 Hudson Creek Drive,Bozeman, MT,59715,
755786,Tyson,Jiménez,3296984236,4516 Old Seward Highway,Owings Mills, MD,21117,
967856,Antwan,Prieto,2754632419,2335 Orchard View Lane,Harrison Township, MI,48045,
756312,Oliver,Santos,9645066768,7111 North 75th Avenue,Cincinnati, OH,45211,
709893,Deacon,Gómez,8553315176,8 Corona Street,Fuquay Varina, NC,27526,
384705,Zain,Pascual,7762368942,225 Almond Street,Clarksburg, WV,26301,
281308,Chandler,Aguilar,9627190361,4444 Hansen Avenue,Arlington Heights, IL,60004,
187439,Gustavo,García,8303960890,1108 Slater Street,Grove City, OH,43123,
830193,Dario,Caballero,2021815485,439 Crestmont Drive,Norfolk, VA,23503,
510466,Joshua,Velasco,4441400043,2441 Chase Park Drive,Longwood, FL,32779,
238926,Rogelio,Pastor,4869977034,1126 Oates Street Northeast,Wasilla, AK,99654,
107244,Maverick,Lozano,1981476964,33300 Mission Boulevard,San Antonio, TX,78213,
952267,Luca,Vicente,1892207310,4000 Beth Manor Drive,Louisville, KY,40207,
615078,Izayah,Carmona,4603142959,1745 T Street Southeast,Asbury Park, NJ,07712,
960431,Cristopher,López,2257090171,435 East 5th Avenue,Maplewood, NJ,07040,
687725,Davon,Delgado,5588048035,6215 Sheridan Boulevard,Kernersville, NC,27284,
325550,Andrew,Medina,1018710461,4812 Alton Place Northwest,Yuma, AZ,85365,
334855,Clinton,Nieto,9686787606,1713 Arrow Cove Lane,Winchester, VA,22601,
187815,Jonathan,Alonso,1306139553,422 C Street Northeast,Piscataway, NJ,08854,
446578,Deven,Cruz,7962607306,6730 North 59th Drive,Helotes, TX,78023,
367181,Jamal,Soler,1578382848,3035 South Highway A1A,Tupelo, MS,38801,
604978,Aidan,Márquez,3513560074,30451 Servilla Place,Owosso, MI,48867,
991333,Angelo,Fernández,5436406180,8700 Seaton Boulevard,Simpsonville, SC,29680,
800787,Gabriel,Castillo,8127655597,2142 Colonel Way,Tuckerton, NJ,08087,
715631,Aarav,Torres,4863540170,24647 Patricia Court,Huntersville, NC,28078,
896305,Ariel,Bravo,9108918473,30 Windermere Drive,Medina, OH,44256,
521882,Conrad,Arias,7934265386,6 Oak Street,North Brunswick, NJ,08902,
663632,Kole,Crespo,8950046778,123 Remember Baker Lane,Port Charlotte, FL,33952,
474395,Ryder,Gallardo,4952972362,11901 Northern Raven Drive,Dallas, GA,30132,
349487,Kellen,Vargas,7493036278,2150 Yarbrough Street,Schenectady, NY,12302,
118831,Braden,Hernández,8755771384,159 North Pawlet Road,Marshalltown, IA,50158,
871433,Baron,Santana,2464070729,1990 Poplar Ridge Road,Ravenna, OH,44266,
805343,Noe,Parra,8786166103,2505 Shadow Lane,Clarkston, MI,48348,
883966,Fletcher,Montero,2426958348,1156 Greenhill Road,Norwood, MA,02062,
900523,Jude,Gallego,6244601578,2577 East Wyman Road,Downers Grove, IL,60515,
232532,Gideon,Moreno,8713186675,5408 Iris Street,Cordova, TN,38016,
310254,Donte,Soto,1830394126,2409 Research Boulevard,Wilkes Barre, PA,18702,
476215,Matias,Iglesias,7256643328,639 Saltzman Road,Scarsdale, NY,10583,
132415,Yusuf,Díaz,6510400539,302 Tuten Avenue,Greenwood, SC,29646,
500505,Alfred,Guerrero,4395612607,1303 Buckingham Court,Baldwin, NY,11510,
518319,Nolan,Gómez,5597750319,3718 Bay Tree Road,Dearborn Heights, MI,48127,
663206,Talon,Herrero,8387743826,519 Roxboro Place Northwest,Saint Cloud, MN,56301,
954298,Cortez,Benítez,5235075740,20 Dearborn Drive,San Pablo, CA,94806,
865131,Lennon,Giménez,7458751517,7250 Urban Drive,Hope Mills, NC,28348,
569771,Hudson,Santos,7817400383,1309 Clay Avenue,Irmo, SC,29063,
143029,Branden,Cano,5807938293,14213 Doc Hawley Street,Austin, MN,55912,
230345,Derek,Blanco,6131659822,1310 Riggs Street Northwest,Perth Amboy, NJ,08861,
994792,Samir,Castro,4377774142,43 Main Street,Twin Falls, ID,83301,
982854,Griffin,Ferrer,4856320515,77 Weaver Road,Perkasie, PA,18944,
533508,Gunner,Sánchez,4321213480,18 Curry Lane,Monroe Township, NJ,08831,
502504,Cullen,Reyes,4543310942,25 Church Street,Hialeah, FL,33010,
335204,Eric,Ramírez,4435934648,9912 Shirewick Way,Merrillville, IN,46410,
897952,Jameson,Esteban,5951337392,397 North Main Street,Miami Gardens, FL,33056,
255793,Drake,Cortés,2844626442,270 Chrissy's Court,Sandusky, OH,44870,
697664,Chaz,Sanz,1731308401,4725 Royal Oak Drive,Reisterstown, MD,21136,
203104,Manuel,Durán,2313059518,3505 Richmond Avenue,West Islip, NY,11795,
225719,Gaige,Martínez,8576921197,30 Tanner Street,Houston, TX,77016,
745428,Ronald,Serrano,4867660937,1709 Travers Court,Saint Louis, MO,63109,
633577,Reid,González,7538366270,3116 Northwest 61st Terrace,Saginaw, MI,48601,
199917,Keegan,Hidalgo,1694791444,73 Lower Main Street,Skokie, IL,60076,
432368,Jovanni,Martín,3225832661,2314 Marian Bay Circle,Park Forest, IL,60466,
547452,Julien,Prieto,8190960280,110 Castle Hill,Lady Lake, FL,32159,
658502,Jace,Fuentes,6957470764,6016 Northwest 27th Street,Hampton, VA,23666,
946863,Keon,Navarro,4895638866,1995 Nolensville Pike,Dawsonville, GA,30534,
988957,Edwin,Cambil,1610695341,68 Bigelow Street,Eau Claire, WI,54701,
234742,Ace,Campos,6959635135,3617 Oak Grove Circle,Great Falls, MT,59404,
328807,Esteban,Vázquez,1307468086,211 Oak Street,Waynesboro, PA,17268,
593380,Maddox,Ortiz,9315930935,4927 Alvin Sperry Road,Drexel Hill, PA,19026,
398805,Vaughn,Garrido,4016301786,1632 North Lunsford Avenue,Green Bay, WI,54302,
231218,Landin,Suárez,3793543771,7230 Montagne Circle,Kissimmee, FL,34741,
846504,Erick,Lorenzo,7413255761,2201 Marks Mill Lane,San Carlos, CA,94070,
494480,Braylon,Ruiz,1245179793,55 Russells Mills Road,Central Islip, NY,11722,
938628,Juan,Mora,6645942969,4714 Narrow Lane Road,Lumberton, NC,28358,
950499,Kade,Ortega,1900370114,7144 Marlborough Terrace,Lebanon, PA,17042,
841471,Jefferson,Santiago,4359537906,801 Dale Road,Mount Prospect, IL,60056,
652120,Ray,Montoro,4580399324,1822 North Grand Avenue,Colorado Springs, CO,80911,
137161,Corey,Pérez,4761923668,776 Morrill Road,Southaven, MS,38671,
384844,Dillon,Calvo,8232309306,17722 North 79th Avenue,Lake Charles, LA,70605,
404250,Leon,León,9489930402,8801 Rosshire Drive,Rockville, MD,20850,
962316,Robert,Núñez,5291173181,28250 Dickens Avenue,Cumming, GA,30040,
768078,Brendan,Ibáñez,6216821988,2086 Hillside Drive,Waterloo, IA,50701,
810113,Eduardo,Moya,6474314082,1805 Meade Village Circle,Norwich, CT,06360,
714990,Dominik,Cabrera,6561270216,1402 Maggies Way,Alpharetta, GA,30004,
334436,King,Molina,9424827282,Biloxi Crossing,Petersburg, VA,23803,
213733,Korbin,Pascual,5241799343,241 Methuen Street,South Richmond Hill, NY,11419,
610061,Xzavier,Muñoz,2479678346,88 Shute Street,Canal Winchester, OH,43110,
891235,Andreas,Peña,8289311628,20228 Crabtree Street,Northville, MI,48167,
630310,Rodolfo,Morales,8507738769,940 Ironwood Drive,Newport News, VA,23601,
896217,Kamren,Ramos,9037371889,18789 Crane Avenue,Randolph, MA,02368,
841291,Kenny,Flores,6360806359,713 Ringgold Drive,Soddy Daisy, TN,37379,
873293,Eliezer,Romero,5174052179,233 Buckland Hills Drive,Rockledge, FL,32955,
732056,Cannon,Rey,4491937287,227 West Montgomery Cross Road,Copperas Cove, TX,76522,
402893,Slade,Gil,4841015786,1820 22nd Street Southeast,Yorktown, VA,23693,
161716,Trevin,Sáez,4939452454,7 Cloutman Street,Bartlett, IL,60103,
552844,Douglas,Vidal,9191209946,6233 South Hampton Drive,Reno, NV,89523,
239244,Reagan,Marín,6837626552,3708 Fort Lincoln Drive Northeast,Palatine, IL,60067,
161074,Madden,Carrasco,7696662296,5306 Ritchie Highway,Burbank, IL,60459,
820140,Phillip,Gutiérrez,5904079620,1313 Southwest 14th Street,Fresno, CA,93706,
849993,Santos,Rubio,6793033375,4911 Alameda Street,Villa Rica, GA,30180,
625928,Sidney,Blesa,1734515112,7905 Old Heady Road,Holland, MI,49423,
363300,Yurem,Domínguez,8321179145,7549 Delancey Street,Camden, NJ,08105,
996333,Van,Román,4547551465,5108 Franklin Street,Lenoir, NC,28645,
599335,Tyrone,Rodríguez,6812163054,1520 H Street Northwest,Roy, UT,84067,
308226,Kobe,Aguilar,7804618044,8423 Pioneer Drive,Indian Trail, NC,28079,
141373,Cash,Jiménez,9178192119,1213 Michigan Avenue,Cuyahoga Falls, OH,44221,
303044,Matthew,Herrera,2775323977,406 Ashwood Court,Round Lake, IL,60073,
521505,Javier,Vega,7941249667,32 Country Club Boulevard,Garden City, NY,11530,
321724,Marquise,Ballard,3315810869,1427 South Carolina Avenue Southeast,Evanston, IL,60201,
860390,Dante,Mcconnell,6992263651,10774 West 54th Lane,Asheville, NC,28803,
317365,Ibrahim,Nicholson,1825201525,9306 Taylorsville Road,Roanoke Rapids, NC,27870,
422376,Brennen,Zhang,7456532216,5125 North 58th Avenue,Maryville, TN,37803,
405567,Mohammed,Davis,1320861397,4510 Eastern Avenue Northeast,Bridgewater, NJ,08807,
313783,Freddy,Wu,7720817337,107 West Canton Circle,Orland Park, IL,60462,
824484,Dean,Lucero,1867634056,87 Horseshoe Drive,Howell, NJ,07731,
629299,Uriah,Abbott,2847666705,243 Orchard Road,Lanham, MD,20706,
955778,Santiago,Bartlett,2464080834,6672 Urban Court,Panama City, FL,32404,
587192,Valentino,Harrell,8751563827,2522 South College Drive,Port Jefferson Station, NY,11776,
505662,Dominic,Young,5782237367,6221 West Wethersfield Road,Strongsville, OH,44136,
173970,Bridger,Fritz,5910474859,2577 Rhode Island Avenue Northeast,Eastlake, OH,44095,
322248,Aydan,Paul,3039083480,1821 Catalpa Way,Klamath Falls, OR,97603,
761509,Christian,Davila,9345191299,10881 Northforde Drive,Osseo, MN,55311,
306524,Austin,Hunter,3933244046,555 North Dupont Avenue,Decatur, GA,30030,
890161,Zachery,Henson,1012505891,1129 I Street,Elizabethtown, PA,17022,
501599,Isaac,Francis,1950876271,1909 Seventh Street,Wadsworth, OH,44281,
369523,Ellis,Cooper,9122858929,44 Campfield Road,Queensbury, NY,12804,
935494,Braydon,Stark,2790099244,4079 North Sunflower Circle,Easton, PA,18042,
230538,Jovany,Mckay,1386979509,8404 South Villa Avenue,Muscatine, IA,52761,
946591,Darrell,Blake,5571220446,3483 Canyon Creek Drive,Griffin, GA,30223,
617823,Semaj,Gomez,4395434852,72 Milford Road,Chesterfield, VA,23832,
860179,Kale,Garcia,7725565210,7622 Vance Drive,Baton Rouge, LA,70806,
789216,Denzel,Reynolds,8287647650,8427 West Glendale Avenue,Meriden, CT,06450,
300568,Luis,Burns,2582212284,3607 R Street Northwest,Easley, SC,29640,
815483,Damien,Branch,9596455143,12 Red Fox Drive,Pewaukee, WI,53072,
509694,Brayden,Simpson,8041767298,16910 Alpine Drive,Oak Ridge, TN,37830,
780474,Pedro,Hendricks,5312150913,25800 Industrial Boulevard,Everett, MA,02149,
336775,Alexis,Weiss,8236922612,625 West Main Street,Nottingham, MD,21236,
996838,Pierce,Gaines,8012122224,113 Hammarlee Road,Kennewick, WA,99337,
649339,Kamden,Griffith,3798405131,8040 Cranberry Street,Parkersburg, WV,26101,
970562,Dale,Watkins,1672579212,3500 South College Avenue,Buckeye, AZ,85326,
308607,Trent,Hughes,8400126843,51 Edgar Road,Haines City, FL,33844,
246442,Maximo,Palmer,3927150426,519 Emerald Drive,Gallatin, TN,37066,
241616,Jagger,Barrera,1824892870,55 Sunrise Avenue,Alliance, OH,44601,
665007,Carmelo,Shelton,3645903475,1275 South Holland Drive,Auburndale, FL,33823,
300876,Diego,Terry,2631092342,17800 Creekwood Lane,Clarksville, TN,37040,
936647,Kamari,Flores,8111310243,7374 West Walden Drive,Elk River, MN,55330,
191532,Tyrell,Becker,8077206896,1227 Aaron Street,Stamford, CT,06902,
411498,Demarcus,Jones,7755358429,3959 Fairlands Drive,New Kensington, PA,15068,
741931,Harley,Mckinney,8883101936,2269 Eastern Boulevard,Jonesboro, GA,30236,
562363,Camryn,Johns,8947350472,7802 Titan Court,Wellington, FL,33414,
681463,Tristan,Woodard,8101956165,109 Cambridge Station Road,Hanover, PA,17331,
415227,Yandel,Rocha,9340810105,7180 West Paraiso Drive,Bolingbrook, IL,60440,
315234,Lamont,Jenkins,3593850257,7701 Taylor Oaks Circle,Racine, WI,53402,
840576,Sawyer,Bates,2841672326,24 Norman Street,Monsey, NY,10952,
134289,Kendrick,Shannon,4736507177,7002 Secrest Court,La Vergne, TN,37086,
311773,Zayne,Mccullough,5011488201,2815 Saint Edwards Drive,Melbourne, FL,32904,
906302,Adonis,Morrow,5747524569,8221 Surf Drive,Saratoga Springs, NY,12866,
731924,Gilberto,Dunn,5317901474,1707 6th Street Northwest,Piqua, OH,45356,
743590,Justice,Hawkins,8663209545,305 Becket Avenue,Hamden, CT,06514,
856429,Cory,Morton,8047205639,3810 Camp Ground Road,Madison Heights, MI,48071,
562150,Aron,Bond,5247344847,7095 Gladiola Street,Springfield Gardens, NY,11413,
897758,Gael,Cannon,8617394633,1076 Foster Street,Thomasville, NC,27360,
312392,Roberto,Nelson,1712417564,646 Clinton Street,Gaithersburg, MD,20877,
678227,Abram,Rodgers,6273799828,1302 Cherry Street,Newtown, PA,18940,
896489,Chad,Harrington,3989102637,1514 Canton Avenue,Fernandina Beach, FL,32034,
761061,Aldo,Ferrell,2455562061,143 Canton Court,Goldsboro, NC,27530,
934381,Jett,Ruiz,2790290724,189 Dalton Avenue,Euless, TX,76039,
955679,Lyric,Calderon,5278341348,16820 Coronado Street,Westport, CT,06880,
669641,Braiden,Welch,5432817840,8202 Dudley Way,Crystal Lake, IL,60014,
539036,Salvatore,Hartman,7861375565,1817 Southeast 14th Street,Anoka, MN,55303,
841543,Oscar,Mullen,9813684040,2209 East Manor Drive,Wilmette, IL,60091,
939180,Jesus,Sawyer,9010420254,14 Huntington Street,Nicholasville, KY,40356,
584521,Reginald,Velez,8322744874,4719 Bayou Bluff Trail,Flemington, NJ,08822,
745890,Dwayne,Kelly,7371602981,3040 17th Street,Waldorf, MD,20601,
206865,Hector,Harding,6726772371,1904 Baker Court,Sacramento, CA,95820,
689497,Kane,Huffman,1889738249,2507 R Street Southeast,Sumter, SC,29150,
146654,Brodie,Pugh,7904765191,6231 North 59th Avenue,Cookeville, TN,38501,
329664,Rigoberto,Dickerson,8619000366,700 Towering Oak Court,Menasha, WI,54952,
345439,Marvin,Andrews,8217673683,17372 Crestview Road,Brookfield, WI,53045,
906505,Cyrus,Roberson,5619900421,1320 Dunbarton Road,Jupiter, FL,33458,
570671,Scott,Kent,6413955911,4739 South Court Street,Hagerstown, MD,21740,
742969,Nikhil,Anderson,7421080168,22524 Sambar Loop,Council Bluffs, IA,51501,
684793,Chance,Shaffer,3620102263,6862 North 44th Avenue,Morrisville, PA,19067,
173992,Alan,Oconnell,7036620876,814 Miner Road,Norristown, PA,19401,
949844,Keaton,White,5796816275,26 Greenbriar Drive,Powder Springs, GA,30127,
977740,Nathan,Zavala,9146298537,1303 Kearny Street Northeast,Covington, GA,30014,
389418,Nathanial,Burnett,3529658551,6932 West Montebello Avenue,Staunton, VA,24401,
326621,Brock,Daniel,8876943886,414 Tanya Pass,Tucker, GA,30084,
166200,Calvin,Combs,1918691676,5516 West Indore Drive,Fort Walton Beach, FL,32547,
177015,Heath,Robinson,4526654375,1244 South 4th Street,Hyattsville, MD,20782,
905994,Bernard,Washington,9327698068,4936 Sequoia Avenue,Elmont, NY,11003,
305111,Jamison,Delacruz,5516693079,1123 Ardee Avenue,Troy, NY,12180,
870348,Clayton,Berry,6791519464,7400 West Arrowhead Clubhouse Drive,Bergenfield, NJ,07621,
992709,Cohen,Espinoza,7647913854,130 West Brown Road,Cranford, NJ,07016,
473035,Jairo,Caldwell,5781251621,8380 Lockwood Road,Wilmington, MA,01887,
342393,Zechariah,Dunlap,4595665150,7 Oliver Street,Hartsville, SC,29550,
115253,Jamir,Serrano,4431237598,12420 West Montebello Avenue,Riverside, NJ,08075,
481524,Roy,Ellison,1530672242,179 Blue Ridge Drive,West Bend, WI,53095,
254126,Zander,George,4718110038,14524 Lodestar Drive,East Orange, NJ,07017,
798870,Kai,Stevens,9069377308,21402 Caribbean Lane,Trussville, AL,35173,
691061,Dorian,Casey,6464191164,6601 West Ocotillo Road,Midlothian, VA,23112,
327386,Gerald,King,8110695586,3340 Woodpark Drive,Delray Beach, FL,33445,
575895,Xander,Cortez,2597668599,150 Meadowview Street,Menomonee Falls, WI,53051,
598223,Ian,Carrillo,3354205413,217 West Congress Street,Utica, NY,13501,
690444,Adan,Hays,1178392491,2 Ellenwood Street,South Portland, ME,04106,
152058,Yadiel,Cochran,9276782456,10484 West 82nd Avenue,Reidsville, NC,27320,
723802,Shawn,Marshall,8998730469,1 Kelton Court,Romeoville, IL,60446,
239316,Niko,Wong,2889566423,43949 South Moray Street,Methuen, MA,01844,
229169,Jordan,Keith,5891328469,8219 Minor Lane,Bowling Green, KY,42101,
817316,Jamari,Johnston,7198806408,1112 Flat Rock Road,Franklin, MA,02038,
787602,Trenton,Little,5096249700,4188 Summerview Drive,Evansville, IN,47711,
935813,Roger,Christian,9906063837,836 Lamont Street Northwest,Mount Juliet, TN,37122,
329455,Arturo,Ayers,2543763714,1309 Southwest 71st Terrace,Fort Mill, SC,29708,
427568,Darion,Macias,9685315704,119 Oakland Street,Royal Oak, MI,48067,
642541,Reed,Diaz,2364618134,906 West Berry Street,Rossville, GA,30741,
639465,Steve,Wise,2780764489,61 Plymouth Lane,Williamsport, PA,17701,
315425,Tyler,Gates,3288755521,8666 Iris Street,Ellenwood, GA,30294,
392241,Adam,Schwartz,3490851869,1513 Cathy Street,New Rochelle, NY,10801,
947149,Paxton,Romero,1362127699,51035 Conifer Drive,Powhatan, VA,23139,
712519,Lamar,Fox,8035390462,407 West Hillwood Drive,Lewiston, ME,04240,
152643,Addison,Melendez,7899376341,4012 Heritage Place Drive,Streamwood, IL,60107,
891309,Ryan,Glass,2289028995,416 Ridge Street Northwest,Jamestown, NY,14701,
279729,Dominique,Hale,1750147095,1330 West 82nd Avenue,Tonawanda, NY,14150,
644797,Gregory,Goodman,9214787533,161 Creek Road,Moorhead, MN,56560,
641269,Quinton,Benitez,3410266864,2821 Tyson Place,Webster, NY,14580,
591229,Marcel,Schultz,4317656426,6717 North 59th Avenue,Lithonia, GA,30038,
169628,Finnegan,Golden,9436717961,2115 Northwest 22nd Street,Fairfield, CT,06824,
542791,Michael,Nunez,1229776806,207 Joe Street,Fairfax, VA,22030,
164704,Carlo,York,4649712551,4231 Miramonte Way,Savage, MN,55378,
288124,Triston,Griffin,6796632987,3500 15th Street Northeast,Coachella, CA,92236,
452475,Nigel,Blevins,8573424540,200 Hialeah Drive,Erlanger, KY,41018,
835893,Cornelius,Wang,2396559339,1230 Stafford Drive,Danvers, MA,01923,
117412,Jaron,Barrett,9067224072,711 Parker Street,Stafford, VA,22554,
774643,Jeramiah,Lynch,4366483968,6022 West Alice Avenue,Lafayette, IN,47905,
660990,Malachi,Ortiz,3525070245,13628 West 62nd Drive,Pasadena, MD,21122,
490103,Wilson,Holder,7337552375,1515 Chandlee Avenue,Durham, NC,27703,
922161,Malakai,Cook,7694977814,6040 West Kings Avenue,Chippewa Falls, WI,54729,
395182,Simon,Knight,2783749494,19448 Currant Drive,Conway, SC,29526,
309936,Markus,Fisher,4618395260,4409 Star Jasmine Court,Portage, IN,46368,
211211,Marquis,Maxwell,5615235486,4672 A Street Southeast,Belleville, NJ,07109,
525528,Rylee,Simmons,3219089189,20 Garfield Street,Sebastian, FL,32958,
506287,Jayson,Copeland,7193767760,1478 Sharps Point Road,Garner, NC,27529,
825208,Joaquin,Valenzuela,6134488824,1622 Orchard Avenue,Patchogue, NY,11772,
811069,Thomas,Lamb,8964275376,5936 North 80th Drive,Olive Branch, MS,38654,
452704,Amare,Miller,5919594432,8529 Old Harding Lane,Reading, MA,01867,
599480,Elias,Blackwell,3295138466,4296 North Blossom Court,West Orange, NJ,07052,
530160,Tristin,Graves,1833334381,8325 Northwest 19th Street,Hicksville, NY,11801,
401861,Roman,Dougherty,7104727088,1729 Frankford Street Southeast,Johnston, RI,02919,
485397,Alfredo,Stewart,3390011008,1414 East Anderson Street,Lilburn, GA,30047,
347583,Braylen,Mosley,7405112696,3612 Jim Robison Drive,Glenview, IL,60025,
559590,Jayden,Mcgrath,7591934231,74 Ranch Drive,Longview, TX,75604,
708107,Elian,Garner,8758014646,2654 Quiet Water Cove,Holbrook, NY,11741,
659316,Cale,Hester,3671902360,6741 West Robert E Lee Street,Wheeling, WV,26003,
635558,Garrett,Cantrell,9638490859,7405 River Park Drive,Ashland, OH,44805,
401271,Chase,Tucker,5980629514,173 Spruce Street,Beckley, WV,25801,
248196,Kymani,Dawson,8414974499,16031 West 63rd Lane,Duarte, CA,91010,
773903,Grant,Preston,4717628400,8300 Highway 100,Avon, IN,46123,
593268,Quinten,Dalton,3785059910,525 Merrill Lane,New Albany, IN,47150,
322289,Royce,Cervantes,4252626467,9399 Yucca Way,Wakefield, MA,01880,
183462,Jaidyn,Reid,7184600729,2315 Kezey Court,Peabody, MA,01960,
685511,Jordon,Ray,4558714575,6740 Dickerson Drive,Torrance, CA,90505,
460210,Marc,Green,5067489652,835 Shiloh Court,Roanoke, VA,24012,
712570,Grayson,Jefferson,7630765880,4109 General Bate Drive,Hazleton, PA,18201,
177944,Roderick,Campbell,7463182752,4822 Piney Branch Road Northwest,District Heights, MD,20747,
321857,Xavier,Spencer,4082137750,6505 South Lagoon Drive,Marcus Hook, PA,19061,
570491,Romeo,Bolton,7403522911,1838 North Scull Creek Drive,Lynn, MA,01902,
843022,Brenton,Pitts,6417749214,2538 East 40th Plaza,Raleigh, NC,27603,
266346,Jabari,Sparks,6078221874,19416 Barclay Road,Titusville, FL,32780,
600790,Milo,Wiley,2920958352,95 Briarwood Drive,Mount Vernon, NY,10550,
524474,Hayden,Jordan,8937422381,904 Walthour Road,Trumbull, CT,06611,
632018,Josh,Perkins,2445962427,1709 Southeast 51st Street,Pittsfield, MA,01201,
673603,Trace,Pittman,6059792106,328 South Ranchwood Manor Drive,Berwyn, IL,60402,
173376,Cade,Mitchell,6046427298,1011 Bell Avenue,Rowlett, TX,75088,
471793,Enrique,Braun,1906796708,7310 East Chester Heights Circle,Wayne, NJ,07470,
758293,Frederick,Mays,2583693083,17020 West 64th Drive,Shirley, NY,11967,
641504,Rey,Leach,3059360159,10 Bramblebush Drive,Colonial Heights, VA,23834,
443367,Alden,Ware,5059795123,6206 Waters Avenue,Amsterdam, NY,12010,
442349,Ernest,Gallagher,4394784096,5222 Nick Road,Muncie, IN,47302,
875788,Cristofer,Patrick,4608692368,174 Village Lake Drive,Solon, OH,44139,
470567,Kameron,Santiago,1830412061,324 East Drive,Brunswick, GA,31525,
299735,Dexter,Russell,2072738196,2713 Mitscher Road,Woonsocket, RI,02895,
889753,Kristian,Bray,8727664280,6601 North 62nd Avenue,Perrysburg, OH,43551,
276112,Johnathan,Hodge,2627694540,6328 West Brown Street,Valrico, FL,33594,
721700,Jon,Tran,9549137842,2309 Stearns Hill Road,North Olmsted, OH,44070,
151377,Jorden,Klein,4110214929,4 Conti Circle,Falls Church, VA,22041,
412595,Sullivan,Conrad,1176849177,14 Linden Street,Delaware, OH,43015,
482603,Franklin,Stanton,7713034893,720 South River Landing Road,Key West, FL,33040,
893440,Mohamed,Boone,9611417433,6214 Herzog Street,Elyria, OH,44035,
106299,Damian,Arnold,6359668814,91 Hoague Drive,Altoona, PA,16601,
674876,Charles,Estes,9510521547,233 Ingraham Street Northwest,Norman, OK,73072,
280056,Colt,Boyd,2907433312,5603 Dune Creek Trail,Oak Forest, IL,60452,
989900,Lee,Murphy,5955824086,9904 Daniel Drive,Passaic, NJ,07055,
112489,Sonny,Landry,7302304944,2313 South 4th Street,Lincoln Park, MI,48146,
954078,Leonardo,Escobar,6178518251,8852 Broderick Street,Xenia, OH,45385,
556237,Gavyn,Donovan,8220782963,637 Laurelwood Circle,Grand Blanc, MI,48439,
922169,Carter,Fuller,9489118439,10277 West 52nd Place,Franklin Square, NY,11010,
161658,Holden,Montoya,3281776719,200 Edson Road,Cornelius, NC,28031,
387000,Steven,Parks,1297821991,7529 Perryman Court,Michigan City, IN,46360,
964829,Silas,Vasquez,3238491919,467 Biscayne Avenue Northwest,Milford, MA,01757,
496935,Preston,Soto,2488426679,2534 Willena Avenue,Lakewood, NJ,08701,
600706,Vance,Meadows,2242169925,2032 Gorgas Street,Mountain View, CA,94043,
540160,Jadyn,Orozco,9946953302,4493 Heath Circle,Long Branch, NJ,07740,
118992,Dereon,Mclaughlin,4019164596,18687 County Road 97,Sunnyside, NY,11104,
985314,Lucian,Williams,9557744518,775 47th Street,Fort Dodge, IA,50501,
122746,Brian,Aguirre,9441519889,7113 North 69th Avenue,North Royalton, OH,44133,
593810,Rodney,Bradley,3106396556,22207 Quinterno Court,Ambler, PA,19002,
644399,Blake,Park,4892320075,20000 North 57th Avenue,Arlington, MA,02474,
471815,Alonzo,Pratt,6563162998,207 High Street,Vineland, NJ,08360,
948196,Maxton,Norton,9963501898,9110 North 63rd Drive,Tacoma, WA,98444,
719612,Mordechai,Villa,7346723981,410 West 89th Avenue,Lawrenceville, GA,30043,
712880,Zev,Cowan,3744692647,63 Wild Thistle Lane,Auburn, NY,13021,
120612,Atharv,Mills,5861874330,962 South Silverado Drive,Valley Stream, NY,11580,
791306,Bishop,Prince,8072809457,200 Boulder Road,Centreville, VA,20120,
419500,Blaise,Reeves,8013414121,57 Pierpoint Avenue,Marlborough, MA,01752,
308562,Davian,Mcdonald,6590002059,23124 North 71st Drive,Lacey, WA,98503,
214906,Liam,Henderson,4809418569,1819 Q Street Southeast,Spring Hill, FL,34608,
195738,Noah,Blankenship,8282376030,Career Avenue,Cranberry Twp, PA,16066,
881756,Oliver,Craig,8513666954,2572 Drake Street,Chillicothe, OH,45601,
561474,Elijah,Grant,2999707100,4463 Cato Road,Meadville, PA,16335,
665168,James,Atkinson,4421133069,1309 Graniteville Road,Mason, OH,45040,
526256,William,Bird,8459871006,5549 West Hearn Road,Dayton, OH,45420,
764515,Benjamin,Chambers,1474067313,1 Dunsmuir Lane,Miami Beach, FL,33139,
281290,Lucas,Arias,3894870627,1644 New Jersey Avenue Northwest,West Des Moines, IA,50265,
704859,Henry,Lawson,2764522462,125 Connors Street,Middle Village, NY,11379,
419846,Theodore,Larson,7978004877,3762 Royalton Turnpike,Des Moines, IA,50310,
239989,Jack,Carroll,8809924705,93 Marble Hill Road,Flushing, NY,11354,
265502,Levi,Cherry,9338359453,682 Brighton Way,Bristow, VA,20136,
216655,Alexander,Maynard,7944452921,516 Southwest 60th Terrace,Hartselle, AL,35640,
567061,Jackson,Gilmore,3069923063,3115 Cherokee Drive,Pembroke Pines, FL,33028,
498904,Mateo,Marks,8111541801,260 Park Avenue,East Northport, NY,11731,
702193,Daniel,Chapman,6661702896,4511 Sloat Road,Minneapolis, MN,55406,
205148,Michael,Tyler,5617288329,622 Elaine Drive,Elkridge, MD,21075,
360172,Mason,Warren,9757853211,552 Maynadier Lane,Algonquin, IL,60102,
219068,Sebastian,Foley,8962145947,5024 West Christy Drive,Chattanooga, TN,37421,
108939,Ethan,Mendoza,3671190045,8304 Glaser Lane,Christiansburg, VA,24073,
329316,Logan,Atkins,5059379978,202 Winston Road,El Paso, TX,79930,
917785,Owen,Cuevas,8172212935,6789 West 70th Avenue,Oak Creek, WI,53154,
970636,Samuel,Costa,5070851845,9636 Morar Road,East Stroudsburg, PA,18301,
183688,Jacob,Cameron,5526786057,44 Elm Street,Beltsville, MD,20705,
792019,Asher,Mercer,6320984614,218 Saint Antons Way,Mason City, IA,50401,
389536,Aiden,Barker,5359562842,1810 Orchard Place,Detroit, MI,48205,
995005,John,Gentry,6952779798,12 Kane Road,Harrisburg, PA,17109,
499697,Joseph,Lara,1264641150,1238 Roanwood Way,Fayetteville, NC,28303,
805899,Wyatt,Lambert,8873814517,815 Plantation Drive,Carlisle, PA,17013,
748794,David,Ellis,9715495605,1002 Cedar Ridge Court,Lapeer, MI,48446,
202221,Leo,Hammond,1614114718,429 Patterson Street,Saint Petersburg, FL,33702,
155365,Luke,Mccarty,3741859391,2406 Brighton Drive,Woodside, NY,11377,
176916,Julian,Cole,5739018988,3722 Kisling Loop,San Angelo, TX,76901,
110119,Hudson,Padilla,2471694191,8133 Meadowgreen Place,Teaneck, NJ,07666,
179641,Grayson,Herman,3412772078,2330 39th Street Northwest,Bayonne, NJ,07002,
481155,Matthew,Smith,2197138465,38 Renwick Road,Ogden, UT,84404,
304196,Ezra,Beltran,9121657579,8642 Yule Street,Beloit, WI,53511,
792739,Gabriel,Mclean,5541443750,12330 Old Glenn Highway,Clifton Park, NY,12065,
600273,Carter,Dickson,4218283424,5514 West Altadena Avenue,Vienna, VA,22180,
590532,Isaac,Trevino,7305130023,313 Wiley Street,Syosset, NY,11791,
849190,Jayden,Mann,2614856066,306 East Lafayette Street,Washington, PA,15301,
203548,Luca,Gross,6518091760,6108 Iris Way,Kent, OH,44240,
815190,Anthony,Holt,7132122900,4924 West 65th Avenue,Boston, MA,02127,
532701,Dylan,Randall,8277189262,2044 Bullard Street,Hermitage, TN,37076,
680376,Lincoln,Kirk,6252808267,2014 Clemens Road,South Plainfield, NJ,07080,
614134,Thomas,Lewis,8493483052,95 Claiborne Street,Lansdowne, PA,19050,
821138,Maverick,Hutchinson,2988607517,9805 South Youngs Lane,Kalamazoo, MI,49009,
501651,Elias,Dorsey,3960202779,4050 Bryce Road,Manchester, NH,03102,
615563,Josiah,Bright,5638298935,1644 Queenstown Road,Carmel, NY,10512,
151127,Charles,Leon,4168715870,201 Lee Boulevard,Sarasota, FL,34231,
372009,Caleb,Bennett,4297631669,8398 West Denton Lane,Seattle, WA,98144,
738657,Christopher,Crane,4410955104,46 Lilac Street,Indiana, PA,15701,
492974,Ezekiel,Molina,7617954620,8 Watkins Road,Fort Worth, TX,76110,
902534,Miles,Booth,1013900145,357 Chaplin Street Southeast,Midland, MI,48640,
301075,Jaxon,Moses,9099284725,2505 North Hampton Court,Grovetown, GA,30813,
881753,Isaiah,Spence,5991925548,58 Rice Street Southwest,Alabaster, AL,35007,
183172,Andrew,Mccall,7569637994,501 Running Creek Place,Kaukauna, WI,54130,
820939,Joshua,Hurley,4775040835,4600 East Huntsville Road,Romulus, MI,48174,
810268,Nathan,Wilcox,5969284008,306 Rural Hill Court,Mcminnville, TN,37110,
450623,Nolan,Sosa,6044416608,2057 Lucas Street,Brentwood, NY,11717,
526764,Adrian,Proctor,2080506343,6234 West Behrend Drive,Roswell, GA,30075,
346114,Cameron,Fuentes,2755413637,112 Walnut Street,Winter Park, FL,32792,
182357,Santiago,Waller,6012980323,1255 U.S. Route 5 North,Middleton, WI,53562,
369737,Eli,Rivera,1661930288,5606 Olde Wadsworth Boulevard,Mishawaka, IN,46544,
540497,Aaron,Dillon,4347503853,13426 North 54th Drive,Hopkins, MN,55343,
340358,Ryan,Benjamin,1827009413,8063 Regency Drive,Whitehall, PA,18052,
324938,Angel,Bonilla,1967598866,2 Green Street,Roslindale, MA,02131,
697259,Cooper,Williamson,8361187706,7817 Moose Run Circle,Huntley, IL,60142,
763962,Waylon,Rojas,2554618688,813 Linda Lane,Highland Park, IL,60035,
691312,Easton,Rios,4068357614,3620 Colmar Drive,Cleveland, TN,37312,
793136,Kai,Castro,4473124638,1079 East Kentucky Street,Dublin, GA,31021,
476623,Christian,Schaefer,5959394556,6086 Kennedy Drive,Crofton, MD,21114,
354926,Landon,Ryan,9887750904,197 Oak Street,San Jose, CA,95127,
354796,Colton,Mcfarland,6092673461,6534 Benton Circle,Lawrence Township, NJ,08648,
728457,Roman,Warner,9909147721,903 Burton Avenue,Bradenton, FL,34203,
804081,Axel,Herrera,1283160905,2850 Davenport Street Northwest,Winder, GA,30680,
694609,Brooks,Colon,3836368331,305 Brookside Court,Lake Jackson, TX,77566,
210902,Jonathan,Benton,5661200509,8043 Cranberry Street,Essex, MD,21221,
518300,Robert,Wood,9038854735,12283 Thomas Lane,Faribault, MN,55021,
399817,Jameson,Faulkner,9133531134,1708 Melody Drive,Andover, MA,01810,
678808,Ian,Benson,1024232123,717 Joseph Avenue,Maspeth, NY,11378,
807691,Everett,Velazquez,2894656126,2961 Vinson Road,Royersford, PA,19468,
523632,Greyson,Cordova,2372495355,5788 Cane Ridge Road,Lancaster, NY,14086,
849421,Wesley,Wilkinson,1803564127,238 West Rock Street,Statesville, NC,28625,
859187,Jeremiah,Patel,3000032141,7931 West 55th Avenue,Leesburg, VA,20175,
754934,Hunter,Freeman,9821582522,13852 West 66th Place,Deland, FL,32720,
687757,Leonardo,Johnson,6833767223,2204 7th Street Road,Clementon, NJ,08021,
317837,Jordan,Burton,5011562064,816 West 19th Avenue,Waterbury, CT,06705,
535005,Jose,Wallace,8581020683,8 Kozera Avenue,Milwaukee, WI,53204,
458905,Bennett,Richards,6896735007,1508 Massachusetts Avenue Southeast,Niles, MI,49120,
843599,Silas,Cabrera,5910387158,1720 Quacco Road,Fitchburg, MA,01420,
463614,Nicholas,Horton,5090041075,2334 Nantucket Drive,Depew, NY,14043,
925744,Parker,Roberts,5725650350,1753 Zion Road,Pataskala, OH,43062,
527420,Beau,Fischer,9808336249,91 85th Avenue,Cedar Falls, IA,50613,
230991,Weston,Faulkner,4714899708,5228 North 70th Avenue,Grove City, OH,43123,
953733,Austin,Blanchard,8328654959,5801 South Watterson Trail,Helotes, TX,78023,
868914,Connor,Mann,2485445449,3813 Sheffield Lane,New Orleans, LA,70115,
957704,Carson,Boyle,5840052389,17 Elm Street,Westmont, IL,60559,
322840,Dominic,Mccormick,9397158795,10175 West 58th Place,Worcester, MA,01604,
727078,Xavier,Romero,3463447396,313 Monroe Street,Flemington, NJ,08822,
481817,Jaxson,Gray,5866388141,280 Blue Moon Crossing,Rockville Centre, NY,11570,
128343,Jace,Fowler,7775783721,50 Winthrop Avenue,Royersford, PA,19468,
194582,Emmett,Boyer,5810935051,13525 West Stella Lane,Suffolk, VA,23434,
220081,Adam,Todd,4414681888,6116 West Charter Oak Road,Lake Charles, LA,70605,
276678,Declan,Oliver,7845030507,241 Braxton Way,Lenoir, NC,28645,
651789,Rowan,West,1827848472,12725 Landmark Street,Hyde Park, MA,02136,
729311,Micah,Robertson,1400871463,9223 Elgin Circle,Levittown, NY,11756,
916660,Kayden,Graves,7381101500,3438 Carlton Avenue,Madison, AL,35758,
285465,Gael,Garrison,7496550118,4201 Georgia Avenue Northwest,Greenfield, IN,46140,
456485,River,Diaz,5977672603,3652 East Blue Stone Drive,Xenia, OH,45385,
124449,Ryder,Conrad,9414652642,132 Laurel Green Court,Inman, SC,29349,
836380,Kingston,Lara,5474106751,3033 Aubert Avenue,Mocksville, NC,27028,
485378,Damian,Morse,3091507407,5712 Saulsbury Street,Rossville, GA,30741,
134213,Sawyer,Sharp,8095597111,2032 4th Street Northwest,Newark, NJ,07103,
781131,Luka,Reese,3704657798,4339 Benning Road Northeast,Glenside, PA,19038,
152670,Evan,Mathis,8978552032,3384 North Southridge Drive,Coachella, CA,92236,
316670,Vincent,Cordova,2421419047,345 Tattnall Street,Round Lake, IL,60073,
959518,Legend,Huynh,3782193803,5813 Hammermill Loop,Stillwater, MN,55082,
427005,Myles,Norris,2729164656,1987 Boxer Court,Southampton, PA,18966,
207079,Harrison,Santiago,7528017819,1200 S Street,Ames, IA,50010,
765097,August,Mclean,6986486425,10124 Watsonville Road,Rahway, NJ,07065,
512883,Bryson,Moss,3861169779,741 Amity Lane,Lilburn, GA,30047,
409682,Amir,Buckley,6279993063,57 Hidden Lake Court,Bristow, VA,20136,
602427,Giovanni,Avery,4197040262,332 Concord Avenue,Carol Stream, IL,60188,
487825,Chase,Chung,5492887395,55620 Jolon Road,Aiken, SC,29803,
883453,Diego,Delacruz,3323536610,301 East Court,Wheeling, WV,26003,
701488,Milo,Castillo,9348399285,594 Putnam Avenue,Ocoee, FL,34761,
613630,Jasper,Brown,5711289257,3320 Peterkin Avenue,Bedford, OH,44146,
799900,Walker,Roy,2153461714,115 Saint John Street,West Islip, NY,11795,
400621,Jason,Ortiz,2086365890,5526 Thalman Drive,Palm Coast, FL,32137,
679569,Brayden,Blackburn,7948722571,5 Little Deer Road,Clarksville, TN,37040,
305583,Cole,Swanson,2802296093,6516 Nile Circle,Savannah, GA,31404,
569163,Nathaniel,Kent,6092790438,20117 Lucas Avenue,Fayetteville, NC,28303,
497708,George,Meadows,9438495932,2944 Sheldon Jackson Street,Princeton, NJ,08540,
822912,Lorenzo,Waters,5581766151,117 South Capitol Parkway,Lemont, IL,60439,
621084,Zion,Hill,9345677798,323 Southeast 23rd Street,Waynesboro, PA,17268,
569802,Luis,Shah,9272899257,74 Heard Street,Paramus, NJ,07652,
681521,Archer,Black,1130650796,3440 Brookhaven Road,Greensboro, NC,27405,
536760,Enzo,Branch,1972827108,22538 6th Street,Norman, OK,73072,
510387,Jonah,Barber,6341872941,132 Tensaw Road,Bowie, MD,20715,
602794,Thiago,Silva,7010308370,38252 Farwell Drive,Yorktown Heights, NY,10598,
987385,Theo,Mcbride,5352734326,1208 Lindenwood Drive,Andover, MA,01810,
630494,Ayden,Mccoy,5309191450,112 West Center Street,Parlin, NJ,08859,
950629,Zachary,Wilson,1433046023,112 Shannon Road,Manchester Township, NJ,08759,
840608,Calvin,Garza,5448829244,20930 Todd Valley Road,West Fargo, ND,58078,
665984,Braxton,Castaneda,2029513998,1629 South Razorback Road,Ypsilanti, MI,48197,
218762,Ashton,Austin,6018059229,505 Southeast 32nd Street,Marquette, MI,49855,
743242,Rhett,Ross,4078418511,8442 Everett Way,Sevierville, TN,37876,
807625,Atlas,Marshall,6592142979,600 12th Avenue South,Manahawkin, NJ,08050,
229984,Jude,Rose,2511827217,4807 North Grove Avenue,Pottstown, PA,19464,
584070,Bentley,Hart,8841804372,5157 West Kerry Lane,Paterson, NJ,07501,
726240,Carlos,Lowe,3423752452,14 6th Street,Deerfield Beach, FL,33442,
500692,Ryker,Huffman,7013971680,204 North Holt Street,Helena, MT,59601,
582208,Adriel,Watson,3393241417,66 Pine Street,Providence, RI,02904,
418620,Arthur,Chang,3075301887,4250 North Valley Lake Drive,Cumming, GA,30040,
577512,Ace,Holloway,2933489663,406 East Waldburg Street,Manchester, NH,03102,
515729,Tyler,Jennings,5634334504,1907 18th Avenue South,Northville, MI,48167,
716335,Jayce,Charles,9199655007,81 Reynolds Drive,Gurnee, IL,60031,
988295,Max,Harper,8377181352,3386 Sudlersville South,Cary, NC,27511,
698481,Elliot,Gentry,9589269534,3553 Brandywine Street Northwest,Boca Raton, FL,33428,
664337,Graham,Sanders,9821884569,3034 Mica Street,Pomona, CA,91768,
750882,Kaiden,Maxwell,7808710866,2641 Heather Lane,Daphne, AL,36526,
184051,Maxwell,Ewing,5606520334,1820 Scenic Avenue,Freeport, NY,11520,
670210,Juan,Green,5548489200,2531 Prestwick Avenue,Libertyville, IL,60048,
518940,Dean,Sims,9805648992,17615 Center Drive,Marysville, OH,43040,
996770,Matteo,Baker,2622516127,218 Durham Park Way,Cedar Rapids, IA,52402,
738743,Malachi,Robbins,1292123039,218 Middle Street,Great Falls, MT,59404,
612714,Ivan,Martinez,2726942566,4405 West Solano Drive South,Statesville, NC,28625,
304836,Elliott,Glass,9851964823,309 Water Street,Santa Clara, CA,95050,
306310,Jesus,Stephenson,8681855492,6431 Shattuck Avenue,Newtown, PA,18940,
960072,Emiliano,Fletcher,3091449411,607 Trails End Road,Oxon Hill, MD,20745,
242725,Messiah,Joseph,5304025381,2001 Van Hoose Drive,Depew, NY,14043,
313091,Gavin,Clements,2851675450,5706 Worchester Drive,Raleigh, NC,27603,
952489,Maddox,Adams,2746046080,760 11th Street Southeast,Marion, NC,28752,
677617,Camden,Gross,5391418011,1931 Beauvoir Lake Drive,Enfield, CT,06082,
586587,Hayden,Mcintosh,1555469959,22825 North 74th Lane,New City, NY,10956,
636950,Leon,Williams,1677701315,2728 Hale Avenue,Burbank, IL,60459,
883572,Antonio,Chandler,7180477086,121 Alpine Way,Lincoln Park, MI,48146,
500441,Justin,Hood,6931591879,1797 Pasatiempo Drive,Waterbury, CT,06705,
131166,Tucker,Hayes,4235261086,35 Keach Avenue,Lake Villa, IL,60046,
738144,Brandon,Zuniga,6400596131,16 Redbud Way,Uniontown, PA,15401,
955432,Kevin,Snow,3996505403,2130 Loren Circle,Memphis, TN,38106,
134076,Judah,Harrison,2018689253,24 Amherst Drive,Powder Springs, GA,30127,
600362,Finn,Grimes,5790774601,580 Hollow Wood Road,Atlanta, GA,30303,
620535,King,Ritter,2623829027,9401 3rd Street Road,Bangor, ME,04401,
612465,Brody,Logan,9786806626,5461 West Shades Valley Drive,Fitchburg, MA,01420,
577887,Xander,Edwards,9666086208,8142 Mallard Shore Drive,Chattanooga, TN,37421,
739786,Nicolas,Mcdaniel,3331898388,64 Roseberry Circle,Oak Ridge, TN,37830,
721240,Charlie,Jordan,5275822501,5116 Emmanuel Avenue,Fairfax, VA,22030,
216400,Arlo,Byrd,1747575501,5150 West Eugie Avenue,Hopkins, MN,55343,
102903,Emmanuel,Mckay,3705490355,2410 Pafford Drive,Glen Ellyn, IL,60137,
658664,Barrett,Powell,1414598170,410 Fairlea Drive,Ridgefield, CT,06877,
336076,Felix,Cardenas,1704286621,8597 Bay Road,Moses Lake, WA,98837,
841810,Alex,Jarvis,8773724181,171 Tolland Turnpike,Manassas, VA,20109,
154850,Miguel,Guzman,6979810723,2505 Walker Lane,New Britain, CT,06051,
321814,Abel,Clark,9572073845,158 Euclid Avenue,Johnson City, TN,37601,
828280,Alan,Gillespie,5333990507,110 Seaton Place Northwest,Lawndale, CA,90260,
751406,Beckett,Stephens,3534326817,833 South Brownell Road,Mc Lean, VA,22101,
836523,Amari,Perkins,4090325398,2230 Armstrong Drive,Beverly, MA,01915,
584140,Karter,Skinner,3634420149,144 Lauderdale Street,Iowa City, IA,52240,
461253,Timothy,Hunt,6247719343,2803 6th Street Northeast,Wakefield, MA,01880,
329834,Abraham,Carney,3553474138,2894 Music Avenue,Yuba City, CA,95993,
486872,Jesse,Murray,9920176280,320 South Ramblin Oaks Drive,Camden, NJ,08105,
932585,Zayden,Thompson,2870058674,3813 Vanguard Drive,Satellite Beach, FL,32937,
943018,Blake,Camacho,5161412016,1602 East 14th Court,Shelbyville, TN,37160,
485158,Alejandro,Jones,8349829929,5039 North 57th Avenue,Biloxi, MS,39532,
490882,Dawson,Pearson,2555257318,618 McLaws Street,Union, NJ,07083,
563703,Tristan,Prince,8736182984,355 Gillette Road,Dawsonville, GA,30534,
395096,Victor,Woodard,5557665074,7030 West Krall Street,Huntington, NY,11743,
841725,Avery,Nielsen,1138712893,400 US Highway 98,Butte, MT,59701,
649026,Joel,Haas,4843309782,512 Tennyson Road,Kennesaw, GA,30144,
818038,Grant,Garcia,7003899783,5 Winslow Circle,Fairfield, CT,06824,
761364,Eric,Mclaughlin,7309632554,353 O Street Southwest,Flint, MI,48504,
869406,Patrick,Hanson,3279357011,335 C Street Southeast,Riverview, FL,33569,
596140,Peter,Murillo,5825783900,3538 Mendenhall Court,Oklahoma City, OK,73112,
616148,Richard,Potts,2944522265,180 Intervale Avenue,New Castle, PA,16101,
280476,Edward,Wilkinson,1991435608,1013 Balboa Avenue,Westfield, MA,01085,
815780,Andres,Newman,1114335509,412 Virginia Avenue,Hamtramck, MI,48212,
967961,Emilio,Campbell,2542595008,7981 Robinson Way,Rosedale, NY,11422,
148719,Colt,Mathews,4462071046,311 Oak Street,Woodhaven, NY,11421,
708087,Knox,Espinoza,5062106452,15557 Sutter Creek Road,Murfreesboro, TN,37128,
303080,Beckham,Lloyd,6481030141,6225 West Citrus Way,Kingston, NY,12401,
545547,Adonis,Villa,3454307140,3425 North Futrall Drive,Starkville, MS,39759,
738567,Kyrie,Stokes,8670688254,24 Haven Drive,Carmel, NY,10512,
139910,Matias,Bowen,4385563831,37 East Broad Street,Absecon, NJ,08205,
158649,Oscar,Johnston,9394894682,23501 Ida Lane,Albany, NY,12203,
392643,Lukas,Hampton,9455868112,165 Saint John Street,Redondo Beach, CA,90278,
259071,Marcus,Lozano,2860738065,8772 West 79th Avenue,Long Branch, NJ,07740,
848391,Hayes,Floyd,3975017244,463 Pecan Tree Drive,Summerville, SC,29483,
603409,Caden,Sosa,6839224447,13066 North 56th Avenue,Fort Wayne, IN,46804,
929038,Remington,Solomon,1794523350,14505 Landis Villa Drive,Allentown, PA,18102,
963185,Griffin,Taylor,6299182444,1801 Dodge Trail,Fair Lawn, NJ,07410,
481588,Nash,Bauer,9685721247,1313 Paulson Way,Seattle, WA,98144,
902817,Israel,Kelly,2504667195,110 Oxford Road,Long Beach, NY,11561,
249014,Steven,Flowers,2556730577,6373 West Golden Lane,Apopka, FL,32703,
805086,Holden,Roth,6264949228,4960 Paddock Club Drive,Lincolnton, NC,28092,
303933,Rafael,Underwood,8882139340,481 East Redbud Lane,Norwood, MA,02062,
500166,Zane,Mcclain,1006378740,31 Hills Point Road,Southaven, MS,38671,
557927,Jeremy,Johns,8740927133,1145 Chaseway Drive,Harvey, IL,60426,
962479,Kash,Coffey,7443522555,521 McGregor Court,Highland, IN,46322,
979344,Preston,Gamble,5199539495,3551 North Georgetown Drive,Selden, NY,11784,
488244,Kyler,Franco,8780888999,7851 Snow View Drive,Redford, MI,48239,
903773,Jax,Allen,3776703521,3919 Landherr Drive,New Kensington, PA,15068,
288322,Jett,Conley,8658193323,6653 West Rose Garden Lane,Lawrenceville, GA,30043,
788798,Kaleb,Abbott,8843074568,3 Emery Hill Drive,Macomb, MI,48042,
290962,Riley,Aguilar,8249239008,344 Island Road,Glen Burnie, MD,21060,
309156,Simon,Trujillo,9117890253,5275 North 59th Avenue,Glendora, CA,91740,
197862,Phoenix,Foster,8523739648,945 South 5th Street,Latrobe, PA,15650,
985996,Javier,Gardner,8414685652,6398 Jellison Way,Branford, CT,06405,
467221,Bryce,Hall,9549368310,400 D Street,Orland Park, IL,60462,
293102,Louis,Jensen,2959904017,708 Pine Drift Drive,Charleston, SC,29406,
909315,Mark,Thornton,8597486280,6435 West Hillsborough Avenue,Olney, MD,20832,
921760,Cash,Morrison,1667239611,1001 Northwest 104th Street,Ambler, PA,19002,
214229,Lennox,Lam,3745808727,5403 Illinois Avenue,West Haven, CT,06516,
220920,Paxton,Murphy,4557712870,264 River Road,La Porte, IN,46350,
432325,Malakai,Flores,1050662906,38 Bruce Road,Chandler, AZ,85224,
873401,Paul,Singleton,5464656877,5102 Ander Drive,Wenatchee, WA,98801,
556543,Kenneth,Chaney,8159918876,833 50th Place Northeast,Pittsfield, MA,01201,
531001,Nico,Sheppard,7297462137,201 East 16th Avenue,Brandon, FL,33510,
163393,Kaden,Glover,2036809989,5 Tranquil Place,Athens, GA,30605,
422056,Lane,Glenn,8142887403,4876 Norris Road,Conyers, GA,30012,
169885,Kairo,Holder,4240527288,1954 Wilson Court,Palm City, FL,34990,
137042,Maximus,Boyd,1057790525,4540 Phyllis Court,Williamstown, NJ,08094,
813693,Omar,Rush,7477684452,353 Cotswold Cmns,Westminster, MD,21157,
754222,Finley,Santos,5983820120,2849 Quail Drive,Whitehall, PA,18052,
556878,Atticus,Zimmerman,1183952601,345 Buckland Hills Drive,Kent, OH,44240,
510309,Crew,Rosario,2518267063,6521 North 65th Avenue,Pueblo, CO,81001,
507158,Brantley,Dickerson,8457553510,3604 Ridgehaven Drive,Ontario, CA,91762,
911261,Colin,Rasmussen,8255164129,45 Parsons Avenue,Montgomery Village, MD,20886,
373507,Dallas,Atkinson,6448863951,100 Lake Forest Drive,Savage, MN,55378,
833975,Walter,Merritt,2411505749,2107 Elfen Glen,Wilkes Barre, PA,18702,
504622,Brady,Wilkins,7028524930,2560 Michigan Court,Edison, NJ,08817,
245775,Callum,Liu,6622533227,5688 Johnson Court,Nutley, NJ,07110,
192072,Ronan,Burke,9536747642,3862 Almond Avenue,Drexel Hill, PA,19026,
993362,Hendrix,Arias,7405235485,1 Pond View Road,Owatonna, MN,55060,
881672,Jorge,Hinton,3416297455,9740 Rhythm Road,North Olmsted, OH,44070,
209156,Tobias,Best,4460888857,35805 Alcazar Court,Douglasville, GA,30134,
662033,Clayton,May,1468556559,70 East Terrace,Tacoma, WA,98444,
248143,Emerson,Maldonado,6345932809,736 Middle Turnpike East,Baldwin, NY,11510,
510573,Damien,Rhodes,1855402017,6463 Vrain Street,Columbus, GA,31904,
485264,Zayn,Everett,2498171250,11401 Totem Road,Powhatan, VA,23139,
956094,Malcolm,Barron,5708224486,6412 Lenawee Street,Wooster, OH,44691,
279586,Kayson,Parker,3429553507,736 Sicard Street Southeast,Powell, TN,37849,
909575,Bodhi,Rivas,3824907685,307 Joel Street,Hamburg, NY,14075,
305832,Bryan,Velazquez,6393314217,2527 Lisenby Avenue,Wilmington, MA,01887,
636714,Aidan,Mckenzie,2257354756,10406 Sunlight Lane,Suitland, MD,20746,
427565,Cohen,Morales,2944837628,88 Pine Valley Road,Wake Forest, NC,27587,
728417,Brian,Bass,7780050779,421 Madison Street Northeast,Ormond Beach, FL,32174,
387281,Cayden,Cantu,7542003939,6047 Cole Court,Loganville, GA,30052,
208834,Andre,Walton,4978798825,1010 Hillcrest Drive,Grosse Pointe, MI,48236,
837461,Niko,Bradshaw,6539758779,743 East 9th Avenue,Quincy, MA,02169,
491270,Maximiliano,Noble,2124772030,327 Woodbridge Street,Clinton Township, MI,48035,
882520,Zander,Nunez,9953692715,4513 Beth Manor Drive,Stow, OH,44224,
800199,Khalil,Bean,2817934164,43 Henderson Avenue,North Brunswick, NJ,08902,
549966,Rory,Wiley,6823036094,8726 Downey Road,Lake Zurich, IL,60047,
767363,Francisco,Rios,1873488556,4560 Hurlston Drive,Montclair, NJ,07042,
284341,Cruz,Miles,9168675527,1600 20th Street Northwest,Reading, MA,01867,
499487,Kobe,Hardin,5068111691,1850 Berryhill Place,Alabaster, AL,35007,
673256,Reid,Hicks,8531984541,1317 Allison Street Northeast,Delaware, OH,43015,
689413,Daxton,Cuevas,8873952553,6604 West Montebello Avenue,Jackson, NJ,08527,
507979,Derek,Larson,7153222131,1328 Tuckerman Street Northwest,Dothan, AL,36301,
813269,Martin,Archer,7011770851,264 Crest Drive,Nashua, NH,03060,
532082,Jensen,Arellano,7458062685,913 Fallview Trail,Winder, GA,30680,
803037,Karson,Gordon,8014856847,1220 Crow Berry Circle,Knoxville, TN,37918,
683120,Tate,Farrell,4360710375,2212 Greenville Street,Jamaica, NY,11432,
388711,Muhammad,Chen,8373933370,2106 Standard Avenue,Los Angeles, CA,90008,
421260,Jaden,Rangel,3977310536,7 South University Avenue,Haines City, FL,33844,
217488,Joaquin,Mckee,2982007925,185 Woodlawn Road,Fresh Meadows, NY,11365,
633516,Josue,Rice,1838873525,4329 Howe Street,Fullerton, CA,92831,
232447,Gideon,Nelson,3958386678,864 Main Street,Chester, PA,19013,
101550,Dante,Garner,1296071655,6444 North 67th Avenue,Brick, NJ,08723,
383767,Cody,Kerr,9282370036,1025 West 19th Street,Chesterfield, VA,23832,
716474,Bradley,Frank,9874508126,1361 Barret Park Way,Rome, NY,13440,
475481,Orion,Tran,8870706870,23128 Donalda Avenue,Palatine, IL,60067,
565808,Spencer,Carroll,2624939640,114 Middle Road,Reynoldsburg, OH,43068,
747145,Angelo,Cooke,7792174497,553 South Arlington Road,Basking Ridge, NJ,07920,
257897,Erick,Donovan,7114094450,10400 Royal Oak Road,Ossining, NY,10562,
169433,Jaylen,Mooney,4901059628,8 Village Circle,Circle Pines, MN,55014,
756117,Julius,Stewart,6510105241,1518 Jenks Avenue,Lansdale, PA,19446,
646668,Manuel,Burch,7931986963,19803 North Mitkof Loop,Forney, TX,75126,
163322,Ellis,Leonard,8451795618,129 Grant Street,Havertown, PA,19083,
188101,Colson,Pineda,8913385171,9716 South Silver Lake Road,Silver Spring, MD,20901,
892662,Cairo,Fitzpatrick,3008491467,44 Colonial Road,Hopewell, VA,23860,
922364,Gunner,Bonilla,1998366668,1879 South Cherry Hills Drive,Norwalk, CT,06851,
800499,Wade,James,3224839641,6925 Lariat Lane,Millington, TN,38053,
701120,Chance,Howard,9214268928,49 West Street,Tullahoma, TN,37388,
524038,Odin,Cruz,6693258610,1149 Darwin Street,West Chicago, IL,60185,
411799,Anderson,Ramos,6301182797,1030 Shawnee Street,Macon, GA,31204,
969134,Kane,Bradford,1516030382,152 Holly Court,Tuscaloosa, AL,35405,
960789,Raymond,Donaldson,8636883925,612 E Street,Far Rockaway, NY,11691,
492764,Cristian,Cowan,3537429866,5430 Brookdale Avenue,Anderson, SC,29621,
235310,Aziel,Kelley,1200950405,46710 Crawford Street,Stratford, CT,06614,
174103,Prince,Ray,3096162989,24 Lawton Road,Owosso, MI,48867,
995687,Ezequiel,Clayton,8208733093,319 West Silverwood Drive,Hanover Park, IL,60133,
819250,Jake,Holden,3044930714,31 Mitchell Road,Huntersville, NC,28078,
637046,Otto,Krueger,4269954203,14 Olympia Street,Rockledge, FL,32955,
517681,Eduardo,Bell,3838274282,122 Coral Drive,Bettendorf, IA,52722,
856359,Rylan,Cabrera,9784844463,5119 West Columbine Drive,Wilmette, IL,60091,
154948,Ali,Knapp,4519523682,7701 Southwest 104th Street,Elk River, MN,55330,
267220,Cade,Douglas,6622829800,3534 Saint Lawrence Road,West Palm Beach, FL,33404,
308906,Stephen,Terry,2465258008,424 North Powderhorn Drive,Battle Ground, WA,98604,
563760,Ari,Ayers,7350557601,11522 Country Spring Court,Hopkinsville, KY,42240,
421849,Kameron,Harrell,9933920568,37 Kensington Street,Gettysburg, PA,17325,
940396,Dakota,Owens,9418566048,110 Carraway Lane,Sidney, OH,45365,
276465,Warren,Padilla,9652913327,1666 South Summer Rose Avenue,Coraopolis, PA,15108,
411174,Ricardo,Salinas,7149517057,12493 West 84th Circle,Erlanger, KY,41018,
949708,Killian,Graham,8372219470,557 West Willoughby Road,Bel Air, MD,21014,
960956,Mario,Browning,1431300134,521 East 4th Street,Marcus Hook, PA,19061,
718729,Romeo,Hurst,9281902947,1405 East 55th Street,Trussville, AL,35173,
258183,Cyrus,Valentine,7687785192,1918 Spruce Street,Ottawa, IL,61350,
867998,Ismael,Bartlett,1141931146,3522 Whiting Avenue,Elyria, OH,44035,
468515,Russell,Golden,7686671997,1102 Spy Glass Drive,Glen Cove, NY,11542,
522628,Tyson,Valenzuela,7867896095,102 Derondo Street,Tewksbury, MA,01876,
185588,Edwin,Hutchinson,1714267118,3001 Spyglass Hill Road,Amarillo, TX,79106,
373242,Desmond,Orr,7609186339,1408 Holly Street,Linden, NJ,07036,
405848,Nasir,Hubbard,9813536497,5900 Upland Road,Sun City, AZ,85351,
212367,Remy,Elliott,7139697688,1425 Claremont Circle,Downingtown, PA,19335,
282195,Tanner,Ellis,4296190476,78 Cliffside Drive,Hollywood, FL,33020,
625411,Fernando,Cunningham,7325806002,131 Kent Drive,New Port Richey, FL,34653,
498826,Hector,Rich,4394044770,51 Bearing Circle,Toledo, OH,43612,
400481,Titus,Crosby,3190135128,702 Plantation Circle,Oakland, CA,94603,
366354,Lawson,Benitez,7856880375,4300 Kansas Avenue Northwest,Pensacola, FL,32503,
505570,Sean,Blair,2157955115,8112 Equestrian Drive,Lake Mary, FL,32746,
506293,Kyle,Peters,5304756220,11655 West 81st Avenue,Benton Harbor, MI,49022,
134965,Elian,Norman,8349696719,317 Windsor Road,Mount Airy, MD,21771,
140941,Corbin,Ramsey,6202704984,5680 Eddins Road,Rock Hill, SC,29730,
488005,Bowen,Travis,2251179436,64 Church Street,Garden City, NY,11530,
388064,Wilder,Lawrence,6932172064,5302 1st Street Northwest,Morgantown, WV,26508,
976960,Armani,Simmons,4647183119,4328 Brewer Road,Massillon, OH,44646,
794999,Royal,Hester,5140784261,2147 Millhaven Drive,Ronkonkoma, NY,11779,
102522,Stetson,Preston,4600642752,2732 Humboldt Avenue,Battle Creek, MI,49015,
740719,Briggs,Munoz,8589664453,7717 Everett Street,Palmetto, FL,34221,
691556,Sullivan,Curtis,3733611668,718 Dutchmans Court,Baltimore, MD,21206,
430622,Leonel,Vaughn,8290690228,2552 Massachusetts Avenue Northwest,Palm Beach Gardens, FL,33410,
233502,Callan,Ware,6425751963,1243 Doris Avenue,Thibodaux, LA,70301,
370971,Finnegan,Montoya,2007126663,7730 Wilkinson Road,Granger, IN,46530,
217262,Jay,Medina,4627854978,2411 Alteras Drive,Nashville, TN,37205,
554747,Zayne,Scott,7138421139,6912 Sunrise Drive,Pickerington, OH,43147,
369258,Marshall,Horn,7414661565,398 Gove Hill Road,Metairie, LA,70001,
415169,Kade,Holland,6160796736,2917 Danzig Place,Indian Trail, NC,28079,
233101,Travis,Olson,2267128019,91 Courthouse Drive,Olive Branch, MS,38654,
238043,Sterling,Simpson,5386447985,9200 Gainswood Circle,Southfield, MI,48076,
747908,Raiden,Church,6035775765,1054 Overton Lea Road,Ozone Park, NY,11417,
228900,Sergio,Gibbs,2133762230,4432 Cobalt Drive,Fairmont, WV,26554,
323400,Tatum,Porter,8231960504,3901 Old Seward Highway,Bethlehem, PA,18015,
746105,Cesar,Frost,1261248415,1699 Chatham Parkway,Honolulu, HI,96815,
541198,Zyaire,Warren,1830646933,10001 Pheasant Lane,Galloway, OH,43119,
246128,Milan,Heath,1467414102,615 Sand Road,San Pablo, CA,94806,
798214,Devin,Roberts,5854184746,4401 Burlington Place Northwest,Lawrence, MA,01841,
535969,Gianni,Powers,6797404047,1160 North College Avenue,North Ridgeville, OH,44039,
691639,Kamari,Rodriguez,7850238344,1772 150th Avenue,Springfield, PA,19064,
817630,Royce,Warner,4167407513,349 North Sabine Pass Road,Bluffton, SC,29910,
175859,Malik,Garrett,3039275880,949 South Lawrence Street,Revere, MA,02151,
888020,Jared,Valencia,1715532952,7 River Otter Lane,Gaithersburg, MD,20877,
858838,Franklin,Meza,9044886081,327 Idlewylde Drive,San Antonio, TX,78213,
373480,Clark,Lucero,3386591527,36528 Short Circle,West New York, NJ,07093,
294438,Noel,Macdonald,1010012595,33 Chesapeake Mobile Court,Coram, NY,11727,
739454,Marco,Velasquez,6647808719,396 Berkshire Drive,Huntley, IL,60142,
612704,Archie,Molina,8756609230,2064 West Columbia Way,Alexandria, VA,22304,
887252,Apollo,Melton,3231838908,8202 4 Winds Drive,Kennewick, WA,99337,
800606,Pablo,Jacobs,2803080695,4709 Blagden Terrace Northwest,Langhorne, PA,19047,
246842,Garrett,Burns,5127007721,737 Nelson Road,Hollis, NY,11423,
803551,Oakley,Potter,1313414447,3402 Prestwood Drive,Snellville, GA,30039,
132714,Memphis,Hoover,2844244424,4 Elm Street,Neptune, NJ,07753,
678521,Quinn,Moody,9080371940,231 South Kimbrel Avenue,South Ozone Park, NY,11420,
598131,Onyx,Chase,9942698442,1637 Delphil Street,Enterprise, AL,36330,
483298,Alijah,Pruitt,2027898500,4216 Park Boulevard,Tualatin, OR,97062,
435910,Baylor,Zamora,9268909960,2708 Mabel Street,Davison, MI,48423,
401156,Edgar,Randall,2812630032,103 Aspen Place Northeast,Grand Blanc, MI,48439,
797876,Nehemiah,Hensley,3595303592,101 Mustang Drive,Clifton, NJ,07011,
676999,Winston,Patterson,1321521162,503 Early Street,Halethorpe, MD,21227,
331737,Major,Collins,3715072587,1207 Branch Lane,Burke, VA,22015,
764073,Rhys,Sellers,2057220983,804 East 7th Court,Thomasville, NC,27360,
188864,Forrest,Spence,7438165566,236 Alden Road,Graham, NC,27253,
165250,Jaiden,Flynn,1780865970,85 West Seymeria Drive,Merrillville, IN,46410,
939219,Reed,White,5807545852,3504 East 5th Street,Munster, IN,46321,
498316,Santino,Wagner,8998008896,8556 Nelson Court,Rochester, NY,14606,
579274,Troy,Mills,4269990906,4001 19th Place Northeast,Lynn, MA,01902,
164613,Caiden,Gallagher,8342305784,7024 Johnny Mercer Boulevard,North Wales, PA,19454,
584093,Harvey,Mendez,1384990475,3008 Russell Street,Tonawanda, NY,14150,
299771,Collin,Osborn,2462383797,5754 Belleau Drive,Hagerstown, MD,21740,
373967,Solomon,Wells,9593399774,14300 Leesa Lane,Calhoun, GA,30701,
859275,Donovan,Calderon,8581696476,29076 Little Big Horn Drive,Harrisonburg, VA,22801,
653387,Damon,Hamilton,2462370655,2399 East 14th Street,Amityville, NY,11701,
616170,Jeffrey,Ferrell,6275768359,9 South Pinyon Point,Norfolk, VA,23503,
275106,Kason,Hale,5294779795,218 Turtle Cove,Bethesda, MD,20814,
916795,Sage,Bolton,8316143179,142 Ash Drive,De Pere, WI,54115,
810937,Grady,Moyer,4666014275,2140 Colony Loop,Maspeth, NY,11378,
927699,Kendrick,Gutierrez,1510289479,105 Hunt Club Court,Muncie, IN,47302,
504638,Leland,Schroeder,3822091388,5311 Chenoweth Park Lane,Santa Monica, CA,90403,
598033,Luciano,Blackwell,4969939849,4052 Brandywine Pointe Boulevard,Painesville, OH,44077,
555750,Pedro,Cline,8844375117,5615 West Villa Maria Drive,Hackensack, NJ,07601,
196326,Hank,Colon,9103436435,5926 Sneed Drive,New Bedford, MA,02740,
393440,Hugo,Pugh,6343437784,318 Lydall Street,Woodbridge, VA,22191,
132331,Esteban,Hahn,6723966616,1817 Beech Street,Chardon, OH,44024,
445312,Johnny,Lynch,9692785849,8302 Star Point Court,Fairhope, AL,36532,
151778,Kashton,Brady,1414151173,706 Seagrove Road,East Meadow, NY,11554,
132566,Ronin,Daniel,8114299750,712 Southwest 1st Street,Conway, SC,29526,
847538,Ford,Norton,4563134482,5201 North Miller Avenue,Catonsville, MD,21228,
953504,Mathias,Brennan,7619235277,8801 North 63rd Drive,Severna Park, MD,21146,
153580,Porter,Mejia,5943891332,10508 Kovats Court,Batavia, OH,45103,
486556,Erik,Allison,5480835371,8509 Olde Gate,Winona, MN,55987,
753026,Johnathan,Cameron,3552809141,404 Ramble Wood Circle,Dekalb, IL,60115,
952573,Frank,Nixon,2996333048,5803 West Gelding Drive,Winter Park, FL,32792,
799943,Tripp,Chan,9159917708,28 Wayne Avenue,South Windsor, CT,06074,
809250,Casey,Moran,2622721796,208 Timrod Road,Cincinnati, OH,45211,
964729,Fabian,Vazquez,2391755882,7013 Collinswood Drive,Ogden, UT,84404,
699768,Leonidas,Sawyer,3489722558,12156 Oslo Drive,Lutherville Timonium, MD,21093,
860243,Baker,Kim,9939840133,4182 North Valley Lake Drive,Culpeper, VA,22701,
685677,Matthias,Morris,7878877430,110 Allen Place,Mount Pleasant, SC,29464,
511433,Philip,Mcneil,8830990263,4225 Eatons Creek Road,Fairborn, OH,45324,
603476,Jayceon,Stanley,9679737977,26 Wetherell Street,Hartford, CT,06106,
923212,Kian,Huff,4705303300,3635 Bisquier Drive,Hanover, PA,17331,
909064,Saint,Page,3533396587,5224 Wasena Avenue,Lititz, PA,17543,
388295,Ibrahim,Chambers,7522240408,21 Soling Avenue,Evanston, IL,60201,
488464,Jaxton,Case,2778050973,6606 North 52nd Drive,Bay City, MI,48706,
747165,Augustus,Weaver,6452764073,165 New Hampshire Avenue,Hampton, VA,23666,
774664,Callen,Morgan,3522733672,222 Holiday Circle,Odenton, MD,21113,
154072,Trevor,Washington,8610501289,1400 Doris Drive,Cherry Hill, NJ,08003,
688694,Ruben,Dyer,2506344332,1125 West 41st Street,Ellenwood, GA,30294,
166251,Adan,Cooper,2999476521,18330 North 79th Avenue,Bolingbrook, IL,60440,
683245,Conor,Briggs,8276258963,52 Oleary Drive,Port Chester, NY,10573,
603847,Dax,Duncan,7186499293,3215 Madsen Street,Casselberry, FL,32707,
890751,Braylen,Dickson,4357665533,8243 Daniels Purchase Way,Green Bay, WI,54302,
736034,Kaison,Ball,1857905995,1623 Mines Road,Hendersonville, NC,28792,
498699,Francis,Fry,8246949265,131 Westerly Street,Fuquay Varina, NC,27526,
563457,Kyson,Montes,4354059629,1452 55th Avenue,Glendale Heights, IL,60139,
709170,Andy,Stout,4297142511,302 Depot Road,Roseville, MI,48066,
146065,Lucca,Pollard,7302977710,6928 North 87th Lane,Port Huron, MI,48060,
901182,Mack,King,9913393275,3140 Commander Drive,West Bloomfield, MI,48322,
325005,Peyton,Herring,1162170782,27 Cabbage Crossing,Elkridge, MD,21075,
748364,Alexis,Schultz,9712556639,8101 Northwind Avenue,Brookline, MA,02446,
826257,Deacon,Becker,3287034006,68 Hampstead Place,Snohomish, WA,98290,
824800,Kasen,Wong,1777800616,904 Shepherd Street Northwest,Schererville, IN,46375,
981144,Kamden,Schneider,5399911987,56 Channing Drive,Clearwater, FL,33756,
215925,Frederick,Wall,5484730454,4313 Bylsma Circle,Elmhurst, NY,11373,
317989,Princeton,Odom,9670568762,7321 Mary Jo Avenue,Atwater, CA,95301,
751907,Braylon,Kennedy,9774189488,8 Elmwood Drive,Covington, GA,30014,
869694,Wells,Compton,8853817767,19020 North 68th Avenue,Holland, MI,49423,
259126,Nikolai,Galloway,1560197970,7772 West Palmaire Avenue,Austin, MN,55912,
263225,Iker,Clarke,7969315401,7 Vantine Avenue,Norristown, PA,19401,
799583,Bo,Howell,7010913100,2349 East Tall Oaks Drive,Danvers, MA,01923,
830170,Dominick,Khan,6384510024,3109 Thistle Down Lane,Rockaway, NJ,07866,
746145,Moshe,Ruiz,5687206678,320 South Link Lane,Howard Beach, NY,11414,
800297,Cassius,Zhang,8534168717,5707 Whispering Hills Boulevard,Fernandina Beach, FL,32034,
950651,Gregory,Schmitt,8995588426,5073 West 65th Place,Miamisburg, OH,45342,
216239,Lewis,Evans,8451100399,7502 Kingman Street,Alpharetta, GA,30004,
662878,Kieran,Singh,7555951782,2130 Winona Avenue,Fremont, OH,43420,
341286,Isaias,Ward,9358019437,208 Waterford Drive,Englishtown, NJ,07726,
911235,Seth,Barr,6306891651,6460 Lacrosse Lane,Hialeah, FL,33010,
346851,Marcos,Drake,5514806965,5370 Business Park Drive,Buckeye, AZ,85326,
817218,Omari,Cross,9254303227,5123 Ewell Street,New Hyde Park, NY,11040,
352051,Shane,Alexander,5739345337,480 Keene Road,Raeford, NC,28376,
335541,Keegan,Mayer,2592254254,20375 Wisteria Street,Westport, CT,06880,
603769,Jase,Mayo,1406286656,22 Charnock Street,Palm Harbor, FL,34683,
606086,Asa,Fritz,5838419481,111 Rosemary Street,Harrison Township, MI,48045,
474648,Sonny,Brandt,7742169199,4981 Shirley Way,York, PA,17402,
203056,Uriel,Gonzalez,4556636979,23 Sable Run Lane,Hoffman Estates, IL,60169,
752187,Pierce,Hobbs,1216623136,7404 West Crest Lane,Bonita Springs, FL,34135,
948431,Jasiah,Mcknight,6676974682,9403 Fairground Road,Oak Lawn, IL,60453,
466655,Eden,Lane,4998147167,28 Garden Drive,Little Falls, NJ,07424,
178040,Rocco,Cooley,9637294513,3784 Milky Way Drive,Windsor Mill, MD,21244,
723063,Banks,Wood,5934841732,4922 West Cholla Street,Calumet City, IL,60409,
614110,Cannon,Knox,8297699781,1709 Queensbury Road,Boston, MA,02127,
326983,Denver,Holmes,2587771676,4130 Legation Street Northwest,Easton, PA,18042,
668752,Zaiden,Wise,4013510718,509 Franklin Street Northeast,Logansport, IN,46947,
734092,Roberto,Barton,3320884412,5906 Milton Avenue,Morganton, NC,28655,
438667,Shawn,Leblanc,4696386472,2201 Ontario Road Northwest,Goodlettsville, TN,37072,
949812,Drew,Yates,7489457919,8447 West 51st Avenue,Saint Paul, MN,55104,
308637,Emanuel,Francis,7548546456,9036 Calico Court,Ann Arbor, MI,48103,
336357,Kolton,Mercer,1503740016,1622 Edgar D Nixon Avenue,North Bergen, NJ,07047,
428126,Ayaan,Bentley,4458986940,2815 Blueridge Place,Durham, NC,27703,
582519,Ares,Calhoun,8873957405,236 Middle Turnpike East,Ashtabula, OH,44004,
990773,Conner,Walters,9262765664,6622 West Altadena Avenue,Clementon, NJ,08021,
172130,Jalen,Estrada,4998187890,6228 West Larkspur Drive,Cambridge, MA,02138,
450408,Alonzo,Pace,1579922180,6293 Braun Circle,Victoria, TX,77904,
483655,Enrique,Ballard,1096814340,31130 Meadowbrook Avenue,Englewood, NJ,07631,
639366,Dalton,Stafford,4454596210,508 Baker Street,Braintree, MA,02184,
116276,Moses,Salazar,2454711922,32512 Christine Drive,Winchester, VA,22601,
259157,Koda,Stevenson,3797189680,3111 West Place Southeast,Middle Village, NY,11379,
975912,Bodie,Saunders,1156764025,228 Central Street,Bristol, CT,06010,
213842,Jamison,Maddox,3902447121,214 South End Road,Massapequa Park, NY,11762,
727721,Phillip,Bautista,6814272605,1403 Boulder Court,North Royalton, OH,44133,
806799,Zaire,Summers,3838004196,802 Madison Street Northwest,Nanuet, NY,10954,
262174,Jonas,Sanford,7723749532,1828 East Parkshore Drive,Fort Washington, MD,20744,
401322,Kylo,Dorsey,7640318710,8347 Ames Way,New Rochelle, NY,10801,
242222,Moises,Reid,3917374863,4050 Lake Otis Parkway,Jacksonville Beach, FL,32250,
256683,Shepherd,Figueroa,7742412143,5628 West Tonopah Drive,Irmo, SC,29063,
308545,Allen,Shepherd,5543625676,2436 Naples Avenue,Endicott, NY,13760,
926922,Kenzo,Barrera,5872127306,4308 Princess Lane,Salt Lake City, UT,84119,
109241,Mohamed,Cobb,7525738715,5805 Armada Drive,West Hempstead, NY,11552,
498508,Keanu,Raymond,2850522788,1261 Sioux Terrace,Dorchester Center, MA,02124,
533444,Dexter,Stevens,1111538305,325 Baxter Lane,Wellington, FL,33414,
213684,Conrad,Phelps,2147657099,325 Alexander Drive,Dallas, GA,30132,
226009,Bruce,Rodgers,6506661714,12610 Webber Road,Park Forest, IL,60466,
256056,Sylas,Wilkerson,4987897102,2052 East 42nd Street,Carrollton, GA,30117,
510623,Soren,Huber,6562456168,8446 Coors Loop,Hillsboro, OR,97124,
281595,Raphael,Weber,3509901718,5722 8th Street Northwest,Mesa, AZ,85203,
182345,Rowen,Hayden,1309584482,2276 West Woodley Square,Monroeville, PA,15146,
326258,Gunnar,Walter,3545700192,18 Cambridge Street,Fishers, IN,46037,
807780,Sutton,Daugherty,9079017087,7296 West Wedington Drive,Nottingham, MD,21236,
764919,Quentin,Buchanan,3439545707,1649 Timberridge Court,New Bern, NC,28560,
243529,Jaziel,Downs,6940258753,235 17th Street Southeast,Rocky Mount, NC,27804,
532896,Emmitt,Hendricks,2857907611,6223 Kilmer Loop,Fenton, MI,48430,
950274,Makai,Frazier,9093288715,1332 Maple Street,Pawtucket, RI,02860,
742858,Koa,Armstrong,9567830754,11985 West 56th Drive,Port Charlotte, FL,33952,
985044,Maximilian,Klein,1245467025,37122 Contra Costa Avenue,Brookfield, WI,53045,
979064,Brixton,Hogan,1501111417,1631 Madison Avenue,Sterling Heights, MI,48310,
385016,Dariel,Pittman,8057476617,1514 Wyoming Avenue,Gibsonia, PA,15044,
144276,Zachariah,Horton,2748095440,16040 North 67th Drive,Grayslake, IL,60030,
845842,Roy,Spears,4148280897,1917 Whitaker Street,Williamsport, PA,17701,
685855,Armando,Andersen,5366014811,4695 East Huntsville Road,Ooltewah, TN,37363,
788766,Corey,Proctor,5032583021,968 Virginia Avenue,Reston, VA,20191,
469616,Saul,Serrano,6465034810,680 Quintana Road,Piedmont, SC,29673,
114030,Izaiah,Reed,6983231685,1157 1st Street Northwest,Kernersville, NC,27284,
596136,Danny,Middleton,1135793030,629 Debbie Drive,Shelton, CT,06484,
940879,Davis,Mack,1306315993,302 Black Sky Lane,Romeoville, IL,60446,
878588,Ridge,Anthony,6984822938,163 Highwood Drive,Front Royal, VA,22630,
900904,Yusuf,Day,4035542512,102 Old Depot Road,Clarksburg, WV,26301,
361298,Ariel,Michael,3324269241,3415 Brookdale Drive,Hobart, IN,46342,
442671,Valentino,Duran,6338371923,8300 Dover Way,Council Bluffs, IA,51501,
332356,Jayson,Marquez,9651171808,65 Arcellia Drive,Elizabethtown, PA,17022,
874687,Ronald,Malone,5247863419,5701 East Shirley Lane,Uniondale, NY,11553,
489014,Albert,Larsen,2255900330,6262 29th Street Northwest,Gloucester, MA,01930,
965818,Gerardo,Rogers,7596005478,65 Clark Street,District Heights, MD,20747,
175268,Ryland,Paul,4617003893,240 Lynwood Drive,West Orange, NJ,07052,
464619,Dorian,Sloan,4115372063,6201 West Olive Avenue,Tucker, GA,30084,
466218,Drake,Hansen,2499116779,7018 Russell Court,Newington, CT,06111,
689909,Gage,Osborne,7436620440,82 Linnmore Drive,Collegeville, PA,19426,
505203,Rodrigo,Randolph,8934345386,54 Pine Meadow Drive,Vineland, NJ,08360,
223042,Hezekiah,House,4299975202,23 Florida Avenue Northeast,East Haven, CT,06512,
486705,Kylan,Cole,2340170735,5747 West Missouri Avenue,East Brunswick, NJ,08816,
514296,Boone,Hebert,1291266268,595 West 15th Street,Elizabeth, NJ,07202,
832015,Ledger,York,3964010864,265 Airport Road,Taunton, MA,02780,
478584,Santana,Gonzales,7298693469,9 Pierce Road,Toms River, NJ,08753,
306528,Jamari,Aguirre,1065300243,4742 Bellevue Avenue,Hudson, NH,03051,
857488,Jamir,Bowers,6304347353,7 Rose Dhu Lane,Syosset, NY,11791,
436801,Lawrence,Leach,4019274872,10 Erick Road,Ridgewood, NJ,07450,
700137,Reece,Acevedo,8913737479,6917 Briarcreek Drive,Glastonbury, CT,06033,
961673,Kaysen,Brewer,6385117615,4221 U.S. 5,Kaukauna, WI,54130,
814576,Shiloh,Sweeney,8857445275,4306 Bylsma Circle,Harlingen, TX,78552,
587834,Arjun,Beasley,1826371932,6342 West Wheeler Road,Riverdale, GA,30274,
430824,Marcelo,Patel,5819755206,4755 Coventry Road,Bridgeport, CT,06606,
879652,Abram,Hodges,7175268543,2223 North Fernwood Court,Cuyahoga Falls, OH,44221,
131995,Benson,Mcconnell,5149662645,1100 Cleveland Street,Oak Creek, WI,53154,
577259,Huxley,Martin,2907647496,700 Winston Place,Murrells Inlet, SC,29576,
753278,Nikolas,Key,7886627403,1300 East Dowling Road,Greenville, NC,27834,
723772,Zain,Bishop,3357835479,45 Heathcote Circle,Campbell, CA,95008,
586410,Kohen,Stanton,1211934286,1349 Burkhart Avenue,Garland, TX,75043,
899433,Samson,Roach,4486890403,8673 Burkitt Place Drive,Jamestown, NY,14701,
806217,Miller,Ochoa,1622533792,123 Elizabeth Drive,Gainesville, VA,20155,
475173,Donald,Hooper,8410908542,4316 Dover Road,Capitol Heights, MD,20743,
756644,Finnley,Monroe,9357553953,523 10th Street,Richmond Hill, NY,11418,
812779,Kannon,Vidal,7145890382,17361 Baronoff Avenue,Ravenna, OH,44266,
669759,Lucian,Campos,1444685385,9712 Stream View Trail,Circle Pines, MN,55014,
844653,Watson,Díez,4974209379,4604 Virginia Loop Road,Manitowoc, WI,54220,
649460,Keith,Gallardo,2754095099,1838 Crofton Parkway,Indiana, PA,15701,
686212,Westin,Márquez,9599168189,1816 U Place Southeast,Beverly, MA,01915,
753550,Tadeo,Iglesias,7279262439,17794 West 77th Lane,Malvern, PA,19355,
621108,Sincere,Vega,5010841154,15847 West 74th Place,Hoboken, NJ,07030,
164558,Boston,Torres,4369744650,2035 Ninth Street,Butler, PA,16001,
246286,Axton,Flores,6476797995,3 Mad Anthony Lane,Lewis Center, OH,43035,
250328,Amos,Bravo,1489301918,1340 5th Street Northwest,Brookfield, WI,53045,
631610,Chandler,Ortiz,6866184066,6624 Strawberry Lane,San Antonio, TX,78213,
807525,Leandro,Parra,7380257568,16 Conway Street,Minot, ND,58701,
518540,Raul,Romero,5997916806,8595 North 71st Avenue,Stevens Point, WI,54481,
646748,Scott,Lozano,2701657453,5708 West Union Hills Drive,Pittsburgh, PA,15206,
730779,Reign,Moreno,4357322321,4607 Artelia Drive,Pottstown, PA,19464,
244066,Alessandro,Soto,3931394893,3014 R Street Northwest,Florence, SC,29501,
349829,Camilo,Hidalgo,7298618757,26563 Chisholm Court,Pearl, MS,39208,
673851,Derrick,Hernández,2045442757,615 Long Hunter Court,Nanuet, NY,10954,
551914,Morgan,Velasco,9464884256,4430 Davenport Street Northwest,Reading, MA,01867,
167968,Julio,Cano,3551679837,212 Ambleside Drive,Shelbyville, TN,37160,
627325,Clay,Castro,7947323886,2186 Knollwood Drive,Everett, MA,02149,
772315,Edison,Carmona,6851530650,10340 West 62nd Place,Butte, MT,59701,
340678,Jaime,Giménez,1946205689,6342 Kendall Street,Rock Hill, SC,29730,
471041,Augustine,Durán,3360556518,4132 Northwest 57th Street,Fresno, CA,93706,
482716,Julien,Marín,4049082593,451 East Street,Buford, GA,30518,
561116,Zeke,Cambil,9359291647,8380 West 67th Avenue,Neenah, WI,54956,
527408,Marvin,Vázquez,8453363085,12 Fletcher Lane,Elmont, NY,11003,
513110,Bellamy,Domínguez,1055327391,1701 Foster Avenue,Mentor, OH,44060,
842436,Landen,León,8749785958,13583 West 68th Avenue,Emporia, KS,66801,
429903,Dustin,Santana,5977016770,328 Missouri Avenue Northwest,Irvington, NJ,07111,
497028,Jamie,López,4240715933,511 Norton Avenue,Frederick, MD,21701,
570805,Krew,Peña,2609073845,705 Upshur Street Northwest,Bensalem, PA,19020,
628402,Kyree,Cortés,7955051347,3623 Chateau Lane,Longwood, FL,32779,
355295,Colter,Martín,4846236074,7102 North 43rd Avenue,Glen Ellyn, IL,60137,
301647,Johan,Gallego,7324745214,18505 Onyx Avenue,Roanoke, VA,24012,
254266,Houston,Suárez,3142701646,1046 Dudley Avenue,Stuart, FL,34997,
837860,Layton,Guerrero,3353649969,8295 Moss Circle,Rockford, MI,49341,
705744,Quincy,Santiago,7554155690,120 Wells Avenue,Osseo, MN,55311,
346916,Case,Gil,7556976059,275 Ridge Lane,Jamaica Plain, MA,02130,
298475,Atreus,Esteban,8744961283,95 Westbourne Way,Central Islip, NY,11722,
412493,Cayson,Castillo,4073221098,147 Willow Ridge Lane,Upper Darby, PA,19082,
312984,Aarav,Benítez,2730495428,135 Northshore Drive,Chesterton, IN,46304,
315305,Darius,Montero,7267413982,5843 West McLellan Road,Woodhaven, NY,11421,
945290,Harlan,Cruz,8022257012,22 Gallatin Street Northeast,Menomonee Falls, WI,53051,
932814,Justice,Molina,2326688517,137 East 53rd Avenue,Ellenwood, GA,30294,
783220,Abdiel,Rey,4987341421,1825 Woodland Farms Court,North Kingstown, RI,02852,
171153,Layne,Nieto,1383740247,1720 D Street Northeast,Halethorpe, MD,21227,
765321,Raylan,Pérez,6699887900,14 Hillside Terrace,Lowell, MA,01851,
115022,Arturo,Calvo,5344062360,168 Partridge Hill Road,Hamilton, OH,45011,
230379,Taylor,Blanco,9115790358,7701 West Saint John Road,Helotes, TX,78023,
642501,Anakin,Sáez,6545599599,707 Leaning Oaks Drive,Annandale, VA,22003,
813765,Ander,Blesa,2839681682,4809 Trappers Ridge,Winter Springs, FL,32708,
989341,Hamza,Reyes,2574044774,11102 Little Rock Court,Paducah, KY,42001,
671874,Otis,Mora,5732177806,19 Katama Way,Sanford, NC,27330,
664635,Azariah,Medina,1310123625,310 West Trinity Lane,North Miami Beach, FL,33160,
632795,Leonard,Rubio,8505563822,5 Hibiscus Avenue,Piqua, OH,45356,
678520,Colby,Sanz,9974470322,16772 West 70th Avenue,Fayetteville, NC,28303,
146880,Duke,Navarro,8269869606,3345 Archie Watkins Road,Pittsford, NY,14534,
803616,Flynn,González,8379663694,103 Edgewater Road,Redford, MI,48239,
748032,Trey,Alonso,9593926746,503 Blackwood Terrace Southeast,Bridgeport, CT,06606,
841596,Gustavo,Morales,2562739483,11160 Vosikof Place,Carlisle, PA,17013,
287843,Fletcher,Serrano,5978986793,1211 Friendship Avenue,Memphis, TN,38106,
304878,Issac,Herrero,3040971393,9101 Vanguard Drive,Bethel Park, PA,15102,
797948,Sam,Montoro,1279502816,6716 South Mariposa Lane,Vincentown, NJ,08088,
337557,Trenton,Soler,9558102691,1433 Bretton View Road,South Plainfield, NJ,07080,
374949,Callahan,Herrera,1554347294,1314 89th Avenue,Williamsburg, VA,23185,
219985,Chris,Ramos,2103067410,7435 East Tulare Avenue,Hightstown, NJ,08520,
431477,Mohammad,Ibáñez,8091270147,201 West Street,Tualatin, OR,97062,
172110,Rayan,Delgado,5026886019,3394 Wilmington Road,Jersey City, NJ,07302,
937840,Lionel,Álvarez,7768478679,9 Brooklyn Street,Bismarck, ND,58501,
921652,Bruno,Ramírez,8296621971,2544 Worthington Way,Elgin, IL,60120,
377928,Jaxxon,Ortega,5814856492,97 Lincoln Street,Copperas Cove, TX,76522,
195511,Zaid,Núñez,7883252680,8704 Bayberry Place,Winchester, VA,22601,
870317,Brycen,Martínez,4701300247,130 Old Route 103,Pawtucket, RI,02860,
690043,Roland,Cabrera,3103079193,2638 East 40th Plaza,Lanham, MD,20706,
423951,Dillon,Sánchez,6650918378,7000 Hugh Drive,Boca Raton, FL,33428,
960781,Lennon,Carrasco,4774491425,8404 West Myrtle Avenue,Youngstown, OH,44512,
344677,Ambrose,Vicente,5770936681,6311 West Wagoner Road,Hopewell, VA,23860,
639869,Rio,Crespo,9194012666,9008 Grayson Grove Court,Centreville, VA,20120,
487637,Mac,Arias,6396350593,425 Middle Turnpike East,Blackwood, NJ,08012,
454928,Ahmed,Román,7565311680,312 Shepherd Hills Drive,Little Rock, AR,72209,
818464,Samir,Ferrer,2774950610,3511 Oakland Zion Road,Amarillo, TX,79106,
665303,Yosef,Lorenzo,2194696429,756 Neponset Street,Macungie, PA,18062,
371796,Tru,Ruiz,7720408623,8573 North 63rd Drive,Allen Park, MI,48101,
339590,Creed,García,7425508291,5814 Carriage Brook Road,Richmond Hill, NY,11418,
312225,Tony,Díaz,8388683866,1124 Bluewillow Court,Marion, NC,28752,
549093,Alden,Gutiérrez,9256920418,7105 Tanager Avenue,Williamstown, NJ,08094,
593537,Aden,Pastor,3806083503,1601 East 19th Street,Granger, IN,46530,
888886,Alec,Muñoz,6901504335,112 North Hunter Street,Fort Lauderdale, FL,33308,
584375,Carmelo,Fernández,6611631963,416 South University Boulevard,Dickson, TN,37055,
411561,Dario,Vargas,9518880338,3100 Gentilly Court,Stone Mountain, GA,30083,
270968,Marcel,Rodríguez,6051616870,89 Augusta Drive,East Orange, NJ,07017,
410703,Roger,Moya,1268530384,110 Lenoak Drive,El Paso, TX,79930,
147178,Ty,Garrido,1861523964,218 Oleander Drive,Nutley, NJ,07110,
599942,Ahmad,Jiménez,6203289902,37600 Sycamore Street,Severn, MD,21144,
701625,Emir,Prieto,7367264349,8001 East 6th Avenue,Evanston, IL,60201,
693106,Landyn,Santos,8199477569,12816 West 65th Way,Sterling Heights, MI,48310,
468663,Skyler,Gómez,6535307846,4016 Doane Street,Shakopee, MN,55379,
985211,Mohammed,Pascual,4373992123,205 West Montgomery Cross Road,Henrico, VA,23228,
862578,Dennis,Aguilar,1162765519,321 Kentucky Avenue Southeast,Riverdale, GA,30274,
346018,Kareem,García,5349280748,1217 Greenwood Court,Dawsonville, GA,30534,
739430,Nixon,Caballero,2958211063,1403 Lincoln Street,Racine, WI,53402,
357894,Rex,Velasco,8291596482,2506 West Madison Street,Clearwater, FL,33756,
593270,Uriah,Pastor,2197395536,122 40th Avenue North,Aliquippa, PA,15001,
214336,Lee,Lozano,9736445980,13415 Panama City Beach Parkway,Oxford, MS,38655,
361314,Louie,Vicente,8091075844,38 Milford Street,Morrisville, PA,19067,
338945,Rayden,Carmona,2212854872,6 Greenleaf Drive,Royersford, PA,19468,
794209,Reese,López,8106465063,29104 Quartz Lane,Haines City, FL,33844,
628018,Alberto,Delgado,9241393392,1402 North Capitol Street Northwest,Chelsea, MA,02150,
340882,Cason,Medina,2210835019,396 Hartford Road,Cocoa, FL,32927,
680426,Quinton,Nieto,8940642446,1219 North Storer Avenue,Deland, FL,32720,
462256,Kingsley,Alonso,3516435009,81 Seaton Place Northwest,Mount Prospect, IL,60056,
876065,Chaim,Cruz,9073387350,4039 Pipeline Road,Torrance, CA,90505,
294728,Alfredo,Soler,9693872356,4719 West Cochise Drive,Tupelo, MS,38801,
738091,Mauricio,Márquez,1358721241,1431 King George Boulevard,Mankato, MN,56001,
111528,Caspian,Fernández,7746245113,17 Hillcrest Road,New Rochelle, NY,10801,
915194,Legacy,Castillo,5259220494,488 Mill Road,Danbury, CT,06810,
597965,Ocean,Torres,9993667303,3141 North Lancaster Lane,Suwanee, GA,30024,
330215,Ozzy,Bravo,6123638317,24147 Clinton Court,Yuba City, CA,95993,
406176,Briar,Arias,7014884121,7047 Vinson Road,Neptune, NJ,07753,
920301,Wilson,Crespo,7033053948,199 Spencer Street,Sewell, NJ,08080,
907497,Forest,Gallardo,4870844832,5815 West Del Lago Circle,Eau Claire, WI,54701,
607355,Grey,Vargas,7850542566,3072 The Alameda,Camas, WA,98607,
153350,Joziah,Hernández,6200407574,854 Cherry Trail,Owensboro, KY,42301,
163624,Salem,Santana,1816835998,1421 Floral Street Northwest,Ridgefield, CT,06877,
682202,Neil,Parra,5047716024,5036 Jericho Street,Severna Park, MD,21146,
867389,Remi,Montero,5454517202,5348 Main Street,Arvada, CO,80003,
296584,Bridger,Gallego,6781656836,4418 Signal Hill Road,Flushing, NY,11354,
518578,Harry,Moreno,1819005180,2617 Truffula Circle,Medina, OH,44256,
314765,Jefferson,Soto,1947179272,111 Edgewater Road,Santa Monica, CA,90403,
223028,Lachlan,Iglesias,6439443715,875 Latouche Street,Jenison, MI,49428,
536511,Nelson,Díaz,7314137011,6754 Field Street,Martinsville, VA,24112,
602932,Casen,Guerrero,8149363085,417 West Park Place,Johnston, RI,02919,
785014,Salvador,Gómez,8495326005,123 Blossom Road,Wakefield, MA,01880,
476962,Magnus,Herrero,4730598234,63 Columbia Drive,Ozone Park, NY,11417,
228466,Tommy,Benítez,4558110100,60 Montgomery Street,Roanoke Rapids, NC,27870,
982076,Marcellus,Giménez,3292287364,5144 Cattail Court,Griffin, GA,30223,
904585,Maximo,Santos,8751241013,6081 Jay Street,Kearny, NJ,07032,
616144,Jerry,Cano,4258280857,7804 Abercorn Street,Piscataway, NJ,08854,
899255,Clyde,Blanco,6008790831,10129 Spring Gate Drive,Oak Lawn, IL,60453,
526520,Aron,Castro,9922444871,7968 Newman Street,Webster, NY,14580,
458001,Keaton,Ferrer,6804909024,3 Dayton Street,Parkville, MD,21234,
611714,Eliam,Sánchez,5242631457,600 West North Street,Leominster, MA,01453,
339529,Lian,Reyes,4999843288,210 Beachcomber Drive,Fullerton, CA,92831,
408052,Trace,Ramírez,1580397609,7072 Quail Street,Norristown, PA,19401,
174073,Douglas,Esteban,1160253645,715 36.1 Road,Winter Haven, FL,33880,
623431,Junior,Cortés,8293911283,201 North Locust Avenue,Lilburn, GA,30047,
368490,Titan,Sanz,3226913701,3835 Oakes Drive,Palm Bay, FL,32907,
254575,Cullen,Durán,7580499441,5458 30th Street Northwest,Michigan City, IN,46360,
996732,Cillian,Martínez,7944373275,15267 Hesperian Boulevard,Chattanooga, TN,37421,
426396,Musa,Serrano,9081264334,7758 Betty Louise Drive,Lynchburg, VA,24502,
148179,Mylo,González,1297870556,88 Florence Street,Coraopolis, PA,15108,
776160,Hugh,Hidalgo,1806468583,22825 Paseo Place,Adrian, MI,49221,
141228,Tomas,Martín,2390562840,831 21st Street Northeast,Chester, PA,19013,
813953,Vincenzo,Prieto,5672953588,8315 Surf Drive,Commack, NY,11725,
373525,Westley,Fuentes,5623493231,11256 Palos Verdes Court,Grand Forks, ND,58201,
945634,Langston,Navarro,4656566077,2406 Lindbergh Drive,Midland, MI,48640,
764040,Byron,Cambil,2914534665,1823 North Munchkin Lane,Rossville, GA,30741,
967672,Kiaan,Campos,7901388592,98 Lee Drive,Reston, VA,20191,
454093,Loyal,Vázquez,1398224154,60 Downey Drive,State College, PA,16801,
434982,Orlando,Ortiz,8286988579,3505 Albee Drive,Bountiful, UT,84010,
390893,Kyro,Garrido,3418202523,1504 East 55th Street,Rolla, MO,65401,
895823,Amias,Suárez,7797533774,207 Spruce Street,Fenton, MI,48430,
288776,Amiri,Lorenzo,8226172951,841 Whittier Hill Road,Roselle, IL,60172,
990066,Jimmy,Ruiz,9635813051,8522 Ingalls Circle,Charleston, SC,29406,
725117,Vicente,Mora,7614696993,8506 Laviento Drive,Bay Shore, NY,11706,
324070,Khari,Ortega,7203447649,6315 North Oro Vista Court,Westford, MA,01886,
838252,Brendan,Santiago,7783197940,1311 Northwest 98th Street,Massapequa, NY,11758,
225125,Rey,Montoro,7738766473,2809 Rowland Avenue,Billerica, MA,01821,
395522,Ben,Pérez,5010793621,2315 Chestnut Street,Montgomery Village, MD,20886,
254137,Emery,Calvo,7301843636,3065 East Pebblestone Drive,Oak Forest, IL,60452,
573980,Zyair,León,2730455568,22709 Canyon Terrace Drive,Mechanicsville, VA,23111,
954729,Bjorn,Núñez,8092865439,545 East Muhammad Ali Boulevard,Boston, MA,02127,
155478,Evander,Ibáñez,6704483287,11 Eclipse Court,Union City, NJ,07087,
319146,Ramon,Moya,7852184531,203 East Gwinnett Street,Ridgecrest, CA,93555,
374691,Alvin,Cabrera,7520976634,11012 Eagles Cove Drive,West Haven, CT,06516,
526064,Ricky,Molina,3851103192,800 West Street,Delaware, OH,43015,
105288,Jagger,Pascual,1200757406,2222 Martin Luther King Junior Boulevard,Bear, DE,19701,
169808,Brock,Muñoz,9127377398,701 Mussel Slough Road,Media, PA,19063,
423589,Dakari,Peña,1429440507,5821 Taft Street,Alexandria, VA,22304,
848962,Eddie,Morales,4826239853,1823 Dinger Road,Chicago, IL,60621,
233384,Blaze,Ramos,8326499964,308 Woodleaf Court,West Bloomfield, MI,48322,
399605,Gatlin,Flores,2813752069,223 Goose Pond Road,Owosso, MI,48867,
720996,Alonso,Romero,3549696167,12371 Atlanta Highway,Bozeman, MT,59715,
780013,Curtis,Rey,2892746795,2185 Howe Pond Road,Laurel, MD,20707,
659105,Kylian,Gil,8222795468,465 Humboldt Way,Savannah, GA,31404,
123965,Nathanael,Sáez,9773891232,6630 MacArthur Boulevard,Harrisburg, PA,17109,
113867,Devon,Vidal,4835484981,6408 Fern Crest Road,Windsor Mill, MD,21244,
529975,Wayne,Marín,5044699055,6460 Vermont 113,Dorchester, MA,02125,
447097,Zakai,Carrasco,4558984730,351 Porter Street,Shepherdsville, KY,40165,
504701,Mathew,Gutiérrez,9257618162,58 North Cove Road,Hampton, VA,23666,
149189,Rome,Rubio,5725796577,29 Vista Flores,Miami Gardens, FL,33056,
585067,Riggs,Blesa,4823663717,212 Burk Way,Middleton, WI,53562,
123853,Aryan,Domínguez,7634076452,22 South Duncan Avenue,Waterford, MI,48329,
334141,Avi,Román,1337476583,1122 McDaniel Street,Zeeland, MI,49464,
736671,Hassan,Rodríguez,1626468448,354 North University Avenue,Petersburg, VA,23803,
267089,Lochlan,Aguilar,1051061647,6702 Johnny Mercer Boulevard,Opa Locka, FL,33054,
132176,Stanley,Jiménez,2881824016,25793 Durrwood Court,Manahawkin, NJ,08050,
501881,Dash,Herrera,1441659592,601 Farragut Place Northeast,Dundalk, MD,21222,
884443,Kaiser,Vega,9949156255,16 Ambassador Drive,Holyoke, MA,01040,
832974,Benicio,Ballard,9564083684,981 Groton Long Point Road,Arlington, MA,02474,
550236,Bryant,Mcconnell,2250096036,7910 West Krall Street,Los Banos, CA,93635,
589602,Talon,Nicholson,6043247864,223 Main Street,Manassas, VA,20109,
554121,Rohan,Zhang,7669421053,1117 Everett Avenue,Antioch, TN,37013,
412436,Wesson,Davis,7721284187,287 Lawndale Drive,Oxnard, CA,93035,
403962,Joe,Wu,3462770304,7711 North 51st Avenue,Wilkes Barre, PA,18702,
319365,Noe,Lucero,9217269871,17623 Norma Lane,Somerset, NJ,08873,
526795,Melvin,Abbott,6506271638,1404 James Way,Hernando, MS,38632,
843274,Vihaan,Bartlett,6959916607,7003 9th Street Northwest,North Attleboro, MA,02760,
244800,Zayd,Harrell,2148469367,2017 North Hartford Drive,Kansas City, MO,64151,
232044,Darren,Young,9370969300,194 North Main Street,Colonial Heights, VA,23834,
813645,Enoch,Fritz,4696142092,4 Samuel Riggs Circle,Tallahassee, FL,32303,
830389,Mitchell,Paul,9051924683,406 Stilz Avenue,Berwyn, IL,60402,
715969,Jedidiah,Davila,2787731574,11 Adams Street,Culpeper, VA,22701,
478812,Brodie,Hunter,2571392704,211 West Oak Street,Painesville, OH,44077,
692399,Castiel,Henson,7959900210,102 Hayes Drive,Quincy, MA,02169,
256669,Ira,Francis,2255833454,242 North Ash Street,Centereach, NY,11720,
634397,Lance,Cooper,2814498006,2729 East 14th Street,Palatine, IL,60067,
374900,Guillermo,Stark,3789515012,501 West Maple Street,New Orleans, LA,70115,
903711,Thatcher,Mckay,2158414942,10996 Largo Drive,Auburn, NY,13021,
502424,Ermias,Blake,4321087173,824 Main Street,Garfield, NJ,07026,
169245,Misael,Gomez,1434407493,34 Free Street,Ballston Spa, NY,12020,
394352,Jakari,Garcia,3027624956,527 Birch Mountain Road,Meriden, CT,06450,
563832,Emory,Reynolds,4749417250,4960 Maple Grove Drive,Downers Grove, IL,60515,
478033,Mccoy,Burns,3864694698,1744 Shoreham Drive,Mahwah, NJ,07430,
103647,Rudy,Branch,9778073730,68 Route 66,Tewksbury, MA,01876,
271100,Thaddeus,Simpson,8274395400,1120 Mitchell Young Road,Lombard, IL,60148,
821913,Valentin,Hendricks,1376657599,8391 West 52nd Avenue,Ashburn, VA,20147,
672579,Yehuda,Weiss,3629980482,8007 Kendrick Crossing Lane,Coachella, CA,92236,
489590,Bode,Gaines,4224133490,4604 West 19th Court,Muskogee, OK,74403,
853987,Madden,Griffith,6262804406,19091 Northeast 23rd Street,Elizabeth, NJ,07202,
510528,Kase,Watkins,7691285600,39247 Sundale Drive,Wake Forest, NC,27587,
375427,Bear,Hughes,9626758951,1320 Huffman Park Drive,Worcester, MA,01604,
761921,Boden,Palmer,7802368952,2604 13th Street,South Portland, ME,04106,
747871,Jiraiya,Barrera,6534079359,7450 Wade Circle,Abingdon, MD,21009,
639653,Maurice,Shelton,2567434524,1822 Pine Grove Court,Trussville, AL,35173,
855708,Alvaro,Terry,5821216069,2196 East Jonquil Road,Warner Robins, GA,31088,
396548,Ameer,Flores,2348100807,1380 Quincy Street Northwest,West Chester, PA,19380,
566788,Demetrius,Becker,4487313020,115 Maple Street,Selden, NY,11784,
879258,Eliseo,Jones,5251631075,5124 E Street Southeast,Fuquay Varina, NC,27526,
904437,Kabir,Mckinney,1754058444,74 Bradford Road,Woonsocket, RI,02895,
574864,Kellan,Johns,2194826386,3609 Meadow Drive,Hazleton, PA,18201,
590620,Allan,Woodard,8731999942,3027 Badger Drive,Hephzibah, GA,30815,
584965,Azrael,Rocha,2276177458,73455 Twentynine Palms Highway,Cranberry Twp, PA,16066,
315439,Calum,Jenkins,4679902593,461 Alder Street,Queensbury, NY,12804,
482793,Niklaus,Bates,8825095239,215 9th Street Northeast,Natchez, MS,39120,
870857,Ray,Shannon,7078413242,3904 October Woods Drive,Levittown, NY,11756,
789973,Damari,Mccullough,4137441096,1123 Glenwood Avenue,Front Royal, VA,22630,
236683,Elio,Morrow,1178395403,8800 Northwest 92nd Street,Rockledge, FL,32955,
736751,Jon,Dunn,7726236182,171 Brickhill Circle,Winter Garden, FL,34787,
893270,Leighton,Hawkins,7585791300,2414 Parker Street,Falls Church, VA,22041,
677010,Axl,Morton,4997866936,8213 Northwest 65th Place,High Point, NC,27265,
651448,Dane,Bond,2669899796,1630 Eton Way,Massillon, OH,44646,
397637,Eithan,Cannon,6251284015,230 East 8th Street,Conyers, GA,30012,
606363,Eugene,Nelson,5198309484,1007 Ash Street,Jonesboro, GA,30236,
409019,Kenji,Rodgers,5463760674,7427 West Abraham Lane,Grand Island, NE,68801,
670438,Jakob,Harrington,2788544925,40 Strawberry Lane,Bradenton, FL,34203,
276434,Colten,Ferrell,8065536596,7124 West Morrow Drive,Morristown, NJ,07960,
135177,Eliel,Ruiz,5189503750,1261 Steamboat Drive,Bettendorf, IA,52722,
990366,Nova,Calderon,5805768230,3528 Seasons Drive,Elizabethton, TN,37643,
289781,Santos,Welch,7517983672,37 Rushforde Drive,Bedford, OH,44146,
465692,Zahir,Hartman,2888872796,8886 West 77th Circle,Olney, MD,20832,
542467,Idris,Mullen,9095189366,82 East Foster Street,Lansdale, PA,19446,
253657,Ishaan,Sawyer,2120562602,663 Chesapeake Way,Roy, UT,84067,
250303,Kole,Velez,7916155080,188 River Road,Plattsburgh, NY,12901,
506390,Korbin,Kelly,8610897001,7700 Morningside Drive Northwest,Hillsborough, NJ,08844,
229502,Seven,Harding,8911136664,3101 Penland Parkway,Indian Trail, NC,28079,
737619,Alaric,Huffman,2442346295,2417 Becker Place,Orange Park, FL,32065,
228594,Kellen,Pugh,5799838424,190 Exchange Street,Cantonment, FL,32533,
489816,Bronson,Dickerson,2988642931,430 Cornish Drive,Ooltewah, TN,37363,
818495,Franco,Andrews,4902530581,123 Villa View Court,Hastings, MN,55033,
642073,Wes,Roberson,7184837136,224 Charter Oak Street,New Berlin, WI,53151,
525659,Larry,Kent,9642729739,6729 North 54th Avenue,Elkhart, IN,46514,
704633,Mekhi,Anderson,5236699867,80 Homestead Street,Marlton, NJ,08053,
388632,Jamal,Shaffer,1332449048,2522 Fountain Avenue,Enfield, CT,06082,
595336,Dilan,Oconnell,9136128544,584 Rural Hill Road,Middle River, MD,21220,
923706,Elisha,White,7200660352,3041 West Marigold Drive,Cape Coral, FL,33904,
457701,Brennan,Zavala,4341888264,2324 North Briarwood Lane,Huntington Station, NY,11746,
684895,Kace,Burnett,8001067930,322 East Taylor Street,New Windsor, NY,12553,
380471,Van,Daniel,9504452020,10819 Bluegrass Parkway,Southaven, MS,38671,
104613,Felipe,Combs,7159193215,240 Chatham Lane,Port Huron, MI,48060,
376623,Fisher,Robinson,1224477880,7101 West Beardsley Road,Glendora, CA,91740,
261303,Cal,Washington,1032923793,565 North Lakeshore Drive,West Deptford, NJ,08096,
447452,Dior,Delacruz,9164015594,313 Lone Oak Drive,Frankfort, KY,40601,
771433,Judson,Berry,4422644877,2375 Main Street,Latrobe, PA,15650,
331827,Alfonso,Espinoza,6291544523,450 C Street,Clinton Township, MI,48035,
304549,Deandre,Caldwell,7868012101,14206 James Rees Way,Rolling Meadows, IL,60008,
541483,Rocky,Dunlap,2700141415,402 Tuten Avenue,Hyde Park, MA,02136,
994624,Henrik,Serrano,9627997742,1749 Haleys Hope Court,Logansport, IN,46947,
772710,Reuben,Ellison,5442233112,3208 Southwest 65th Street,East Elmhurst, NY,11369,
138143,Anders,George,9252571881,1189 Northwest End Avenue,Norwich, CT,06360,
442092,Arian,Stevens,1445406109,2079 Nashboro Boulevard,Green Cove Springs, FL,32043,
524592,Damir,Casey,4814583488,4594 Champagne Drive,Rego Park, NY,11374,
845721,Jacoby,King,5330467503,7770 West Bell Road,Dublin, GA,31021,
245065,Khalid,Cortez,5678064790,12022 Town Park Circle,Fleming Island, FL,32003,
401442,Kye,Carrillo,8645525828,10763 West 54th Place,Goodlettsville, TN,37072,
816564,Mustafa,Hays,2771142947,419 Wabasso Avenue,Longview, TX,75604,
401719,Jadiel,Cochran,1446737049,7202 Jump Street,Strongsville, OH,44136,
333208,Stefan,Marshall,4048448343,2313 Vegas Avenue,Palm City, FL,34990,
977582,Yousef,Wong,9016581113,1401 Saint George Avenue,Mount Airy, MD,21771,
481913,Aydin,Keith,2907082092,1612 Beech Street,Ambler, PA,19002,
713738,Jericho,Johnston,8465260476,1 Kempf Drive,Northbrook, IL,60062,
765827,Robin,Little,3891658634,403 Irwin Street,East Brunswick, NJ,08816,
743238,Wallace,Christian,7224684193,5611 North 61st Avenue,Urbandale, IA,50322,
538948,Alistair,Ayers,8520809709,2121 Stepping Stone Trail,Ada, OK,74820,
406178,Davion,Macias,3319590822,1413 G Street,Amityville, NY,11701,
337646,Alfred,Diaz,1023272517,12064 West 61st Avenue,Macomb, MI,48042,
909416,Ernesto,Wise,6390958539,8 Chestnut Street,Burlington, MA,01803,
719978,Kyng,Gates,1911138219,25 Edwards Street,Solon, OH,44139,
212089,Everest,Schwartz,2007536125,10714 Abercorn Street,Hagerstown, MD,21740,
473854,Gary,Romero,9525050053,6988 West Blackhawk Drive,Grand Rapids, MI,49503,
699117,Leroy,Fox,4926954161,2 Sotelo Avenue,North Ridgeville, OH,44039,
166425,Yahir,Melendez,5650061080,8595 West 81st Drive,Fremont, OH,43420,
713524,Braden,Glass,3210976518,228 East Huntingdon Street,Grovetown, GA,30813,
586601,Kelvin,Hale,6510291064,500 Revere Beach Boulevard,Dracut, MA,01826,
210904,Kristian,Goodman,8597230795,325 East 7th Street,Ankeny, IA,50023,
983084,Adler,Benitez,8856044869,13 Warren Avenue,Raeford, NC,28376,
962226,Avyaan,Schultz,9863510549,2909 Minnesota Avenue,New Lenox, IL,60451,
124839,Brayan,Golden,3440072511,5300 Robinwood Road,Harvey, IL,60426,
538581,Jones,Nunez,2551962583,1558 Goodfellow Road,West New York, NJ,07093,
841676,Truett,York,9475519217,6821 Northwest 25th Street,Bemidji, MN,56601,
417597,Aries,Griffin,6513316471,4438 Maine Avenue,Lawrence, MA,01841,
196099,Joey,Blevins,2999164152,8521 Crystal Street,Winona, MN,55987,
998730,Randy,Wang,7981801689,1205 Southwest 128th Street,Bristol, CT,06010,
339982,Jaxx,Barrett,5312085169,1804 Calhoun Avenue,Canfield, OH,44406,
479706,Jesiah,Lynch,5834620751,65 Hilltop Lane,Fort Wayne, IN,46804,
872630,Jovanni,Ortiz,5106797054,9920 West 81st Avenue,Ringgold, GA,30736,
512667,Azriel,Holder,6859554557,7308 Northwest 119th Street,Irmo, SC,29063,
943451,Brecken,Cook,8462138402,1311 Durrett Lane,Bardstown, KY,40004,
431548,Harley,Knight,5298586812,6148 Avon Avenue,Merrick, NY,11566,
312942,Zechariah,Fisher,9221328741,105 Inglewood Drive,Menasha, WI,54952,
785069,Gordon,Maxwell,9762954247,1637 Acre Circle,Austin, MN,55912,
689271,Jakai,Simmons,1277671600,1911 East 58th Avenue,Grove City, OH,43123,
258473,Carl,Copeland,9313172669,8216 West Citrus Way,Fairmont, WV,26554,
452779,Graysen,Valenzuela,7246253387,116 Queens Lane,Evans, GA,30809,
309600,Kylen,Lamb,5829664443,3162 Martin Luther King Junior Boulevard,Forest Hills, NY,11375,
725534,Ayan,Miller,4981916514,145 Grau Drive,Oviedo, FL,32765,
770820,Branson,Blackwell,8689703921,36 Grove Street,East Stroudsburg, PA,18301,
228211,Crosby,Graves,1943328261,534 Hamilton Street Northeast,Peachtree City, GA,30269,
137093,Dominik,Dougherty,9315073009,202 Pepperbush Road,Apopka, FL,32703,
603897,Jabari,Stewart,6254469711,701 West 36th Avenue,Gettysburg, PA,17325,
615316,Jaxtyn,Mosley,2119872676,798 Airport Road,Cheshire, CT,06410,
434202,Kristopher,Mcgrath,2157591670,2700 Verona Way,Newark, NJ,07103,
809316,Ulises,Garner,3699475972,18827 Fish Hatchery Road,Ocean Springs, MS,39564,
141521,Zyon,Hester,8475799850,7041 Dover Avenue,Fort Myers, FL,33905,
359562,Fox,Cantrell,2875733676,409 Snook Lane,Noblesville, IN,46060,
802469,Howard,Tucker,8491408182,210 Long Hill Court,Andover, MA,01810,
610032,Salvatore,Dawson,9742373091,1424 Winter Avenue,Thomasville, NC,27360,
901734,Turner,Preston,1509050604,128 East Oak Street,Shirley, NY,11967,
552310,Vance,Dalton,9132013776,2212 Daffin Drive,Biloxi, MS,39532,
561274,Harlem,Cervantes,7642157668,8349 West Stella Way,Glendale Heights, IL,60139,
871386,Jair,Reid,8184401612,5055 West 58th Avenue,Elk Grove Village, IL,60007,
386342,Jakobe,Ray,6971620600,12013 Blue Moon Avenue,Shelton, CT,06484,
808560,Jeremias,Green,3874605173,15509 East 7th Circle,Miami Beach, FL,33139,
315820,Osiris,Jefferson,9325512701,6 Sawmill Lane,Feasterville Trevose, PA,19053,
232519,Azael,Campbell,7439267551,20 Masters Way,Bayside, NY,11361,
678692,Bowie,Spencer,5286073421,3203 US Highway 98,Chatsworth, GA,30705,
548989,Canaan,Bolton,5638161096,125 John Street,Groton, CT,06340,
958713,Elon,Pitts,6914127262,517 Wesley Avenue,Bristow, VA,20136,
713711,Granger,Sparks,5995802022,6234 West 68th Circle,Oak Ridge, TN,37830,
252824,Karsyn,Wiley,1209402675,2313 Mansfield Avenue,Bay City, MI,48706,
471795,Zavier,Jordan,8506182261,2508 Grant Avenue,Reidsville, NC,27320,
240066,Cain,Perkins,8442465486,7841 North 59th Lane,Union, NJ,07083,
124767,Dangelo,Pittman,2272006326,226 Tranquility Lane,Sioux City, IA,51106,
391074,Heath,Mitchell,1971265582,1606 Aaron Street,New Castle, PA,16101,
115730,Yisroel,Braun,3008355657,7131 North 67th Avenue,Sterling, VA,20164,
310361,Gian,Mays,5902294595,2741 31st Place Northeast,West Palm Beach, FL,33404,
480357,Shepard,Leach,4724239912,2811 Mechanics Avenue,Chambersburg, PA,17201,
418630,Harold,Ware,5762007988,1636 Church Street Northwest,Pikesville, MD,21208,
932422,Kamdyn,Gallagher,9425778010,40700 Penn Lane,Nazareth, PA,18064,
735891,Rene,Patrick,5340515737,6725 Pamela Court,Campbell, CA,95008,
469594,Rodney,Santiago,3415260755,5005 North Miller Avenue,Westmont, IL,60559,
188523,Yaakov,Russell,3601010899,172 Alburg Springs Road,Roswell, GA,30075,
240314,Adrien,Bray,3968902794,5000 V Street Northwest,Burbank, IL,60459,
393824,Kartier,Hodge,4410173301,2502 Adrienne Way,Fort Dodge, IA,50501,
937734,Cassian,Tran,9081940671,1516 Ringe Drive,Grandville, MI,49418,
707424,Coleson,Klein,1717835649,1609 Porter Avenue,Baldwinsville, NY,13027,
695855,Ahmir,Conrad,3732548160,9300 C Street,Prior Lake, MN,55372,
399560,Darian,Stanton,3547719014,2139 Glynnwood Drive,Mesa, AZ,85203,
594598,Genesis,Boone,6722974700,29 Church Street,Loxahatchee, FL,33470,
217113,Kalel,Arnold,7078223016,303 Addison Drive,Xenia, OH,45385,
396776,Agustin,Estes,7298391018,407 Morse Street Northeast,Phoenixville, PA,19460,
913888,Wylder,Boyd,6586699484,1456 East 39th Street,Lincoln Park, MI,48146,
519599,Yadiel,Murphy,2415049605,1532 Milvia Street,Saint Charles, IL,60174,
559290,Ephraim,Landry,6650728132,207 Maple Hill Road,Bethesda, MD,20814,
974670,Kody,Escobar,8958795522,2426 East Onyx Trail,South Bend, IN,46614,
844058,Neo,Donovan,4970264468,2375 South School Avenue,Willingboro, NJ,08046,
380213,Ignacio,Fuller,9448755654,118 Pearl Street,Cookeville, TN,38501,
746599,Osman,Montoya,9063682394,6385 Oak Street,Maumee, OH,43537,
733952,Aldo,Parks,5193480146,826 Webster Street,Dalton, GA,30721,
445316,Abdullah,Vasquez,6821566260,24020 Reese Road,Brentwood, NY,11717,
855735,Cory,Soto,9340807834,3821 Southwest 25th Street,Pelham, AL,35124,
941697,Blaine,Meadows,6504347066,33 South Hill Avenue,Fairport, NY,14450,
906425,Dimitri,Orozco,6994603456,400 South 28th Street,Lorain, OH,44052,
805821,Khai,Mclaughlin,6018883564,52 Park Street,Lindenhurst, NY,11757,
570325,Landry,Williams,7916880610,6687 Xenon Drive,Spring Hill, FL,34608,
322541,Palmer,Aguirre,6518973627,1267 Martin Street,Wheeling, WV,26003,
326428,Benedict,Bradley,4372515111,519 West 75th Avenue,Savage, MN,55378,
845396,Leif,Park,2167922141,1780 142nd Avenue,San Jose, CA,95127,
533737,Koen,Pratt,1183638356,3100 Don Juan Court,Newtown, PA,18940,
614639,Maxton,Norton,3769256254,415 West 42nd Street,Muskegon, MI,49441,
859467,Mordechai,Villa,4238952701,310 Timrod Road,East Lansing, MI,48823,
401958,Zev,Cowan,5298965304,2611 Bluefield Avenue,North Canton, OH,44720,
823560,Atharv,Mills,2956122526,112 Coleman Boulevard,Manchester Township, NJ,08759,
388131,Bishop,Prince,9024455065,8318 North 57th Drive,Pleasanton, CA,94566,
780685,Blaise,Reeves,8693898249,1761 Thousand Oaks Boulevard,Pickerington, OH,43147,
742568,Davian,Mcdonald,9355961758,122 East Hayes Street,Trumbull, CT,06611,
257713,Olivia,Henderson,5801491824,4717 Forest Hills Drive,Enterprise, AL,36330,
874393,Emma,Blankenship,4188918201,17 Marina Drive,North Royalton, OH,44133,
897016,Charlotte,Craig,6889042414,3420 Horseshoe Circle,Chesapeake, VA,23320,
814710,Amelia,Grant,8343486959,1613 Ensenada Way,Round Lake, IL,60073,
785834,Ava,Atkinson,5159639419,4 Marsh Haven Lane,Naples, FL,34116,
505897,Sophia,Bird,3787396382,239 Eastern Avenue,Buckeye, AZ,85326,
917972,Isabella,Chambers,5053687924,178 Old Homestead Road,West Orange, NJ,07052,
226980,Mia,Arias,9737000227,53 Philip Road,Belmont, MA,02478,
482479,Evelyn,Lawson,4015090777,7085 West Northern Avenue,Silver Spring, MD,20901,
246596,Harper,Larson,1061664233,6286 West Louise Drive,Hackettstown, NJ,07840,
925926,Luna,Carroll,1602347222,2806 Bass Street,Villa Park, IL,60181,
803291,Camila,Cherry,8515148627,5330 Shaun Circle,Houston, TX,77016,
822794,Gianna,Maynard,1370537005,6275 Eric Lane,Algonquin, IL,60102,
196843,Elizabeth,Gilmore,1576310661,6369 West 70th Drive,East Haven, CT,06512,
617754,Eleanor,Marks,8541196213,62 High Street,Middleburg, FL,32068,
141145,Ella,Chapman,7603150735,1061 Sumatra Street,Burke, VA,22015,
884747,Abigail,Tyler,5998525833,6941 West 87th Way,Dearborn, MI,48124,
714894,Sofia,Warren,7497515353,1124 Frederick Douglass Avenue,Branford, CT,06405,
800528,Avery,Foley,3231492133,3377 Sandstone Court,Marquette, MI,49855,
733023,Scarlett,Mendoza,5688603362,6401 Green Meadow Lane,New Bedford, MA,02740,
439497,Emily,Atkins,3824460149,8293 Grayson Grove,Hendersonville, NC,28792,
645347,Aria,Cuevas,8012804848,103 Chevis Road,Ronkonkoma, NY,11779,
857332,Penelope,Costa,6533544664,5685 Express Drive,Bergenfield, NJ,07621,
888036,Chloe,Cameron,1917239940,12870 Old Seward Highway,Oceanside, NY,11572,
800343,Layla,Mercer,6256847190,190 Countryside Drive,South Ozone Park, NY,11420,
542527,Mila,Barker,2413546699,190 High Street,Romulus, MI,48174,
928858,Nora,Gentry,1193565602,905 C Street Northeast,Joliet, IL,60435,
498324,Hazel,Lara,8905127665,66 Troy Avenue,Bolingbrook, IL,60440,
579189,Madison,Lambert,8047578538,47634 Kato Road,Little Falls, NJ,07424,
519603,Ellie,Ellis,8211357004,6816 West 84th Circle,Atlanta, GA,30303,
376052,Lily,Hammond,9089925573,2068 Happy Lane,Englewood, NJ,07631,
640329,Nova,Mccarty,6915109862,2140 East 56th Avenue,Carrollton, GA,30117,
735854,Isla,Cole,7262407767,1217 Cottondale Road,Santa Cruz, CA,95060,
208245,Grace,Padilla,7707390925,599 Cambridge Street,Morganton, NC,28655,
319065,Violet,Herman,6031897247,6950 West Nicolet Avenue,South Richmond Hill, NY,11419,
277387,Aurora,Smith,7343941864,5615 West Acoma Drive,Palmetto, FL,34221,
873629,Riley,Beltran,9416287483,6617 North 59th Avenue,Newport News, VA,23601,
829413,Zoey,Mclean,2575239309,40 Highwood Drive,Cedar Falls, IA,50613,
515029,Willow,Dickson,6740830102,3446 Northwest 48th Street,Waterbury, CT,06705,
753134,Emilia,Trevino,6022992230,89 Frances Drive,Venice, FL,34293,
126893,Stella,Mann,7128365843,325 Autumn Street,Pewaukee, WI,53072,
752036,Zoe,Gross,4870520379,1040 West 27th Avenue,Toledo, OH,43612,
937042,Victoria,Holt,6348764756,21323 North 64th Avenue,Wooster, OH,44691,
501852,Hannah,Randall,9624830183,4341 Ponds Street Northeast,Lake Villa, IL,60046,
429642,Addison,Kirk,2693771081,1208 Festival Lane,Lemont, IL,60439,
671695,Leah,Lewis,3744697492,10654 North 60th Avenue,Monroeville, PA,15146,
947623,Lucy,Hutchinson,7485008719,8757 Lamar Circle,East Northport, NY,11731,
828689,Eliana,Dorsey,8658372828,5434 West Beck Lane,Brighton, MA,02135,
545080,Ivy,Bright,9570646660,912 Locklayer Street,Troy, NY,12180,
695989,Everly,Leon,2787587205,19141 Pine Ridge Circle,Westerville, OH,43081,
969693,Lillian,Bennett,3098512957,6483 West 76th Avenue,Sicklerville, NJ,08081,
953023,Paisley,Crane,7191216781,4112 Rockdale Street,Hammonton, NJ,08037,
826773,Elena,Molina,5047144828,1002 Highland Avenue,Canyon Country, CA,91387,
571580,Naomi,Booth,9825119672,16 Pine Hill Street,Hialeah, FL,33010,
455532,Maya,Moses,6523562455,225 Kennedy Road,Highland, IN,46322,
213868,Natalie,Spence,6334257437,5740 North 59th Avenue,New Haven, CT,06511,
676511,Kinsley,Mccall,8398931566,28 Wilfred Road,Asheboro, NC,27205,
793177,Delilah,Hurley,1428518085,304 Wilmington Island Road,Lorton, VA,22079,
814657,Claire,Wilcox,1278160503,3189 Main Street,Lakeville, MN,55044,
931481,Audrey,Sosa,4803929725,16 Cabot Street,Clover, SC,29710,
299988,Aaliyah,Proctor,2262624725,517 Copperfield Way,Delray Beach, FL,33445,
815655,Ruby,Fuentes,9710384967,80 South Main Street,Chicago Heights, IL,60411,
192425,Brooklyn,Waller,9635370560,312 North Cove Boulevard,Clementon, NJ,08021,
146900,Alice,Rivera,1479003955,10332 Thuja Circle,Banning, CA,92220,
370190,Aubrey,Dillon,4095637208,9730 West 81st Avenue,Bridgewater, NJ,08807,
227754,Autumn,Benjamin,1530619409,3142 North Warwick Drive,Lawrence Township, NJ,08648,
676434,Leilani,Bonilla,4913935957,4602 West Luke Avenue,Fairburn, GA,30213,
458735,Savannah,Williamson,2394897660,15 Mystic Avenue,Concord, NH,03301,
286687,Valentina,Rojas,8052638871,107 Laurel Green Court,Rockville Centre, NY,11570,
482961,Kennedy,Rios,6283913512,505 North Washington Avenue,Sevierville, TN,37876,
219657,Madelyn,Castro,5469860793,6851 Howard Avenue,Mount Holly, NJ,08060,
983707,Josephine,Schaefer,5340431819,712 Wilsonwood Place,Mount Pleasant, SC,29464,
463100,Bella,Ryan,7767187595,7912 Depew Street,Thornton, CO,80241,
741766,Skylar,Mcfarland,6676427496,2317 Fernwood Drive,Elkridge, MD,21075,
903914,Genesis,Warner,3236593096,1353 West 27th Avenue,Stamford, CT,06902,
396407,Sophie,Herrera,6743863852,7096 Park Mesa Way,Hanover, PA,17331,
240333,Hailey,Colon,4516340799,8502 Madrone Avenue,Thibodaux, LA,70301,
136712,Sadie,Benton,9093339168,1552 Gibson Street,Hickory, NC,28601,
727209,Natalia,Wood,8632281059,2636 Knollwood Drive,Virginia Beach, VA,23451,
997524,Quinn,Faulkner,7172618966,8820 Culebra Street,Londonderry, NH,03053,
251574,Caroline,Benson,4145468742,6060 West Royal Palm Road,Livingston, NJ,07039,
751401,Allison,Velazquez,4846801722,714 East 33rd Street,Leland, NC,28451,
145337,Gabriella,Cordova,6373022767,1139 Addison Street,Huntington, NY,11743,
630927,Anna,Wilkinson,9948936984,2278 North Windswept Lane,Anchorage, AK,99504,
255631,Serenity,Patel,8624564148,15 Cranberry Hill Road,Uniontown, PA,15401,
616605,Nevaeh,Freeman,3982714357,2 Addison Place,Greenfield, IN,46140,
592756,Cora,Johnson,8689209416,1276 Bending Creek Drive,Burnsville, MN,55337,
311793,Ariana,Burton,2493018276,881 Main Street,Salisbury, MD,21801,
135499,Emery,Wallace,2298700498,96 Green Manor Road,Hudson, NH,03051,
102817,Lydia,Richards,2810539942,5600 Carmichael Road,Ottawa, IL,61350,
724463,Jade,Cabrera,8896640358,5721 Frank Hough Road,West Fargo, ND,58078,
169929,Sarah,Horton,2408171703,208 Southeast 19th Street,Cornelius, NC,28031,
942179,Eva,Roberts,8304325600,788 Williamson Road,Stockbridge, GA,30281,
259792,Adeline,Fischer,7924308950,800 Old Stage Road,Dearborn, MI,48124,
637580,Madeline,Faulkner,7600265891,8915 Shevie Drive,Pueblo, CO,81001,
140967,Piper,Blanchard,9095574567,222 Plymouth Street,New Rochelle, NY,10801,
196407,Rylee,Mann,3276100635,3311 Wiley Post Loop,Essex, MD,21221,
341246,Athena,Boyle,1912153413,3 Hawser Way,North Bergen, NJ,07047,
382889,Peyton,Mccormick,7396769253,150 Somersby Boulevard,Fullerton, CA,92831,
329386,Everleigh,Romero,9332812312,6818 North Lagoon Drive,Pearl, MS,39208,
756403,Vivian,Gray,3627069225,4408 Bonaparte Boulevard,Loganville, GA,30052,
791616,Clara,Fowler,7545707565,5575 South Dakota Avenue Northeast,Henrico, VA,23228,
666981,Raelynn,Boyer,3501338627,12800 Saunders Road,Erie, PA,16506,
525159,Liliana,Todd,7910488036,1403 12th Street Northwest,Elizabethton, TN,37643,
131389,Samantha,Oliver,1562376228,1304 Northern Hills Road,Christiansburg, VA,24073,
891692,Maria,West,1329475530,75 Calfoster Drive,Hanover Park, IL,60133,
264999,Iris,Robertson,9650536229,1011 Irving Street Northeast,Middle River, MD,21220,
664360,Ayla,Graves,7658703168,202 Deer Run Trail,Andover, MA,01810,
438558,Eloise,Garrison,8195852413,3302 Woodland Park Drive,North Ridgeville, OH,44039,
531834,Lyla,Diaz,4816457347,5732 Jean Drive,Galloway, OH,43119,
510733,Eliza,Conrad,8975794813,3827 West Chapman Avenue,Dalton, GA,30721,
206841,Hadley,Lara,3059820953,1908 Peachtree Avenue,Salt Lake City, UT,84119,
210725,Melody,Morse,1020820442,1613 Katrina Circle,Adrian, MI,49221,
120410,Julia,Sharp,9138494261,1 Portsmouth Road,New Brunswick, NJ,08901,
655960,Parker,Reese,5266892103,9360 Hester Beasley Road,Danville, VA,24540,
539403,Rose,Mathis,2241817679,901 Samson Road,Beaver Falls, PA,15010,
438391,Isabelle,Cordova,3070169379,9506 Civic Way,Grand Rapids, MI,49503,
104222,Brielle,Huynh,5342005647,105 French Run Road,Bergenfield, NJ,07621,
815623,Adalynn,Norris,5312483448,116 9th Street Southeast,Raeford, NC,28376,
384805,Arya,Santiago,5012447763,1635 Generals Highway,Fargo, ND,58102,
252216,Eden,Mclean,8194173271,2409 Park Street,Hyde Park, MA,02136,
194121,Remi,Moss,2704134258,1992 West Street,Palm Harbor, FL,34683,
871139,Mackenzie,Buckley,7399676409,10723 Colonial Woods Court,Crown Point, IN,46307,
637673,Maeve,Avery,6955176052,107 Mark Drive,Mount Holly, NJ,08060,
238652,Margaret,Chung,2518782658,22649 McManus Drive,New Berlin, WI,53151,
856202,Reagan,Delacruz,1356793282,5929 West Via Montoya Drive,Dallas, GA,30132,
470530,Charlie,Castillo,2214762706,301 Argonaut Street,Davenport, IA,52804,
320859,Alaia,Brown,4097635361,849 East Victoria Street,Blackwood, NJ,08012,
561601,Melanie,Roy,3468502582,2909 Flamstead Road,Fairfax, VA,22030,
216910,Josie,Ortiz,8716312024,103 Martin Luther King Junior Boulevard,Joliet, IL,60435,
317475,Elliana,Blackburn,9825257888,14006 Coffee Bluff Road,Helena, MT,59601,
931124,Cecilia,Swanson,4115297519,11941 West 58th Avenue,Zanesville, OH,43701,
667869,Mary,Kent,8830769079,412 West Ila Street,Mankato, MN,56001,
538220,Daisy,Meadows,3109695403,7057 Old Southwick Place,Woonsocket, RI,02895,
542718,Alina,Waters,6159871848,11933 West 71st Avenue,Louisville, KY,40207,
776170,Lucia,Hill,1678457422,1265 Southeast 23rd Terrace,Fort Lee, NJ,07024,
144698,Ximena,Shah,1695223547,3110 East Victory Drive,Roanoke, VA,24012,
408585,Juniper,Black,8770301952,5029 Montclair Drive,Glen Allen, VA,23059,
940557,Kaylee,Branch,5755324016,6870 West 52nd Avenue,Bethlehem, PA,18015,
609059,Magnolia,Barber,1395393198,126 Sunshine Road,Allentown, PA,18102,
727155,Summer,Silva,4166646579,468 Raymond Drive,Plainview, NY,11803,
481019,Adalyn,Mcbride,9429464723,222 Quince Street,Mount Vernon, NY,10550,
727066,Sloane,Mccoy,5861187762,3415 Bog Road,Lakewood, NJ,08701,
598562,Amara,Wilson,6226038356,4360 Hagan Road,North Fort Myers, FL,33917,
748117,Arianna,Garza,1585196596,32 Prospect Street,Norcross, GA,30092,
887586,Isabel,Castaneda,7426138686,2812 Jasper Street Southeast,Latrobe, PA,15650,
332716,Reese,Austin,1929359374,2162 Mulberry Hill Road,Greensboro, NC,27405,
122465,Emersyn,Ross,4342287898,1245 Southwest 31st Street,Hillsboro, OR,97124,
535150,Sienna,Marshall,4649532430,780 South Wilmington Avenue,Clover, SC,29710,
887688,Kehlani,Rose,1013553895,3138 P Street Northwest,Doylestown, PA,18901,
303373,River,Hart,4928334496,7416 West Maryland Avenue,Chillicothe, OH,45601,
509379,Freya,Lowe,6122271314,2900 North Western Avenue,Livingston, NJ,07039,
584521,Valerie,Huffman,8757611455,817 Nevada Drive Northeast,Longview, TX,75604,
390148,Blakely,Watson,7501247837,10725 Sunset Boulevard,Bettendorf, IA,52722,
741305,Genevieve,Chang,8405933244,4207 Ranch Drive,Soddy Daisy, TN,37379,
584792,Esther,Holloway,9749650906,650 Malvern Street,Marlton, NJ,08053,
636244,Valeria,Jennings,7419757275,3782 North Front Street,Port Jefferson Station, NY,11776,
520288,Katherine,Charles,5320515228,5436 Dorbrandt Street,Jeffersonville, IN,47130,
421583,Kylie,Harper,6283230065,1835 Pointer Lane,Plattsburgh, NY,12901,
977533,Norah,Gentry,5667744439,11 Water Street,Depew, NY,14043,
246752,Amaya,Sanders,9497465776,4971 Janet Court,Clinton, MD,20735,
413306,Bailey,Maxwell,6567584284,8036 Laketowne Court,Parkersburg, WV,26101,
361020,Ember,Ewing,8789427162,856 Milton Street,Bartlett, IL,60103,
576021,Ryleigh,Green,4087357716,6000 Parker Drive,Delray Beach, FL,33445,
880976,Georgia,Sims,3080903117,98 Lincoln Street,Arvada, CO,80003,
350713,Catalina,Baker,7910252174,7529 West 72nd Avenue,Wilson, NC,27893,
750802,Emerson,Robbins,8724494159,120 North Block Avenue,Richmond, VA,23223,
364330,Alexandra,Martinez,9810880060,20270 Andover Avenue,Neptune, NJ,07753,
378072,Faith,Glass,7605324892,840 River Crest Court,Rockville Centre, NY,11570,
260079,Jasmine,Stephenson,5195012951,154 Boca Lagoon Drive,Millington, TN,38053,
536235,Ariella,Fletcher,6255336175,6450 West Bethany Home Road,Elizabeth City, NC,27909,
175297,Ashley,Joseph,5329684032,615 Florida Avenue,Temple Hills, MD,20748,
776407,Andrea,Clements,9068475944,1709 Vineyard Trail,Colonial Heights, VA,23834,
215559,Millie,Adams,8468783413,350 Woodbine Road,Oak Ridge, TN,37830,
865188,June,Gross,3903965499,200 Pheasant Avenue,Roswell, GA,30075,
450687,Khloe,Mcintosh,6199820937,84 Orange Street,Leland, NC,28451,
296671,Callie,Williams,6919498819,5630 Silverado Way,Pelham, AL,35124,
402113,Juliette,Chandler,5627861585,45430 Lauri Lane,Iowa City, IA,52240,
630759,Sage,Hood,4728934488,146 Walnut Street,Bowling Green, KY,42101,
409582,Ada,Hayes,1173558349,6244 Sun River Drive,Bakersfield, CA,93306,
233711,Anastasia,Zuniga,8632760042,4350 Woodley Square,Monroe Township, NJ,08831,
921640,Olive,Snow,2337261833,324 Martin Luther King Junior Boulevard,Ooltewah, TN,37363,
155916,Alani,Harrison,8631202071,2811 Battery Place Northwest,South Richmond Hill, NY,11419,
266033,Brianna,Grimes,8630759558,404 Summit Oaks Drive,Tucker, GA,30084,
951114,Rosalie,Ritter,8946607178,2631 Northrup Place,Absecon, NJ,08205,
483970,Molly,Logan,1634132423,464 Springfield Street,Kalispell, MT,59901,
584344,Brynlee,Edwards,8334054792,7071 Senators Drive,Floral Park, NY,11001,
924882,Amy,Mcdaniel,9463580640,4455 West 61st Place,Fond Du Lac, WI,54935,
191736,Ruth,Jordan,7171584129,4231 Laurel Street,Titusville, FL,32780,
679192,Aubree,Byrd,7336561827,711 Tatem Street,Saint Paul, MN,55104,
487744,Gemma,Mckay,9278068182,8709 Peeble Lane,Gibsonia, PA,15044,
623227,Taylor,Powell,2071263220,13360 West 83rd Place,Lilburn, GA,30047,
841111,Oakley,Cardenas,5886635928,Tyndall Drive,Cape Coral, FL,33904,
827717,Margot,Jarvis,4757677099,1405 Hickory Avenue,Livonia, MI,48150,
649674,Arabella,Guzman,8064377133,137 Gazebo East Drive,Dothan, AL,36301,
723561,Sara,Clark,5876369273,2362 Acushnet Avenue,Mahwah, NJ,07430,
747316,Journee,Gillespie,1840011550,162 Wells Street,Everett, MA,02149,
654841,Harmony,Stephens,8690323086,1347 Blackwalnut Court,Green Bay, WI,54302,
541017,Blake,Perkins,6488925527,623 Rhode Island Avenue Northwest,Terre Haute, IN,47802,
774485,Alaina,Skinner,6032764066,5024 Ryan Drive,Libertyville, IL,60048,
301297,Aspen,Hunt,1973979800,1731 West 18th Street,Derry, NH,03038,
278863,Noelle,Carney,9915572079,3541 North Road,Lemont, IL,60439,
945816,Selena,Murray,1025217487,1109 East Glenn Lane,Greensburg, PA,15601,
217999,Oaklynn,Thompson,4235377059,2310 Donleigh Court,Torrance, CA,90505,
706188,Morgan,Camacho,2615331912,6366 West Aurora Drive,Goodlettsville, TN,37072,
488333,Londyn,Jones,9213982742,37608 2nd Street,Strongsville, OH,44136,
101787,Zuri,Pearson,7798797814,4375 West Missouri Avenue,Zionsville, IN,46077,
796308,Aliyah,Prince,3651825264,10313 Durham Drive,Kenosha, WI,53140,
675191,Jordyn,Woodard,8420634754,1304 Southwest 67th Street,Newark, NJ,07103,
413820,Juliana,Nielsen,8883455758,23 North Hill Street,Portland, ME,04103,
254771,Finley,Haas,9240563675,111 20th Street,Wantagh, NY,11793,
705900,Presley,Garcia,2720852431,6721 Boundary Run,Waxhaw, NC,28173,
158914,Zara,Mclaughlin,6222944846,2613 Southeast 50th Street,Huntersville, NC,28078,
131237,Leila,Hanson,8901752167,6748 West San Juan Avenue,Passaic, NJ,07055,
682640,Marley,Murillo,5839888335,4600 Ritchie Highway,Abingdon, MD,21009,
941040,Sawyer,Potts,8057499664,832 51st Street Northeast,North Augusta, SC,29841,
247115,Amira,Wilkinson,8331220048,2903 West 31st Avenue,Thibodaux, LA,70301,
396332,Lilly,Newman,1017624037,2619 North Quality Lane,Lindenhurst, NY,11757,
577465,London,Campbell,3833655544,7025 Queen Street,Cherry Hill, NJ,08003,
344941,Kimberly,Mathews,6175286276,58 North U.S.A Drive,Moncks Corner, SC,29461,
539829,Elsie,Espinoza,1128288132,140 South Hill Avenue,Santa Clara, CA,95050,
439434,Ariel,Lloyd,2389463495,86 Pine Street,Milwaukee, WI,53204,
482240,Lila,Villa,3159365614,637 Britannia Drive,Windermere, FL,34786,
780254,Alana,Stokes,6841964464,159 Adams Street,Bozeman, MT,59715,
576500,Diana,Bowen,7085171744,1106 Mission Drive,Mechanicsville, VA,23111,
657560,Kamila,Johnston,6400761339,450 Kinhawk Drive,Nanuet, NY,10954,
319853,Nyla,Hampton,2956367177,2849 Leawood Drive,Arlington, MA,02474,
248711,Vera,Lozano,1728289305,1215 Joseph Avenue,Deerfield Beach, FL,33442,
841244,Hope,Floyd,3974729746,1497 Greenbrier Road,Lynn, MA,01902,
610075,Annie,Sosa,2931248273,26 Seaman Circle,Muskegon, MI,49441,
817303,Kaia,Solomon,6910091593,713 East 32nd Street,Centereach, NY,11720,
738741,Myla,Taylor,7861149712,14 Tranquil Place,Auburn, NY,13021,
687566,Alyssa,Bauer,1392936986,3620 Bentfield Drive,New Port Richey, FL,34653,
179624,Angela,Kelly,7388230260,323 Randolph Street,Mobile, AL,36605,
175496,Ana,Flowers,6693019632,1930 Churchview Court,Elk River, MN,55330,
209383,Lennon,Roth,2436949745,2704 McGee Avenue,Menomonee Falls, WI,53051,
695723,Evangeline,Underwood,4609840415,2817 3rd Street,Orlando, FL,32806,
193304,Harlow,Mcclain,2433492003,921 5th Street Southeast,Lawrence, MA,01841,
290065,Rachel,Johns,4183085091,926 Mill Court,Clifton, NJ,07011,
815164,Gracie,Coffey,6083516468,136 Acacia Drive,Cleveland, TN,37312,
916005,Rowan,Gamble,9661733501,2927 Martin Luther King Junior Avenue Southeast,Bayonne, NJ,07002,
463772,Laila,Franco,2374013551,718 Newhall Drive,Deland, FL,32720,
425223,Elise,Allen,5142807149,5631 West Colter Street,Saugus, MA,01906,
903419,Sutton,Conley,4482706988,388 East Main Street,York, PA,17402,
322532,Lilah,Abbott,8689192018,23622 Greatland Drive,Newport News, VA,23601,
695680,Adelyn,Aguilar,3861340675,34 Holyoke Road,Butte, MT,59701,
676772,Phoebe,Trujillo,1766316790,115 Falkirk Street,Circle Pines, MN,55014,
863202,Octavia,Foster,6904037307,4506 Eads Place Northeast,West Bend, WI,53095,
834928,Sydney,Gardner,9560835196,1311 Elm Hill Pike,Kokomo, IN,46901,
251189,Mariana,Hall,8259783083,1109 East 35th Street,Asheville, NC,28803,
889050,Wren,Jensen,2371483557,7541 Florence Circle,Winter Haven, FL,33880,
722433,Lainey,Thornton,4514791321,314 Lallemand Court,Tallahassee, FL,32303,
465140,Vanessa,Morrison,9584722525,5113 Village Trace,Simpsonville, SC,29680,
343631,Teagan,Lam,2989069558,153 Atlantic Avenue,Englewood, NJ,07631,
870422,Kayla,Murphy,2409348527,405 Savannah Park Way,Pompano Beach, FL,33060,
781659,Malia,Flores,4566072839,12300 Apache Avenue,Lutherville Timonium, MD,21093,
145544,Elaina,Singleton,3012574850,5634 Kipling Parkway,Middleton, WI,53562,
359670,Saylor,Chaney,5702018525,9 Thomas Street,Oxford, MS,38655,
928759,Brooke,Sheppard,4494953026,17 West 26th Circle,Sulphur, LA,70663,
954823,Lola,Glover,3232121540,195 Nursery Street,Jamestown, NY,14701,
450456,Miriam,Glenn,7429952753,332 33rd Avenue North,Rolla, MO,65401,
765638,Alayna,Holder,4702626889,420 Cove Villa Street,Cumberland, RI,02864,
644418,Adelaide,Boyd,1921741293,1711 8th Street Northwest,Wheaton, IL,60187,
189251,Daniela,Rush,8668111915,619 West 19th Avenue,Hartford, CT,06106,
632540,Jane,Santos,8026632547,407 Bon Air Avenue,West Hempstead, NY,11552,
357449,Payton,Zimmerman,6825856512,2685 California Street,Northville, MI,48167,
719168,Journey,Rosario,1255503073,1736 81st Avenue,Loxahatchee, FL,33470,
238883,Lilith,Dickerson,8694404520,566 Middle Turnpike East,Concord, NH,03301,
283285,Delaney,Rasmussen,2816591046,1015 Castle Road,Jonesborough, TN,37659,
414967,Dakota,Atkinson,6063269894,3466 Southview Avenue,Fresno, CA,93706,
820525,Mya,Merritt,9820208089,10202 Vista Drive,Palm Coast, FL,32137,
808321,Charlee,Wilkins,6690162489,6990 Pierson Street,Southaven, MS,38671,
847385,Alivia,Liu,8633673107,4 Stemson Way,Nampa, ID,83651,
150739,Annabelle,Burke,3721336876,12 Netherclift Way,Pomona, CA,91768,
157978,Kailani,Arias,7410806983,7800 River Mist Avenue,Jackson Heights, NY,11372,
666685,Lucille,Hinton,4222132778,702 Farragut Street Northwest,Marysville, OH,43040,
387673,Trinity,Best,9211870722,435 Porter Lake Drive,Chicago Heights, IL,60411,
963050,Gia,May,9520154462,1811 1st Street Northwest,Malvern, PA,19355,
388480,Tatum,Maldonado,4599404878,2203 7th Street Road,Canal Winchester, OH,43110,
698715,Raegan,Rhodes,7979957265,3138 Banneker Drive Northeast,Mebane, NC,27302,
716522,Camille,Everett,6905513114,7681 Delridge Circle,Kaukauna, WI,54130,
769494,Kaylani,Barron,2226998221,2405 230th Street,Hicksville, NY,11801,
944135,Kali,Parker,9116740863,3079 North Bentley Ridge,Voorhees, NJ,08043,
725288,Stevie,Rivas,3680266617,109 High Street,Aiken, SC,29803,
432188,Maggie,Velazquez,3560212026,294 East Lakeshore Drive,West Springfield, MA,01089,
551265,Haven,Mckenzie,1239256863,5928 West Mauna Loa Lane,Wayne, NJ,07470,
781401,Tessa,Morales,8986346991,4601 Reka Drive,Melrose, MA,02176,
393480,Daphne,Bass,5001344296,1330 North Mission Boulevard,West Warwick, RI,02893,
940193,Adaline,Cantu,1866809006,74 Springfield Street,Glen Burnie, MD,21060,
566971,Hayden,Walton,4149087765,4333 Catherine Street,Hoboken, NJ,07030,
316975,Joanna,Bradshaw,2160196247,17109 Guava Avenue,Allison Park, PA,15101,
971569,Jocelyn,Noble,2704035640,102 East Ash Road,Park Ridge, IL,60068,
714173,Lena,Nunez,6163718440,2248 South Sutherland Drive,Buffalo Grove, IL,60089,
643444,Evie,Bean,7813219728,2650 East Huntsville Road,Macungie, PA,18062,
829043,Juliet,Wiley,4012717078,154 Byrd Drive,Zion, IL,60099,
318532,Fiona,Rios,6016969780,26 Garfield Street,Huntington Station, NY,11746,
104715,Cataleya,Miles,4843672958,81 Buck Hill Road,Baldwin, NY,11510,
620801,Angelina,Hardin,9665319167,10638 Happyville Road,Hackensack, NJ,07601,
553396,Leia,Hicks,4197264390,369 Ruth Avenue,Villa Rica, GA,30180,
890767,Paige,Cuevas,9827146256,328 17th Street,Westwood, NJ,07675,
676610,Julianna,Larson,4579044588,3504 Mount View Ridge Drive,Brownsburg, IN,46112,
700820,Milani,Archer,1833143347,39 Cottage Street,East Meadow, NY,11554,
436828,Talia,Arellano,5502482748,2224 East Tall Oaks Drive,Palos Verdes Peninsula, CA,90274,
406447,Rebecca,Gordon,5355150723,1537 Northwest 123rd Street,Franklin, MA,02038,
445518,Kendall,Farrell,5544278460,2906 Clare Avenue,West Bloomfield, MI,48322,
726252,Harley,Chen,5718235321,2402 Eastbridge Court,Erlanger, KY,41018,
459880,Lia,Rangel,3330311432,4200 Northwest 59th Street,Duluth, GA,30096,
419173,Phoenix,Mckee,1617612216,1358 Scenic Avenue,Clermont, FL,34711,
904017,Dahlia,Rice,6453729738,205 North Henderson Bend Road Northwest,Myrtle Beach, SC,29577,
768309,Logan,Nelson,6559049230,549 Elysian Fields Road,Morrisville, PA,19067,
154668,Camilla,Garner,9377117454,1236 Southwest 49th Street,Blacksburg, VA,24060,
558890,Thea,Kerr,7545417225,505 Tarpon Street,Greenwood, SC,29646,
746576,Jayla,Frank,4651066974,6069 Jay Street,Collierville, TN,38017,
993862,Brooklynn,Tran,7588527481,1600 West 11th Avenue,Wake Forest, NC,27587,
909593,Blair,Carroll,8753568553,33655 5th Street,Jamaica Plain, MA,02130,
936585,Vivienne,Cooke,8848599904,7100 Old Seward Highway,Lake Worth, FL,33460,
157247,Hallie,Donovan,4417049345,707 Harrisburg Drive,Marshfield, WI,54449,
986156,Madilyn,Mooney,2174619159,4125 Cobia Street,Rego Park, NY,11374,
187411,Mckenna,Stewart,8397991357,8501 Twin Gable Drive,Waynesboro, PA,17268,
933884,Evelynn,Burch,2267122048,8376 Albacore Drive,Charlotte, NC,28205,
516279,Ophelia,Leonard,6849414999,1612 Whitemarsh Way,Yorktown Heights, NY,10598,
144035,Celeste,Pineda,1995267185,320 Union Station Way,Waldorf, MD,20601,
827261,Alayah,Fitzpatrick,8864630566,3145 19th Avenue Court,Summerfield, FL,34491,
494104,Winter,Bonilla,9615363838,10632 Admiral Court,Cary, NC,27511,
429358,Catherine,James,8472429171,190 Church Street,Lake Jackson, TX,77566,
942014,Collins,Howard,1218889982,81 Lyness Street,West Haven, CT,06516,
707214,Nina,Cruz,1015210264,27 Leary Drive,Avon, IN,46123,
746829,Briella,Ramos,8866225600,4400 Vaneto Drive,Medford, MA,02155,
266663,Palmer,Bradford,3425836537,435 Benita Drive,Fleming Island, FL,32003,
320797,Noa,Donaldson,9200092877,640 Hilliard Street,Coventry, RI,02816,
153833,Mckenzie,Cowan,4085145189,125 Heritage Way,Owensboro, KY,42301,
683284,Kiara,Kelley,7051944026,1516 Buchanan Street Northwest,Chattanooga, TN,37421,
773618,Amari,Ray,7061429432,513 10th Street Southeast,Ormond Beach, FL,32174,
204913,Adriana,Clayton,7471860315,20443 Granite Park Circle,Clarksburg, WV,26301,
361285,Gracelynn,Holden,5043048383,1401 Cordova Street,Williamstown, NJ,08094,
287350,Lauren,Krueger,1839065703,2008 North Shannon Drive,Williamsburg, VA,23185,
104282,Cali,Bell,9805544987,233 Juniper Drive,Falls Church, VA,22041,
469300,Kalani,Cabrera,7184080122,915 Arkansas Avenue,Snohomish, WA,98290,
694630,Aniyah,Knapp,2966795994,1439 2nd Street,Nashua, NH,03060,
984676,Nicole,Douglas,8087173664,3905 Lyceum Avenue,Lexington, NC,27292,
918532,Alexis,Terry,2419098709,840 Inglewood Drive,Massillon, OH,44646,
617484,Mariah,Ayers,6404527968,614 East Duffy Lane,Griffin, GA,30223,
777456,Gabriela,Harrell,7192502638,463 East Rutgers Loop,Atwater, CA,95301,
743200,Wynter,Owens,3354844372,1902 6th Street Northwest,Cottage Grove, MN,55016,
911807,Amina,Padilla,3448052196,149 Lenox Street,Canton, GA,30114,
851904,Ariyah,Salinas,4296753729,270 Tampa Drive,Grosse Pointe, MI,48236,
507500,Adelynn,Graham,9737447656,6413 Kendall Street,Newburgh, NY,12550,
296301,Remington,Browning,3656719407,4537 Tanglewood Trail,Valley Stream, NY,11580,
463664,Reign,Hurst,7871986024,1816 14th Avenue,Lancaster, NY,14086,
238071,Alaya,Valentine,3231504681,816 East 69th Street,West Lafayette, IN,47906,
506620,Dream,Bartlett,6168258009,311 South Panama Street,West Fargo, ND,58078,
445741,Alexandria,Golden,2206355988,846 Allen Road,Encino, CA,91316,
955898,Willa,Valenzuela,6186400245,7085 Gladiola Street,Saint Augustine, FL,32084,
940850,Avianna,Hutchinson,9562591642,2327 Pomeroy Road Southeast,Beltsville, MD,20705,
391111,Makayla,Orr,2110588296,2511 Hearst Avenue,Chaska, MN,55318,
782794,Gracelyn,Hubbard,4137600755,119 Captain Chase Road,Traverse City, MI,49684,
394749,Elle,Elliott,9917083046,8848 North New World Drive,Troy, NY,12180,
571359,Amiyah,Ellis,3697626750,329 Mill Road,Redford, MI,48239,
962389,Arielle,Cunningham,4843082467,116 Frost Park,Ephrata, PA,17522,
906268,Elianna,Rich,2245235899,7 Maple Hill Road,Buford, GA,30518,
407437,Giselle,Crosby,5295471723,30 Curtis Road,Burbank, IL,60459,
114611,Brynn,Benitez,6348840173,2723 East Joyce Boulevard,Covington, GA,30014,
443190,Ainsley,Blair,3114138626,173 Center Street,Goose Creek, SC,29445,
580039,Aitana,Peters,7059614868,8320 Cloud Street,Paramus, NJ,07652,
680733,Charli,Norman,5321261013,3436 Lexington Road,Worcester, MA,01604,
891500,Demi,Ramsey,1158508480,361 Parmley Lane,Shelton, CT,06484,
181723,Makenna,Travis,9510522789,11813 West 75th Circle,Palatine, IL,60067,
768834,Rosemary,Lawrence,5217077083,5840 Eagle Circle,Chambersburg, PA,17201,
326040,Danna,Simmons,4880086370,3420 Northwest 41st Street,Woodbridge, VA,22191,
761039,Izabella,Hester,5842412085,9457 Winfield Place,Springboro, OH,45066,
776545,Lilliana,Preston,1685695409,2500 Snowdoun Chambers Road,Owings Mills, MD,21117,
134556,Melissa,Munoz,6541281082,9 Kimball Court,Far Rockaway, NY,11691,
315093,Samara,Curtis,4496277384,112 Aquinnah Drive,Howell, NJ,07731,
108348,Lana,Vaughn,1425586324,9827 Davenport Avenue,Littleton, CO,80123,
437650,Mabel,Ware,6023984982,429 Dennison Ridge Drive,Rahway, NJ,07065,
694811,Everlee,Montoya,3775469365,2500 Medallion Drive,Lewis Center, OH,43035,
257361,Fatima,Medina,3497151481,12 Saint Andrews Crossover,Millville, NJ,08332,
562458,Leighton,Scott,7942865146,7998 Chase Circle,Pleasanton, CA,94566,
873711,Esme,Horn,2256120779,33 Linscott Road,Mount Pleasant, SC,29464,
390849,Raelyn,Holland,8663326475,5 Irving Street,Conyers, GA,30012,
306393,Madeleine,Olson,7910530317,8188 Poinsett Terrace,Bluffton, SC,29910,
612340,Nayeli,Simpson,1210677821,5950 West Missouri Avenue,Summerville, SC,29483,
911102,Camryn,Church,1328679897,21007 North 53rd Avenue,Hamden, CT,06514,
897552,Kira,Gibbs,5393518230,2209 Florida Avenue,Murrells Inlet, SC,29576,
720101,Annalise,Porter,3589981602,3114 West 20th Court,Redondo Beach, CA,90278,
899062,Selah,Frost,1694469117,8351 Forest Drive,Johnston, RI,02919,
291142,Serena,Warren,3475384034,6057 Griffith Avenue,Fort Mill, SC,29708,
473369,Royalty,Heath,2002046130,104 Greenwood Drive,Wappingers Falls, NY,12590,
786459,Rylie,Roberts,6629367540,831 West Center Street,Clemmons, NC,27012,
312573,Celine,Powers,5953555405,3901 West End Avenue,Grand Forks, ND,58201,
763980,Laura,Rodriguez,8076256663,182 Regency Circle,Lenoir, NC,28645,
977646,Brinley,Warner,1212194133,1259 Everett Avenue,Duarte, CA,91010,
141298,Frances,Garrett,3061856058,269 Hugh Thomas Drive,Grand Island, NE,68801,
204072,Michelle,Valencia,9810024506,9030 Pennington PIace,West Deptford, NJ,08096,
557374,Heidi,Meza,2692208683,24 Lambert Street,Westfield, MA,01085,
402595,Rory,Lucero,8347199916,8 Linden Circle,Upper Darby, PA,19082,
149160,Sabrina,Macdonald,3650683546,1350 Exley Street,Monsey, NY,10952,
491870,Destiny,Velasquez,1468716510,4700 10th Street Northeast,Ellicott City, MD,21042,
401168,Gwendolyn,Molina,5908066666,127 Grand Heron Drive,Maplewood, NJ,07040,
115680,Alessandra,Melton,2614858710,34 Harris Street,Anaheim, CA,92806,
314358,Poppy,Jacobs,1088251246,8935 Cole Drive,Stroudsburg, PA,18360,
552798,Amora,Burns,4513540072,620 Veta Avenue,Saint Johns, FL,32259,
792925,Nylah,Potter,9872173084,86 Highland Street,Navarre, FL,32566,
311386,Luciana,Hoover,2953328284,91 Eldridge Street,Thornton, CO,80241,
925598,Maisie,Moody,8336556910,4132 Carmichael Road,Coachella, CA,92236,
480730,Miracle,Chase,1322896733,433 Keith Street,North Olmsted, OH,44070,
874585,Joy,Pruitt,4575257142,21950 Arnold Center Road,Sun Prairie, WI,53590,
557753,Liana,Zamora,5428728182,57413 Taku Avenue,Zeeland, MI,49464,
758861,Raven,Randall,8804858707,1 Tanaquay Court,San Jose, CA,95127,
627620,Shiloh,Hensley,4044865817,1710 East Harold Street,Canfield, OH,44406,
493544,Allie,Patterson,8625614417,189 Danforth Street,Lake Charles, LA,70605,
850238,Daleyza,Collins,6088277935,1164 Middle Turnpike West,North Kingstown, RI,02852,
350218,Kate,Sellers,7568978593,13 Breezy Palm Way,New Albany, IN,47150,
647793,Lyric,Spence,7391501617,13501 Vasili Drive,Hermitage, TN,37076,
107369,Alicia,Flynn,3589287018,7725 Ney Avenue,Miamisburg, OH,45342,
968123,Lexi,White,2385791384,6436 Stoney Point Road,Los Angeles, CA,90008,
516561,Addilyn,Wagner,3840172273,115 Wells Street,Southfield, MI,48076,
298925,Anaya,Mills,4827917194,8070 Holland Court,Westlake, OH,44145,
743035,Malani,Gallagher,8437947723,1309 Columbia Road Northwest,Syosset, NY,11791,
988994,Paislee,Mendez,6715131047,5116 Feys Court,Tonawanda, NY,14150,
476915,Elisa,Osborn,6626401017,402 Carlton Place,Wyandotte, MI,48192,
521397,Kayleigh,Wells,1020673788,1815 Grove Hill Lane,Indianapolis, IN,46201,
147072,Azalea,Calderon,4854083150,80 North East Street,Lake Villa, IL,60046,
956722,Francesca,Hamilton,9035795133,3 Carson Street,Douglasville, GA,30134,
346859,Jordan,Ferrell,9903596321,5545 Saddlewood Lane,Huntington, NY,11743,
719918,Regina,Hale,2706094560,829 Main Street,Burnsville, MN,55337,
983981,Viviana,Bolton,7055595644,5113 Southeast 51st Street,Egg Harbor Township, NJ,08234,
618485,Aylin,Moyer,1662859452,206 Blue Marlin Drive,Sanford, NC,27330,
704319,Skye,Gutierrez,2023274812,10262 West 59th Avenue,Windsor Mill, MD,21244,
871860,Daniella,Schroeder,7223931510,8117 Mountain View Circle,Rapid City, SD,57701,
762881,Makenzie,Blackwell,4890695019,1032 Brayhill Road,Batavia, OH,45103,
731278,Veronica,Cline,3126366553,313 Post Road,Elgin, IL,60120,
497921,Legacy,Colon,5376639069,378 Bonny Street,Glendale Heights, IL,60139,
640549,Maia,Pugh,4649219512,5420 Allison Street,Gulfport, MS,39503,
476365,Ariah,Hahn,9582102853,1544 Kenilworth Avenue Northeast,Piedmont, SC,29673,
857562,Alessia,Lynch,4760546666,6451 West Bell Road,Ocean Springs, MS,39564,
946922,Carmen,Brady,4865928477,305 Broderick Place,Fredericksburg, VA,22405,
557517,Astrid,Daniel,1307819875,4246 Ray Drive,Pataskala, OH,43062,
246314,Maren,Norton,3447589051,1504 P Street Northwest,Honolulu, HI,96815,
819486,Helen,Brennan,7946941195,1819 14th Avenue,Lafayette, IN,47905,
716004,Felicity,Mejia,4400999052,227 Danyacrest Drive,Dekalb, IL,60115,
534556,Alexa,Allison,5705893610,3704 Hughes Road,West Babylon, NY,11704,
186253,Danielle,Cameron,6315821097,2643 North Sierra Avenue,Scarsdale, NY,10583,
246229,Lorelei,Nixon,8949165084,90 Peabody Street,Danvers, MA,01923,
673093,Paris,Chan,1282541677,713 Flight Avenue,Buffalo, NY,14215,
840066,Adelina,Moran,3152290053,3231 North Kings Cross,Westmont, IL,60559,
509926,Bianca,Vazquez,6138554558,82 The Commons,Lincoln, NE,68506,
255285,Gabrielle,Sawyer,9845364109,1113 West Trinity Lane,Patchogue, NY,11772,
468394,Jazlyn,Kim,3537433823,102 East Cydnee Street,Plainfield, NJ,07060,
616950,Scarlet,Morris,8491093250,112 Joyner Avenue,Gastonia, NC,28052,
799629,Bristol,Mcneil,6186764568,9545 West 74th Avenue,Biloxi, MS,39532,
335923,Navy,Stanley,3296607895,3777 Mowry Avenue,New Haven, CT,06511,
879472,Esmeralda,Huff,7683600044,424 Callan Avenue,Saint Joseph, MI,49085,
803887,Colette,Page,1762626791,2311 West Lawson Street,Rocklin, CA,95677,
334611,Stephanie,Chambers,6720465546,417 R Street Northwest,Daphne, AL,36526,
467858,Jolene,Case,2731798001,6420 Via Baron,Gaithersburg, MD,20877,
863042,Marlee,Weaver,4182977439,4303 Ashleycreek Court,Fairmont, WV,26554,
771067,Sarai,Morgan,8618859203,1420 12th Street Northwest,Johnson City, TN,37601,
232904,Hattie,Washington,1545187657,4940 Fuller Road,Roanoke Rapids, NC,27870,
533880,Nadia,Dyer,6027741576,332 Stafford Road,Parsippany, NJ,07054,
818282,Rosie,Cooper,4459834764,22618 South Figueroa Street,Bardstown, KY,40004,
431710,Kamryn,Briggs,8291638696,1607 Louisiana Avenue,Niceville, FL,32578,
772837,Kenzie,Duncan,8113134388,7720 Allison Street,Brighton, MA,02135,
572667,Alora,Dickson,5416154795,67 Steeplechase Drive,Pembroke Pines, FL,33028,
292136,Holly,Ball,4416015648,880 General George Patton Road,Henderson, KY,42420,
144689,Matilda,Fry,7262618665,31 Buckland Hills Drive,Glen Cove, NY,11542,
681029,Sylvia,Montes,4685057612,5396 North Reese Avenue,Orland Park, IL,60462,
495158,Cameron,Stout,1165154248,37675 Fremont Boulevard,Champlin, MN,55316,
115642,Armani,Pollard,3263327399,1416 Ridgewood Avenue,Moses Lake, WA,98837,
216898,Emelia,King,1890890261,228 Common Street,Cockeysville, MD,21030,
904624,Keira,Herring,9074328898,2113 Bowen Drive,Staten Island, NY,10301,
580552,Braelynn,Schultz,8943741468,984 Greendale Avenue,Barrington, IL,60010,
720168,Jacqueline,Becker,3740869068,7060 Eastern Avenue,Austin, MN,55912,
767468,Alison,Wong,7787553659,1233 Paradise Lane,Pawtucket, RI,02860,
245570,Amanda,Schneider,4137101090,13426 West Rovey Avenue,Waterford, MI,48329,
555644,Cassidy,Wall,5054900910,3 Southerberry Drive,Amityville, NY,11701,
811231,Emory,Odom,6240560083,19 Euston Street,Snellville, GA,30039,
923064,Ari,Kennedy,3177932269,600 Marshall Street,Raleigh, NC,27603,
403085,Haisley,Compton,8889708840,5581 Nolan Street,Appleton, WI,54911,
912361,Jimena,Galloway,7514516269,119 Redwood Road,Muncie, IN,47302,
752668,Jessica,Clarke,8831483336,503 Orchard Road,Union, NJ,07083,
733958,Elaine,Howell,6584059421,8716 Astrid Avenue,Ashtabula, OH,44004,
216856,Dorothy,Khan,3356398955,145 Great Western Road,Dyersburg, TN,38024,
424330,Mira,Ruiz,2442926360,2236 Susitna Drive,Mocksville, NC,27028,
467562,Eve,Zhang,9857953604,169 Wachusett Street,Ogden, UT,84404,
381545,Oaklee,Schmitt,8493454268,2543 The Meadows,Bridgewater, NJ,08807,
427879,Averie,Evans,1934704696,302 Elberta Street,Shelbyville, TN,37160,
911910,Charleigh,Singh,4264070111,18117 Muldrow Street,Southington, CT,06489,
162403,Lyra,Ward,4992795202,6514 West Golden Lane,Painesville, OH,44077,
775204,Madelynn,Barr,4030344139,3365 Wyndham Drive,Oconomowoc, WI,53066,
424424,Angel,Drake,3662700471,201 West Montgomery Cross Road,Elizabethtown, PA,17022,
912231,Edith,Cross,9523759968,129 Glen Street,Miami Beach, FL,33139,
712569,Jennifer,Alexander,1805218926,932 Northwest 20th Street,Tullahoma, TN,37388,
129281,Raya,Mayer,8020323757,36 Saint Ives Drive,Cornelius, NC,28031,
857186,Ryan,Mayo,4391229754,711 Tashanna Lane,Savannah, GA,31404,
302358,Heaven,Fritz,2719723572,1250 Pram Place,Fort Dodge, IA,50501,
534307,Kyla,Brandt,8959603941,8159 West 81st Avenue,Cincinnati, OH,45211,
371643,Wrenley,Gonzalez,4248013428,2134 West Mills Drive,Niagara Falls, NY,14304,
651513,Meadow,Hobbs,6692201220,1219 Carleton Street,Milford, MA,01757,
921223,Carter,Mcknight,2750569979,1900 West Virginia Avenue Northeast,Michigan City, IN,46360,
295561,Kora,Lane,5871945111,11865 West 74th Avenue,East Brunswick, NJ,08816,
917866,Saige,Cooley,3054902712,2024 Merrily Drive,Waterloo, IA,50701,
961170,Kinley,Wood,3903352268,4500 Margalo Avenue,Downingtown, PA,19335,
181339,Maci,Knox,5155662194,1606 Trevilian Way,Lady Lake, FL,32159,
950669,Mae,Holmes,1793702240,275 Henry Street,Whitehall, PA,18052,
379686,Salem,Wise,9939066653,5170 Hickory Hollow Parkway,Atlanta, GA,30303,
831699,Aisha,Barton,4425602423,333 Saint Charles Avenue,Camp Hill, PA,17011,
457783,Adley,Leblanc,3121724587,2169 Barre Road,Berwyn, IL,60402,
949857,Carolina,Yates,1447844662,642 South 2nd Street,Stratford, CT,06614,
846566,Sierra,Francis,3808895709,17 Stratfield Avenue,Dublin, GA,31021,
964371,Alma,Mercer,8507576076,130 Carolina Cherry Circle,Bel Air, MD,21014,
547903,Helena,Bentley,2352755240,1194 Cragmont Avenue,Harlingen, TX,78552,
339607,Bonnie,Calhoun,9137820060,15 Lakewood Drive,Wethersfield, CT,06109,
652266,Mylah,Walters,3141984720,3449 Rockway Avenue,Bountiful, UT,84010,
636043,Briar,Estrada,6098954137,1414 West 7th Avenue,Des Plaines, IL,60016,
231176,Aurelia,Pace,5125310993,6418 Iris Way,Pittsford, NY,14534,
375656,Leona,Ballard,1752824863,649 Praderia Circle,Ankeny, IA,50023,
258353,Macie,Stafford,6903946653,919 Windsor Avenue,Virginia Beach, VA,23451,
863951,Maddison,Salazar,5284155464,253 Colt Drive,Minot, ND,58701,
375466,April,Stevenson,4975767202,8010 Holland Court,Westford, MA,01886,
751808,Aviana,Saunders,2770607092,5836 Red Barn Road,Calhoun, GA,30701,
282543,Lorelai,Maddox,9582558841,37 Spring Street,Rochester, NY,14606,
909707,Alondra,Bautista,4268332010,631 West 32nd Avenue,Pasadena, MD,21122,
800322,Kennedi,Summers,4431130663,5065 North 54th Avenue,Lacey, WA,98503,
766550,Monroe,Sanford,7862090574,1960 Sigfrid Court,Bayside, NY,11361,
698345,Emely,Dorsey,1615169902,115 Home Avenue,Uniontown, PA,15401,
732053,Maliyah,Reid,6835501906,5792 Owl Hill Avenue,New York, NY,10002,
425665,Ailani,Figueroa,8614847339,2708 Riverview Drive,Powell, TN,37849,
902957,Madilynn,Shepherd,6358371437,4667 Benning Road Southeast,Ponte Vedra Beach, FL,32082,
552717,Renata,Barrera,5150684764,6740 Van Gordon Street,Chicago, IL,60621,
584355,Katie,Cobb,7753968082,4385 Wares Ferry Road,Irwin, PA,15642,
761739,Zariah,Raymond,8253500543,3949 Ethan Allen Highway,Chandler, AZ,85224,
119751,Imani,Stevens,3295480759,1426 C Street Southeast,Westminster, MD,21157,
250560,Amber,Phelps,9868536015,6140 Fenton Street,Woodhaven, NY,11421,
121426,Analia,Rodgers,6775993423,60 Desousa Drive,Apex, NC,27502,
896908,Ariya,Wilkerson,3010814352,5510 Montgomery Street,Oklahoma City, OK,73112,
807711,Anya,Huber,6260558903,6391 West 60th Avenue,Ontario, CA,91762,
203001,Emberly,Weber,1380864232,243 Kentucky Avenue,North Miami Beach, FL,33160,
602228,Emmy,Hayden,6021620217,7030 Cotton Blossom Lane,Cocoa, FL,32927,
641897,Mara,Walter,7858429890,954 Dowler Drive,Chapel Hill, NC,27516,
347513,Maryam,Daugherty,9774953442,412 Lakefront Drive,Deer Park, NY,11729,
796607,Dior,Buchanan,1252167147,6817 Brentwood Street,Phillipsburg, NJ,08865,
655201,Mckinley,Downs,6719558757,244 La Normandy Drive,Miami, FL,33125,
435264,Virginia,Hendricks,4969235513,2620 West 33rd Avenue,Victoria, TX,77904,
225859,Amalia,Frazier,5307521183,22572 Toreador Drive,Mount Airy, MD,21771,
381605,Mallory,Armstrong,3045567847,7431 Gilbert Road,Prior Lake, MN,55372,
357508,Opal,Klein,2178372296,6604 Northwest 130th Street,Lake In The Hills, IL,60156,
899835,Shelby,Hogan,8211175510,1809 Hughes Street,Freehold, NJ,07728,
150633,Clementine,Pittman,8211231631,7350 West Wedington Drive,Levittown, NY,11756,
736089,Remy,Horton,2543503113,4 Orchard Street,Utica, NY,13501,
539030,Xiomara,Spears,2147560332,644 West Maple Street,Salem, MA,01970,
895270,Elliott,Andersen,1158365116,112 3rd Street Northeast,Branford, CT,06405,
781327,Elora,Proctor,9823729086,121 Mills Run Drive,West Des Moines, IA,50265,
917929,Katalina,Serrano,8304712507,2936 State Avenue,Bridgeport, CT,06606,
359488,Antonella,Reed,3083212547,7326 North 62nd Avenue,Lockport, NY,14094,
994641,Skyler,Middleton,1685972388,5112 Southwest 124th Place,New Bern, NC,28560,
642028,Hanna,Mack,3576368690,5 Meadow Lane,Sacramento, CA,95820,
158807,Kaliyah,Anthony,7032587710,4319 West Claremont Street,Sterling, VA,20164,
491308,Alanna,Day,6410111932,21 Carver Lane,Norwich, CT,06360,
525661,Haley,Michael,8164300640,7453 West Melinda Lane,Mc Lean, VA,22101,
526620,Itzel,Duran,6297334588,5921 Ashwood Bluff Drive,Georgetown, SC,29440,
429040,Cecelia,Marquez,5914971690,3365 South Cato Springs Road,Martinsville, VA,24112,
674439,Jayleen,Malone,5425252053,827 10th Street Northeast,Gwynn Oak, MD,21207,
316825,Kensley,Larsen,1533638327,4525 West Frier Drive,Canyon Country, CA,91387,
712236,Beatrice,Rogers,3246166977,13 Riverview Avenue,Wilkes Barre, PA,18702,
539435,Journi,Paul,1580113480,108 Springer Lane,Smithtown, NY,11787,
864495,Dylan,Sloan,6408002684,5118 Augusta Road,Queensbury, NY,12804,
146123,Ivory,Hansen,4821408031,330 Michell Court,Carpentersville, IL,60110,
286628,Yaretzi,Osborne,5620592890,2868 Peak Road,Suffolk, VA,23434,
770806,Meredith,Randolph,6950457985,2721 Lindsay Avenue,Chelmsford, MA,01824,
141902,Sasha,House,6670602135,2100 Sandy Creek Trail,Fairhope, AL,36532,
347977,Gloria,Cole,2311058086,1809 Cedar Drive,North Andover, MA,01845,
848841,Oaklyn,Hebert,9358530342,517 West 33rd Street,North Brunswick, NJ,08902,
933033,Sloan,York,9325538676,6114 West Glenn Drive,Braintree, MA,02184,
449345,Abby,Gonzales,9150866713,19259 North 61st Drive,Sarasota, FL,34231,
420687,Davina,Aguirre,3488364615,1521 North Olympic Club Avenue,Eastlake, OH,44095,
811944,Lylah,Bowers,7430229287,912 Countryside Lane,Potomac, MD,20854,
373291,Erin,Leach,3519844378,536 Walters Farm Road,Middletown, CT,06457,
245109,Reyna,Acevedo,9877983856,6324 Moore Circle,Williamsport, PA,17701,
562887,Kaitlyn,Brewer,8826697633,1405 Tolkien Drive,Lumberton, NC,28358,
808428,Michaela,Sweeney,4292709924,6604 North 59th Avenue,Kissimmee, FL,34741,
134994,Nia,Beasley,6143770872,23 Columbia Drive,Marietta, GA,30008,
316135,Fernanda,Patel,7113228497,653 Stratton Arlington Road,Bethel Park, PA,15102,
979257,Jaliyah,Hodges,7034885104,706 James Road,Jacksonville Beach, FL,32250,
229664,Jenna,Mcconnell,6564449583,4900 Cambridge Way,Evanston, IL,60201,
721308,Sylvie,Martin,2266462172,8417 Timothy Lane,Westport, CT,06880,
326496,Miranda,Key,4745404102,6208 Ingalls Street,Allen Park, MI,48101,
701432,Anne,Bishop,9922281675,903 East 20th Avenue,Greenfield, IN,46140,
187971,Mina,Stanton,3047225487,7911 Deronia Avenue,Hallandale, FL,33009,
640702,Myra,Roach,8120492042,1937 Carleton Street,Centreville, VA,20120,
651420,Aleena,Ochoa,3673407304,5701 North 67th Avenue,Cranston, RI,02920,
638869,Alia,Hooper,7186402579,2707 Wendell Avenue,Point Pleasant Beach, NJ,08742,
682427,Frankie,Monroe,2969365470,17480 Beaujolais Circle,San Lorenzo, CA,94580,
